<?xml version="1.0" encoding="UTF-8"?>
<kml xmlns="http://www.opengis.net/kml/2.2">
  <Document>
    <name>pyvisgraph complex example - staggered wall maze (20 walls)</name>
    <Placemark>
      <name>boundary</name>
      <Polygon>
        <outerBoundaryIs><LinearRing><coordinates>
          5.990,51.010,0 6.210,51.010,0 6.210,51.138,0 5.990,51.138,0 5.990,51.010,0
        </coordinates></LinearRing></outerBoundaryIs>
      </Polygon>
    </Placemark>
    <Placemark>
      <name>wall-r1-1</name>
      <Polygon>
        <outerBoundaryIs><LinearRing><coordinates>
          6.000,51.020,0 6.030,51.020,0 6.030,51.028,0 6.000,51.028,0 6.000,51.020,0
        </coordinates></LinearRing></outerBoundaryIs>
      </Polygon>
    </Placemark>
    <Placemark>
      <name>wall-r1-2</name>
      <Polygon>
        <outerBoundaryIs><LinearRing><coordinates>
          6.042,51.020,0 6.090,51.020,0 6.090,51.028,0 6.042,51.028,0 6.042,51.020,0
        </coordinates></LinearRing></outerBoundaryIs>
      </Polygon>
    </Placemark>
    <Placemark>
      <name>wall-r1-3</name>
      <Polygon>
        <outerBoundaryIs><LinearRing><coordinates>
          6.102,51.020,0 6.150,51.020,0 6.150,51.028,0 6.102,51.028,0 6.102,51.020,0
        </coordinates></LinearRing></outerBoundaryIs>
      </Polygon>
    </Placemark>
    <Placemark>
      <name>wall-r1-4</name>
      <Polygon>
        <outerBoundaryIs><LinearRing><coordinates>
          6.162,51.020,0 6.200,51.020,0 6.200,51.028,0 6.162,51.028,0 6.162,51.020,0
        </coordinates></LinearRing></outerBoundaryIs>
      </Polygon>
    </Placemark>
    <Placemark>
      <name>wall-r2-1</name>
      <Polygon>
        <outerBoundaryIs><LinearRing><coordinates>
          6.000,51.045,0 6.060,51.045,0 6.060,51.053,0 6.000,51.053,0 6.000,51.045,0
        </coordinates></LinearRing></outerBoundaryIs>
      </Polygon>
    </Placemark>
    <Placemark>
      <name>wall-r2-2</name>
      <Polygon>
        <outerBoundaryIs><LinearRing><coordinates>
          6.072,51.045,0 6.120,51.045,0 6.120,51.053,0 6.072,51.053,0 6.072,51.045,0
        </coordinates></LinearRing></outerBoundaryIs>
      </Polygon>
    </Placemark>
    <Placemark>
      <name>wall-r2-3</name>
      <Polygon>
        <outerBoundaryIs><LinearRing><coordinates>
          6.132,51.045,0 6.180,51.045,0 6.180,51.053,0 6.132,51.053,0 6.132,51.045,0
        </coordinates></LinearRing></outerBoundaryIs>
      </Polygon>
    </Placemark>
    <Placemark>
      <name>wall-r2-4</name>
      <Polygon>
        <outerBoundaryIs><LinearRing><coordinates>
          6.192,51.045,0 6.200,51.045,0 6.200,51.053,0 6.192,51.053,0 6.192,51.045,0
        </coordinates></LinearRing></outerBoundaryIs>
      </Polygon>
    </Placemark>
    <Placemark>
      <name>wall-r3-1</name>
      <Polygon>
        <outerBoundaryIs><LinearRing><coordinates>
          6.000,51.070,0 6.012,51.070,0 6.012,51.078,0 6.000,51.078,0 6.000,51.070,0
        </coordinates></LinearRing></outerBoundaryIs>
      </Polygon>
    </Placemark>
    <Placemark>
      <name>wall-r3-2</name>
      <Polygon>
        <outerBoundaryIs><LinearRing><coordinates>
          6.024,51.070,0 6.096,51.070,0 6.096,51.078,0 6.024,51.078,0 6.024,51.070,0
        </coordinates></LinearRing></outerBoundaryIs>
      </Polygon>
    </Placemark>
    <Placemark>
      <name>wall-r3-3</name>
      <Polygon>
        <outerBoundaryIs><LinearRing><coordinates>
          6.108,51.070,0 6.168,51.070,0 6.168,51.078,0 6.108,51.078,0 6.108,51.070,0
        </coordinates></LinearRing></outerBoundaryIs>
      </Polygon>
    </Placemark>
    <Placemark>
      <name>wall-r3-4</name>
      <Polygon>
        <outerBoundaryIs><LinearRing><coordinates>
          6.180,51.070,0 6.200,51.070,0 6.200,51.078,0 6.180,51.078,0 6.180,51.070,0
        </coordinates></LinearRing></outerBoundaryIs>
      </Polygon>
    </Placemark>
    <Placemark>
      <name>wall-r4-1</name>
      <Polygon>
        <outerBoundaryIs><LinearRing><coordinates>
          6.000,51.095,0 6.048,51.095,0 6.048,51.103,0 6.000,51.103,0 6.000,51.095,0
        </coordinates></LinearRing></outerBoundaryIs>
      </Polygon>
    </Placemark>
    <Placemark>
      <name>wall-r4-2</name>
      <Polygon>
        <outerBoundaryIs><LinearRing><coordinates>
          6.060,51.095,0 6.108,51.095,0 6.108,51.103,0 6.060,51.103,0 6.060,51.095,0
        </coordinates></LinearRing></outerBoundaryIs>
      </Polygon>
    </Placemark>
    <Placemark>
      <name>wall-r4-3</name>
      <Polygon>
        <outerBoundaryIs><LinearRing><coordinates>
          6.120,51.095,0 6.156,51.095,0 6.156,51.103,0 6.120,51.103,0 6.120,51.095,0
        </coordinates></LinearRing></outerBoundaryIs>
      </Polygon>
    </Placemark>
    <Placemark>
      <name>wall-r4-4</name>
      <Polygon>
        <outerBoundaryIs><LinearRing><coordinates>
          6.168,51.095,0 6.200,51.095,0 6.200,51.103,0 6.168,51.103,0 6.168,51.095,0
        </coordinates></LinearRing></outerBoundaryIs>
      </Polygon>
    </Placemark>
    <Placemark>
      <name>wall-r5-1</name>
      <Polygon>
        <outerBoundaryIs><LinearRing><coordinates>
          6.000,51.120,0 6.024,51.120,0 6.024,51.128,0 6.000,51.128,0 6.000,51.120,0
        </coordinates></LinearRing></outerBoundaryIs>
      </Polygon>
    </Placemark>
    <Placemark>
      <name>wall-r5-2</name>
      <Polygon>
        <outerBoundaryIs><LinearRing><coordinates>
          6.036,51.120,0 6.084,51.120,0 6.084,51.128,0 6.036,51.128,0 6.036,51.120,0
        </coordinates></LinearRing></outerBoundaryIs>
      </Polygon>
    </Placemark>
    <Placemark>
      <name>wall-r5-3</name>
      <Polygon>
        <outerBoundaryIs><LinearRing><coordinates>
          6.096,51.120,0 6.144,51.120,0 6.144,51.128,0 6.096,51.128,0 6.096,51.120,0
        </coordinates></LinearRing></outerBoundaryIs>
      </Polygon>
    </Placemark>
    <Placemark>
      <name>wall-r5-4</name>
      <Polygon>
        <outerBoundaryIs><LinearRing><coordinates>
          6.156,51.120,0 6.200,51.120,0 6.200,51.128,0 6.156,51.128,0 6.156,51.120,0
        </coordinates></LinearRing></outerBoundaryIs>
      </Polygon>
    </Placemark>
  </Document>
</kml>
