<?xml version="1.0" encoding="UTF-8"?>
<kml xmlns="http://www.opengis.net/kml/2.2">
  <Document>
    <name>pyvisgraph medium example - concave shapes, multi-geometry and a hole</name>
    <Placemark>
      <name>rectangle-a</name>
      <Polygon>
        <outerBoundaryIs><LinearRing><coordinates>
          6.010,51.010,0 6.030,51.010,0 6.030,51.020,0 6.010,51.020,0 6.010,51.010,0
        </coordinates></LinearRing></outerBoundaryIs>
      </Polygon>
    </Placemark>
    <Placemark>
      <name>rectangle-b</name>
      <Polygon>
        <outerBoundaryIs><LinearRing><coordinates>
          6.120,51.070,0 6.140,51.070,0 6.140,51.085,0 6.120,51.085,0 6.120,51.070,0
        </coordinates></LinearRing></outerBoundaryIs>
      </Polygon>
    </Placemark>
    <Placemark>
      <name>l-shape</name>
      <Polygon>
        <outerBoundaryIs><LinearRing><coordinates>
          6.040,51.010,0 6.070,51.010,0 6.070,51.020,0 6.050,51.020,0 6.050,51.045,0 6.040,51.045,0 6.040,51.010,0
        </coordinates></LinearRing></outerBoundaryIs>
      </Polygon>
    </Placemark>
    <Placemark>
      <name>u-shape</name>
      <Polygon>
        <outerBoundaryIs><LinearRing><coordinates>
          6.080,51.010,0 6.110,51.010,0 6.110,51.045,0 6.100,51.045,0 6.100,51.020,0 6.090,51.020,0 6.090,51.045,0 6.080,51.045,0 6.080,51.010,0
        </coordinates></LinearRing></outerBoundaryIs>
      </Polygon>
    </Placemark>
    <Placemark>
      <name>star</name>
      <Polygon>
        <outerBoundaryIs><LinearRing><coordinates>
          6.0250,51.0800,0 6.0215,51.0699,0 6.0107,51.0696,0 6.0193,51.0631,0 6.0162,51.0529,0 6.0250,51.0590,0 6.0338,51.0529,0 6.0307,51.0631,0 6.0393,51.0696,0 6.0285,51.0699,0 6.0250,51.0800,0
        </coordinates></LinearRing></outerBoundaryIs>
      </Polygon>
    </Placemark>
    <Placemark>
      <name>twin-triangles</name>
      <MultiGeometry>
        <Polygon>
          <outerBoundaryIs><LinearRing><coordinates>
            6.060,51.060,0 6.075,51.060,0 6.0675,51.072,0 6.060,51.060,0
          </coordinates></LinearRing></outerBoundaryIs>
        </Polygon>
        <Polygon>
          <outerBoundaryIs><LinearRing><coordinates>
            6.085,51.075,0 6.100,51.075,0 6.0925,51.087,0 6.085,51.075,0
          </coordinates></LinearRing></outerBoundaryIs>
        </Polygon>
      </MultiGeometry>
    </Placemark>
    <Placemark>
      <name>square-with-hole</name>
      <Polygon>
        <outerBoundaryIs><LinearRing><coordinates>
          6.120,51.010,0 6.145,51.010,0 6.145,51.035,0 6.120,51.035,0 6.120,51.010,0
        </coordinates></LinearRing></outerBoundaryIs>
        <innerBoundaryIs><LinearRing><coordinates>
          6.128,51.018,0 6.137,51.018,0 6.137,51.027,0 6.128,51.027,0 6.128,51.018,0
        </coordinates></LinearRing></innerBoundaryIs>
      </Polygon>
    </Placemark>
  </Document>
</kml>
