<?xml version="1.0" encoding="UTF-8"?>
<kml xmlns="http://www.opengis.net/kml/2.2">
  <Document>
    <name>pyvisgraph benchmark map 17 - 60 obstacles</name>
    <Placemark>
      <name>obstacle_0</name>
      <Polygon>
        <outerBoundaryIs><LinearRing><coordinates>
          6.379684,51.215272,0 6.372887,51.214914,0 6.357087,51.199537,0 6.353526,51.198072,0 6.357611,51.195148,0 6.362197,51.193644,0 6.379684,51.215272,0
        </coordinates></LinearRing></outerBoundaryIs>
      </Polygon>
    </Placemark>
    <Placemark>
      <name>obstacle_1</name>
      <Polygon>
        <outerBoundaryIs><LinearRing><coordinates>
          6.381754,51.213269,0 6.378531,51.214924,0 6.368310,51.200368,0 6.380391,51.210987,0 6.381754,51.213269,0
        </coordinates></LinearRing></outerBoundaryIs>
      </Polygon>
    </Placemark>
    <Placemark>
      <name>obstacle_2</name>
      <Polygon>
        <outerBoundaryIs><LinearRing><coordinates>
          6.384536,51.206501,0 6.362762,51.211339,0 6.361292,51.200287,0 6.362745,51.198963,0 6.367830,51.194989,0 6.370718,51.193529,0 6.387150,51.200969,0 6.384536,51.206501,0
        </coordinates></LinearRing></outerBoundaryIs>
      </Polygon>
    </Placemark>
    <Placemark>
      <name>obstacle_3</name>
      <Polygon>
        <outerBoundaryIs><LinearRing><coordinates>
          6.042238,51.476617,0 6.037126,51.476015,0 6.037375,51.450710,0 6.058809,51.463114,0 6.042238,51.476617,0
        </coordinates></LinearRing></outerBoundaryIs>
      </Polygon>
    </Placemark>
    <Placemark>
      <name>obstacle_4</name>
      <Polygon>
        <outerBoundaryIs><LinearRing><coordinates>
          6.055617,51.471197,0 6.047555,51.472425,0 6.045047,51.472576,0 6.035348,51.457106,0 6.046647,51.446594,0 6.055617,51.471197,0
        </coordinates></LinearRing></outerBoundaryIs>
      </Polygon>
    </Placemark>
    <Placemark>
      <name>obstacle_5</name>
      <Polygon>
        <outerBoundaryIs><LinearRing><coordinates>
          6.064373,51.473520,0 6.052578,51.479435,0 6.036839,51.469251,0 6.039566,51.466958,0 6.037181,51.456857,0 6.056825,51.450968,0 6.060792,51.463748,0 6.064373,51.473520,0
        </coordinates></LinearRing></outerBoundaryIs>
      </Polygon>
    </Placemark>
    <Placemark>
      <name>obstacle_6</name>
      <Polygon>
        <outerBoundaryIs><LinearRing><coordinates>
          6.471450,51.217963,0 6.458078,51.214095,0 6.453195,51.202336,0 6.452858,51.201902,0 6.454008,51.197635,0 6.455027,51.196692,0 6.463200,51.194190,0 6.471450,51.217963,0
        </coordinates></LinearRing></outerBoundaryIs>
      </Polygon>
    </Placemark>
    <Placemark>
      <name>obstacle_7</name>
      <Polygon>
        <outerBoundaryIs><LinearRing><coordinates>
          6.475091,51.208265,0 6.478137,51.212337,0 6.468515,51.216964,0 6.459342,51.217179,0 6.456761,51.220288,0 6.474227,51.200746,0 6.475091,51.208265,0
        </coordinates></LinearRing></outerBoundaryIs>
      </Polygon>
    </Placemark>
    <Placemark>
      <name>obstacle_8</name>
      <Polygon>
        <outerBoundaryIs><LinearRing><coordinates>
          6.483794,51.205320,0 6.482658,51.211851,0 6.476392,51.193306,0 6.482430,51.195315,0 6.486055,51.202418,0 6.483794,51.205320,0
        </coordinates></LinearRing></outerBoundaryIs>
      </Polygon>
    </Placemark>
    <Placemark>
      <name>obstacle_9</name>
      <Polygon>
        <outerBoundaryIs><LinearRing><coordinates>
          6.454828,51.051040,0 6.448831,51.048786,0 6.454038,51.035317,0 6.476041,51.032668,0 6.477455,51.034848,0 6.477408,51.040362,0 6.454828,51.051040,0
        </coordinates></LinearRing></outerBoundaryIs>
      </Polygon>
    </Placemark>
    <Placemark>
      <name>obstacle_10</name>
      <Polygon>
        <outerBoundaryIs><LinearRing><coordinates>
          6.478441,51.051343,0 6.477016,51.051019,0 6.464076,51.051966,0 6.474446,51.031109,0 6.476437,51.030189,0 6.480589,51.036532,0 6.478441,51.051343,0
        </coordinates></LinearRing></outerBoundaryIs>
      </Polygon>
    </Placemark>
    <Placemark>
      <name>obstacle_11</name>
      <Polygon>
        <outerBoundaryIs><LinearRing><coordinates>
          6.472996,51.056564,0 6.468581,51.059214,0 6.462096,51.058160,0 6.468646,51.032924,0 6.480514,51.044578,0 6.472996,51.056564,0
        </coordinates></LinearRing></outerBoundaryIs>
      </Polygon>
    </Placemark>
    <Placemark>
      <name>obstacle_12</name>
      <Polygon>
        <outerBoundaryIs><LinearRing><coordinates>
          6.133899,51.299092,0 6.120192,51.303618,0 6.116956,51.303998,0 6.105600,51.293239,0 6.128744,51.282925,0 6.131063,51.287367,0 6.133899,51.299092,0
        </coordinates></LinearRing></outerBoundaryIs>
      </Polygon>
    </Placemark>
    <Placemark>
      <name>obstacle_13</name>
      <Polygon>
        <outerBoundaryIs><LinearRing><coordinates>
          6.135169,51.298381,0 6.133757,51.308895,0 6.126846,51.309486,0 6.122829,51.308938,0 6.122245,51.314020,0 6.119788,51.307992,0 6.110059,51.298375,0 6.126912,51.283442,0 6.135169,51.298381,0
        </coordinates></LinearRing></outerBoundaryIs>
      </Polygon>
    </Placemark>
    <Placemark>
      <name>obstacle_14</name>
      <Polygon>
        <outerBoundaryIs><LinearRing><coordinates>
          6.288154,51.310831,0 6.276138,51.304716,0 6.279908,51.290556,0 6.278684,51.288433,0 6.289074,51.286902,0 6.301759,51.289661,0 6.300122,51.295589,0 6.305080,51.297730,0 6.288154,51.310831,0
        </coordinates></LinearRing></outerBoundaryIs>
      </Polygon>
    </Placemark>
    <Placemark>
      <name>obstacle_15</name>
      <Polygon>
        <outerBoundaryIs><LinearRing><coordinates>
          6.302783,51.295600,0 6.280899,51.304701,0 6.276252,51.287593,0 6.298413,51.283825,0 6.298035,51.285709,0 6.302783,51.295600,0
        </coordinates></LinearRing></outerBoundaryIs>
      </Polygon>
    </Placemark>
    <Placemark>
      <name>obstacle_16</name>
      <Polygon>
        <outerBoundaryIs><LinearRing><coordinates>
          6.298125,51.309113,0 6.296541,51.304613,0 6.284627,51.304190,0 6.294038,51.280860,0 6.303150,51.284220,0 6.298125,51.309113,0
        </coordinates></LinearRing></outerBoundaryIs>
      </Polygon>
    </Placemark>
    <Placemark>
      <name>obstacle_17</name>
      <Polygon>
        <outerBoundaryIs><LinearRing><coordinates>
          6.380623,51.135260,0 6.371060,51.140873,0 6.357544,51.138481,0 6.355885,51.134682,0 6.365149,51.117506,0 6.368985,51.116158,0 6.374431,51.118176,0 6.380623,51.135260,0
        </coordinates></LinearRing></outerBoundaryIs>
      </Polygon>
    </Placemark>
    <Placemark>
      <name>obstacle_18</name>
      <Polygon>
        <outerBoundaryIs><LinearRing><coordinates>
          6.357919,51.129911,0 6.360500,51.122706,0 6.361434,51.122009,0 6.358433,51.121429,0 6.382782,51.119245,0 6.357919,51.129911,0
        </coordinates></LinearRing></outerBoundaryIs>
      </Polygon>
    </Placemark>
    <Placemark>
      <name>obstacle_19</name>
      <Polygon>
        <outerBoundaryIs><LinearRing><coordinates>
          6.190237,51.114467,0 6.196126,51.106568,0 6.213200,51.104722,0 6.212513,51.111207,0 6.190237,51.114467,0
        </coordinates></LinearRing></outerBoundaryIs>
      </Polygon>
    </Placemark>
    <Placemark>
      <name>obstacle_20</name>
      <Polygon>
        <outerBoundaryIs><LinearRing><coordinates>
          6.217543,51.125684,0 6.205602,51.132845,0 6.198787,51.113193,0 6.204859,51.108389,0 6.217543,51.125684,0
        </coordinates></LinearRing></outerBoundaryIs>
      </Polygon>
    </Placemark>
    <Placemark>
      <name>obstacle_21</name>
      <Polygon>
        <outerBoundaryIs><LinearRing><coordinates>
          6.466979,51.459017,0 6.461848,51.465551,0 6.447543,51.469380,0 6.439476,51.458976,0 6.454429,51.441988,0 6.457193,51.448756,0 6.466035,51.456661,0 6.466979,51.459017,0
        </coordinates></LinearRing></outerBoundaryIs>
      </Polygon>
    </Placemark>
    <Placemark>
      <name>obstacle_22</name>
      <Polygon>
        <outerBoundaryIs><LinearRing><coordinates>
          6.445977,51.462903,0 6.444662,51.455479,0 6.449310,51.447169,0 6.454030,51.450698,0 6.445977,51.462903,0
        </coordinates></LinearRing></outerBoundaryIs>
      </Polygon>
    </Placemark>
    <Placemark>
      <name>obstacle_23</name>
      <Polygon>
        <outerBoundaryIs><LinearRing><coordinates>
          6.222944,51.379812,0 6.224907,51.381133,0 6.223307,51.387900,0 6.205160,51.389069,0 6.202936,51.392066,0 6.198257,51.382437,0 6.194123,51.375842,0 6.220438,51.369133,0 6.222944,51.379812,0
        </coordinates></LinearRing></outerBoundaryIs>
      </Polygon>
    </Placemark>
    <Placemark>
      <name>obstacle_24</name>
      <Polygon>
        <outerBoundaryIs><LinearRing><coordinates>
          6.220942,51.394941,0 6.205716,51.368779,0 6.206330,51.369414,0 6.220155,51.369626,0 6.218556,51.374003,0 6.221791,51.370921,0 6.227369,51.378494,0 6.225484,51.379446,0 6.220942,51.394941,0
        </coordinates></LinearRing></outerBoundaryIs>
      </Polygon>
    </Placemark>
    <Placemark>
      <name>obstacle_25</name>
      <Polygon>
        <outerBoundaryIs><LinearRing><coordinates>
          6.221326,51.385695,0 6.212233,51.390603,0 6.209774,51.390357,0 6.199194,51.382972,0 6.199824,51.381647,0 6.195813,51.374716,0 6.212012,51.363502,0 6.221326,51.385695,0
        </coordinates></LinearRing></outerBoundaryIs>
      </Polygon>
    </Placemark>
    <Placemark>
      <name>obstacle_26</name>
      <Polygon>
        <outerBoundaryIs><LinearRing><coordinates>
          6.132233,51.374843,0 6.118376,51.383645,0 6.117539,51.383537,0 6.108561,51.381616,0 6.109167,51.374497,0 6.127534,51.360071,0 6.129831,51.360403,0 6.132537,51.366481,0 6.132233,51.374843,0
        </coordinates></LinearRing></outerBoundaryIs>
      </Polygon>
    </Placemark>
    <Placemark>
      <name>obstacle_27</name>
      <Polygon>
        <outerBoundaryIs><LinearRing><coordinates>
          6.120554,51.381622,0 6.100722,51.361279,0 6.106635,51.357579,0 6.105894,51.355287,0 6.116450,51.358788,0 6.117829,51.359828,0 6.120554,51.381622,0
        </coordinates></LinearRing></outerBoundaryIs>
      </Polygon>
    </Placemark>
    <Placemark>
      <name>obstacle_28</name>
      <Polygon>
        <outerBoundaryIs><LinearRing><coordinates>
          6.117897,51.382137,0 6.099755,51.377236,0 6.097459,51.377164,0 6.102390,51.367472,0 6.120176,51.365768,0 6.117897,51.382137,0
        </coordinates></LinearRing></outerBoundaryIs>
      </Polygon>
    </Placemark>
    <Placemark>
      <name>obstacle_29</name>
      <Polygon>
        <outerBoundaryIs><LinearRing><coordinates>
          6.045890,51.040081,0 6.044937,51.040838,0 6.034621,51.048419,0 6.024598,51.037449,0 6.022673,51.033782,0 6.031526,51.020906,0 6.034345,51.023671,0 6.045890,51.040081,0
        </coordinates></LinearRing></outerBoundaryIs>
      </Polygon>
    </Placemark>
    <Placemark>
      <name>obstacle_30</name>
      <Polygon>
        <outerBoundaryIs><LinearRing><coordinates>
          6.049860,51.038394,0 6.044494,51.046210,0 6.033739,51.040509,0 6.038009,51.018478,0 6.040877,51.020441,0 6.056474,51.026922,0 6.049860,51.038394,0
        </coordinates></LinearRing></outerBoundaryIs>
      </Polygon>
    </Placemark>
    <Placemark>
      <name>obstacle_31</name>
      <Polygon>
        <outerBoundaryIs><LinearRing><coordinates>
          6.027009,51.043899,0 6.022887,51.041202,0 6.021669,51.038434,0 6.028188,51.035971,0 6.030628,51.030156,0 6.035675,51.026418,0 6.044360,51.023397,0 6.047512,51.024903,0 6.027009,51.043899,0
        </coordinates></LinearRing></outerBoundaryIs>
      </Polygon>
    </Placemark>
    <Placemark>
      <name>obstacle_32</name>
      <Polygon>
        <outerBoundaryIs><LinearRing><coordinates>
          6.379019,51.383351,0 6.371332,51.382584,0 6.366502,51.372194,0 6.369403,51.358154,0 6.383597,51.357918,0 6.391904,51.362471,0 6.379019,51.383351,0
        </coordinates></LinearRing></outerBoundaryIs>
      </Polygon>
    </Placemark>
    <Placemark>
      <name>obstacle_33</name>
      <Polygon>
        <outerBoundaryIs><LinearRing><coordinates>
          6.391092,51.382733,0 6.371393,51.387760,0 6.371051,51.385227,0 6.359880,51.380079,0 6.360899,51.373723,0 6.377154,51.365951,0 6.391092,51.382733,0
        </coordinates></LinearRing></outerBoundaryIs>
      </Polygon>
    </Placemark>
    <Placemark>
      <name>obstacle_34</name>
      <Polygon>
        <outerBoundaryIs><LinearRing><coordinates>
          6.387893,51.372846,0 6.382798,51.378247,0 6.373227,51.379934,0 6.368440,51.377639,0 6.365632,51.366219,0 6.367177,51.356786,0 6.384539,51.353858,0 6.394584,51.362539,0 6.387893,51.372846,0
        </coordinates></LinearRing></outerBoundaryIs>
      </Polygon>
    </Placemark>
    <Placemark>
      <name>obstacle_35</name>
      <Polygon>
        <outerBoundaryIs><LinearRing><coordinates>
          6.134950,51.474313,0 6.128768,51.479781,0 6.128203,51.478061,0 6.125957,51.480527,0 6.118208,51.468968,0 6.122124,51.452961,0 6.143304,51.462033,0 6.134950,51.474313,0
        </coordinates></LinearRing></outerBoundaryIs>
      </Polygon>
    </Placemark>
    <Placemark>
      <name>obstacle_36</name>
      <Polygon>
        <outerBoundaryIs><LinearRing><coordinates>
          6.144119,51.471293,0 6.145435,51.475585,0 6.120392,51.478497,0 6.124906,51.460618,0 6.126919,51.460188,0 6.144119,51.471293,0
        </coordinates></LinearRing></outerBoundaryIs>
      </Polygon>
    </Placemark>
    <Placemark>
      <name>obstacle_37</name>
      <Polygon>
        <outerBoundaryIs><LinearRing><coordinates>
          6.145837,51.469445,0 6.149777,51.470735,0 6.149170,51.474192,0 6.121559,51.474672,0 6.130936,51.454592,0 6.132406,51.456866,0 6.145837,51.469445,0
        </coordinates></LinearRing></outerBoundaryIs>
      </Polygon>
    </Placemark>
    <Placemark>
      <name>obstacle_38</name>
      <Polygon>
        <outerBoundaryIs><LinearRing><coordinates>
          6.310855,51.048709,0 6.314804,51.049519,0 6.296146,51.062475,0 6.290466,51.043284,0 6.305139,51.033833,0 6.305412,51.034191,0 6.312208,51.042511,0 6.312673,51.044091,0 6.310855,51.048709,0
        </coordinates></LinearRing></outerBoundaryIs>
      </Polygon>
    </Placemark>
    <Placemark>
      <name>obstacle_39</name>
      <Polygon>
        <outerBoundaryIs><LinearRing><coordinates>
          6.300074,51.055522,0 6.286479,51.043864,0 6.284646,51.039828,0 6.306608,51.038678,0 6.300074,51.055522,0
        </coordinates></LinearRing></outerBoundaryIs>
      </Polygon>
    </Placemark>
    <Placemark>
      <name>obstacle_40</name>
      <Polygon>
        <outerBoundaryIs><LinearRing><coordinates>
          6.040500,51.139448,0 6.035596,51.131020,0 6.035280,51.123587,0 6.039638,51.122721,0 6.062340,51.125827,0 6.065077,51.130226,0 6.040500,51.139448,0
        </coordinates></LinearRing></outerBoundaryIs>
      </Polygon>
    </Placemark>
    <Placemark>
      <name>obstacle_41</name>
      <Polygon>
        <outerBoundaryIs><LinearRing><coordinates>
          6.067644,51.137095,0 6.061910,51.145615,0 6.060879,51.117504,0 6.065104,51.124131,0 6.067644,51.137095,0
        </coordinates></LinearRing></outerBoundaryIs>
      </Polygon>
    </Placemark>
    <Placemark>
      <name>obstacle_42</name>
      <Polygon>
        <outerBoundaryIs><LinearRing><coordinates>
          6.311556,51.383511,0 6.307926,51.389873,0 6.282679,51.383953,0 6.295335,51.373558,0 6.299192,51.372972,0 6.311556,51.383511,0
        </coordinates></LinearRing></outerBoundaryIs>
      </Polygon>
    </Placemark>
    <Placemark>
      <name>obstacle_43</name>
      <Polygon>
        <outerBoundaryIs><LinearRing><coordinates>
          6.298411,51.398580,0 6.297462,51.400901,0 6.278369,51.378173,0 6.280418,51.375008,0 6.295073,51.371032,0 6.300539,51.377441,0 6.298411,51.398580,0
        </coordinates></LinearRing></outerBoundaryIs>
      </Polygon>
    </Placemark>
    <Placemark>
      <name>obstacle_44</name>
      <Polygon>
        <outerBoundaryIs><LinearRing><coordinates>
          6.311275,51.213127,0 6.293789,51.221034,0 6.287075,51.214164,0 6.289081,51.211627,0 6.290953,51.197437,0 6.288054,51.194162,0 6.312736,51.196373,0 6.314831,51.200542,0 6.311275,51.213127,0
        </coordinates></LinearRing></outerBoundaryIs>
      </Polygon>
    </Placemark>
    <Placemark>
      <name>obstacle_45</name>
      <Polygon>
        <outerBoundaryIs><LinearRing><coordinates>
          6.309757,51.215226,0 6.308129,51.217955,0 6.295735,51.211821,0 6.290495,51.200430,0 6.308340,51.188325,0 6.309757,51.215226,0
        </coordinates></LinearRing></outerBoundaryIs>
      </Polygon>
    </Placemark>
    <Placemark>
      <name>obstacle_46</name>
      <Polygon>
        <outerBoundaryIs><LinearRing><coordinates>
          6.210151,51.301927,0 6.209041,51.305236,0 6.196731,51.297286,0 6.198408,51.285570,0 6.199524,51.282457,0 6.210151,51.301927,0
        </coordinates></LinearRing></outerBoundaryIs>
      </Polygon>
    </Placemark>
    <Placemark>
      <name>obstacle_47</name>
      <Polygon>
        <outerBoundaryIs><LinearRing><coordinates>
          6.214085,51.305025,0 6.197845,51.304344,0 6.186098,51.292001,0 6.209370,51.285177,0 6.213768,51.290980,0 6.214085,51.305025,0
        </coordinates></LinearRing></outerBoundaryIs>
      </Polygon>
    </Placemark>
    <Placemark>
      <name>obstacle_48</name>
      <Polygon>
        <outerBoundaryIs><LinearRing><coordinates>
          6.293443,51.133439,0 6.288795,51.127958,0 6.297707,51.110329,0 6.311829,51.115306,0 6.293443,51.133439,0
        </coordinates></LinearRing></outerBoundaryIs>
      </Polygon>
    </Placemark>
    <Placemark>
      <name>obstacle_49</name>
      <Polygon>
        <outerBoundaryIs><LinearRing><coordinates>
          6.317400,51.123407,0 6.315453,51.124316,0 6.319880,51.126425,0 6.320020,51.127314,0 6.310983,51.131447,0 6.290550,51.128405,0 6.294921,51.118921,0 6.317400,51.123407,0
        </coordinates></LinearRing></outerBoundaryIs>
      </Polygon>
    </Placemark>
    <Placemark>
      <name>obstacle_50</name>
      <Polygon>
        <outerBoundaryIs><LinearRing><coordinates>
          6.383775,51.048970,0 6.376322,51.054079,0 6.375054,51.060053,0 6.369691,51.053797,0 6.365278,51.048687,0 6.365126,51.033629,0 6.375672,51.031980,0 6.377783,51.030858,0 6.383775,51.048970,0
        </coordinates></LinearRing></outerBoundaryIs>
      </Polygon>
    </Placemark>
    <Placemark>
      <name>obstacle_51</name>
      <Polygon>
        <outerBoundaryIs><LinearRing><coordinates>
          6.393479,51.056654,0 6.370012,51.036018,0 6.394832,51.041326,0 6.392860,51.043124,0 6.393479,51.056654,0
        </coordinates></LinearRing></outerBoundaryIs>
      </Polygon>
    </Placemark>
    <Placemark>
      <name>obstacle_52</name>
      <Polygon>
        <outerBoundaryIs><LinearRing><coordinates>
          6.374567,51.051857,0 6.366661,51.052404,0 6.365224,51.052973,0 6.370845,51.024858,0 6.374567,51.051857,0
        </coordinates></LinearRing></outerBoundaryIs>
      </Polygon>
    </Placemark>
    <Placemark>
      <name>obstacle_53</name>
      <Polygon>
        <outerBoundaryIs><LinearRing><coordinates>
          6.302989,51.459463,0 6.302788,51.462626,0 6.280144,51.457169,0 6.280280,51.453570,0 6.289162,51.438970,0 6.302989,51.459463,0
        </coordinates></LinearRing></outerBoundaryIs>
      </Polygon>
    </Placemark>
    <Placemark>
      <name>obstacle_54</name>
      <Polygon>
        <outerBoundaryIs><LinearRing><coordinates>
          6.308427,51.450517,0 6.307921,51.454316,0 6.304215,51.459158,0 6.283906,51.454667,0 6.289129,51.437112,0 6.302225,51.443554,0 6.308427,51.450517,0
        </coordinates></LinearRing></outerBoundaryIs>
      </Polygon>
    </Placemark>
    <Placemark>
      <name>obstacle_55</name>
      <Polygon>
        <outerBoundaryIs><LinearRing><coordinates>
          6.132107,51.050658,0 6.128932,51.058310,0 6.123411,51.059207,0 6.119369,51.057003,0 6.108631,51.038368,0 6.119901,51.033775,0 6.132107,51.050658,0
        </coordinates></LinearRing></outerBoundaryIs>
      </Polygon>
    </Placemark>
    <Placemark>
      <name>obstacle_56</name>
      <Polygon>
        <outerBoundaryIs><LinearRing><coordinates>
          6.133810,51.057765,0 6.128353,51.066248,0 6.122894,51.065091,0 6.108454,51.061355,0 6.110590,51.055472,0 6.111783,51.054162,0 6.123484,51.037849,0 6.133810,51.057765,0
        </coordinates></LinearRing></outerBoundaryIs>
      </Polygon>
    </Placemark>
    <Placemark>
      <name>obstacle_57</name>
      <Polygon>
        <outerBoundaryIs><LinearRing><coordinates>
          6.036401,51.298810,0 6.032558,51.298065,0 6.029032,51.287478,0 6.030330,51.283920,0 6.036620,51.272490,0 6.045810,51.274328,0 6.036401,51.298810,0
        </coordinates></LinearRing></outerBoundaryIs>
      </Polygon>
    </Placemark>
    <Placemark>
      <name>obstacle_58</name>
      <Polygon>
        <outerBoundaryIs><LinearRing><coordinates>
          6.060109,51.298297,0 6.053340,51.299890,0 6.040019,51.303212,0 6.037053,51.298501,0 6.055825,51.283311,0 6.060109,51.298297,0
        </coordinates></LinearRing></outerBoundaryIs>
      </Polygon>
    </Placemark>
    <Placemark>
      <name>obstacle_59</name>
      <Polygon>
        <outerBoundaryIs><LinearRing><coordinates>
          6.058815,51.284988,0 6.058580,51.294149,0 6.050292,51.299905,0 6.033591,51.295784,0 6.038986,51.270387,0 6.046781,51.272306,0 6.052814,51.273777,0 6.060678,51.284344,0 6.058815,51.284988,0
        </coordinates></LinearRing></outerBoundaryIs>
      </Polygon>
    </Placemark>
  </Document>
</kml>
