<?xml version="1.0" encoding="UTF-8"?>
<kml xmlns="http://www.opengis.net/kml/2.2">
  <Document>
    <name>pyvisgraph benchmark map 05 - 30 obstacles</name>
    <Placemark>
      <name>obstacle_0</name>
      <Polygon>
        <outerBoundaryIs><LinearRing><coordinates>
          6.409645,51.313906,0 6.397484,51.299302,0 6.410434,51.309575,0 6.409716,51.310911,0 6.409645,51.313906,0
        </coordinates></LinearRing></outerBoundaryIs>
      </Polygon>
    </Placemark>
    <Placemark>
      <name>obstacle_1</name>
      <Polygon>
        <outerBoundaryIs><LinearRing><coordinates>
          6.181817,51.196475,0 6.181428,51.167968,0 6.197708,51.172532,0 6.199135,51.176404,0 6.201732,51.178046,0 6.181817,51.196475,0
        </coordinates></LinearRing></outerBoundaryIs>
      </Polygon>
    </Placemark>
    <Placemark>
      <name>obstacle_2</name>
      <Polygon>
        <outerBoundaryIs><LinearRing><coordinates>
          6.265358,51.102291,0 6.258207,51.110307,0 6.244997,51.116123,0 6.239306,51.113061,0 6.236523,51.099235,0 6.246818,51.081095,0 6.265358,51.102291,0
        </coordinates></LinearRing></outerBoundaryIs>
      </Polygon>
    </Placemark>
    <Placemark>
      <name>obstacle_3</name>
      <Polygon>
        <outerBoundaryIs><LinearRing><coordinates>
          6.486129,51.178019,0 6.485373,51.182890,0 6.471986,51.191175,0 6.470579,51.191841,0 6.450052,51.168613,0 6.466040,51.157340,0 6.478577,51.173002,0 6.486129,51.178019,0
        </coordinates></LinearRing></outerBoundaryIs>
      </Polygon>
    </Placemark>
    <Placemark>
      <name>obstacle_4</name>
      <Polygon>
        <outerBoundaryIs><LinearRing><coordinates>
          6.413535,51.474253,0 6.415641,51.481918,0 6.388718,51.485412,0 6.386261,51.460690,0 6.411735,51.462989,0 6.411733,51.465852,0 6.413535,51.474253,0
        </coordinates></LinearRing></outerBoundaryIs>
      </Polygon>
    </Placemark>
    <Placemark>
      <name>obstacle_5</name>
      <Polygon>
        <outerBoundaryIs><LinearRing><coordinates>
          6.326594,51.389806,0 6.321861,51.400579,0 6.295836,51.396448,0 6.295998,51.381827,0 6.328805,51.383958,0 6.325722,51.385059,0 6.326594,51.389806,0
        </coordinates></LinearRing></outerBoundaryIs>
      </Polygon>
    </Placemark>
    <Placemark>
      <name>obstacle_6</name>
      <Polygon>
        <outerBoundaryIs><LinearRing><coordinates>
          6.054239,51.107726,0 6.048909,51.112603,0 6.037888,51.108665,0 6.030522,51.105615,0 6.031686,51.091620,0 6.061153,51.084561,0 6.062680,51.094999,0 6.054239,51.107726,0
        </coordinates></LinearRing></outerBoundaryIs>
      </Polygon>
    </Placemark>
    <Placemark>
      <name>obstacle_7</name>
      <Polygon>
        <outerBoundaryIs><LinearRing><coordinates>
          6.327580,51.118934,0 6.312176,51.121849,0 6.305721,51.126647,0 6.294404,51.111411,0 6.308943,51.094268,0 6.321810,51.092265,0 6.328434,51.097630,0 6.327580,51.118934,0
        </coordinates></LinearRing></outerBoundaryIs>
      </Polygon>
    </Placemark>
    <Placemark>
      <name>obstacle_8</name>
      <Polygon>
        <outerBoundaryIs><LinearRing><coordinates>
          6.169640,51.090593,0 6.174154,51.092189,0 6.182546,51.088539,0 6.183028,51.092328,0 6.169640,51.090593,0
        </coordinates></LinearRing></outerBoundaryIs>
      </Polygon>
    </Placemark>
    <Placemark>
      <name>obstacle_9</name>
      <Polygon>
        <outerBoundaryIs><LinearRing><coordinates>
          6.042191,51.269884,0 6.027255,51.268613,0 6.020274,51.258245,0 6.037953,51.238824,0 6.046531,51.240834,0 6.050741,51.251522,0 6.042191,51.269884,0
        </coordinates></LinearRing></outerBoundaryIs>
      </Polygon>
    </Placemark>
    <Placemark>
      <name>obstacle_10</name>
      <Polygon>
        <outerBoundaryIs><LinearRing><coordinates>
          6.092069,51.260760,0 6.088109,51.245067,0 6.094730,51.228147,0 6.113809,51.229257,0 6.113892,51.234330,0 6.120384,51.241623,0 6.121109,51.243847,0 6.092069,51.260760,0
        </coordinates></LinearRing></outerBoundaryIs>
      </Polygon>
    </Placemark>
    <Placemark>
      <name>obstacle_11</name>
      <Polygon>
        <outerBoundaryIs><LinearRing><coordinates>
          6.118074,51.045531,0 6.109717,51.046734,0 6.107398,51.042307,0 6.092820,51.026684,0 6.098472,51.023956,0 6.124844,51.014588,0 6.131714,51.020394,0 6.133327,51.028150,0 6.118074,51.045531,0
        </coordinates></LinearRing></outerBoundaryIs>
      </Polygon>
    </Placemark>
    <Placemark>
      <name>obstacle_12</name>
      <Polygon>
        <outerBoundaryIs><LinearRing><coordinates>
          6.259262,51.190710,0 6.249558,51.201616,0 6.249144,51.203934,0 6.235480,51.203303,0 6.259262,51.190710,0
        </coordinates></LinearRing></outerBoundaryIs>
      </Polygon>
    </Placemark>
    <Placemark>
      <name>obstacle_13</name>
      <Polygon>
        <outerBoundaryIs><LinearRing><coordinates>
          6.304734,51.202353,0 6.326640,51.173404,0 6.329919,51.171490,0 6.332592,51.182003,0 6.304734,51.202353,0
        </coordinates></LinearRing></outerBoundaryIs>
      </Polygon>
    </Placemark>
    <Placemark>
      <name>obstacle_14</name>
      <Polygon>
        <outerBoundaryIs><LinearRing><coordinates>
          6.381106,51.400384,0 6.376349,51.401609,0 6.373147,51.397080,0 6.370202,51.378220,0 6.375353,51.371978,0 6.395569,51.371794,0 6.395223,51.374052,0 6.408416,51.383156,0 6.381106,51.400384,0
        </coordinates></LinearRing></outerBoundaryIs>
      </Polygon>
    </Placemark>
    <Placemark>
      <name>obstacle_15</name>
      <Polygon>
        <outerBoundaryIs><LinearRing><coordinates>
          6.231561,51.256695,0 6.222220,51.249743,0 6.223172,51.242267,0 6.219737,51.236649,0 6.226230,51.236009,0 6.252116,51.229027,0 6.255930,51.231974,0 6.254576,51.239345,0 6.231561,51.256695,0
        </coordinates></LinearRing></outerBoundaryIs>
      </Polygon>
    </Placemark>
    <Placemark>
      <name>obstacle_16</name>
      <Polygon>
        <outerBoundaryIs><LinearRing><coordinates>
          6.041458,51.464646,0 6.025946,51.473041,0 6.011681,51.460929,0 6.017546,51.455866,0 6.012981,51.454895,0 6.019408,51.443468,0 6.041458,51.464646,0
        </coordinates></LinearRing></outerBoundaryIs>
      </Polygon>
    </Placemark>
    <Placemark>
      <name>obstacle_17</name>
      <Polygon>
        <outerBoundaryIs><LinearRing><coordinates>
          6.326000,51.491155,0 6.313490,51.471400,0 6.310521,51.471311,0 6.327115,51.450248,0 6.342178,51.453269,0 6.326000,51.491155,0
        </coordinates></LinearRing></outerBoundaryIs>
      </Polygon>
    </Placemark>
    <Placemark>
      <name>obstacle_18</name>
      <Polygon>
        <outerBoundaryIs><LinearRing><coordinates>
          6.019767,51.046117,0 6.016115,51.043062,0 6.016886,51.037793,0 6.010701,51.031038,0 6.008878,51.024573,0 6.005090,51.023373,0 6.019767,51.046117,0
        </coordinates></LinearRing></outerBoundaryIs>
      </Polygon>
    </Placemark>
    <Placemark>
      <name>obstacle_19</name>
      <Polygon>
        <outerBoundaryIs><LinearRing><coordinates>
          6.382162,51.117112,0 6.385929,51.097777,0 6.393612,51.089369,0 6.408267,51.089349,0 6.382162,51.117112,0
        </coordinates></LinearRing></outerBoundaryIs>
      </Polygon>
    </Placemark>
    <Placemark>
      <name>obstacle_20</name>
      <Polygon>
        <outerBoundaryIs><LinearRing><coordinates>
          6.340439,51.325732,0 6.315006,51.342178,0 6.302935,51.329343,0 6.321779,51.308451,0 6.333403,51.316125,0 6.340439,51.325732,0
        </coordinates></LinearRing></outerBoundaryIs>
      </Polygon>
    </Placemark>
    <Placemark>
      <name>obstacle_21</name>
      <Polygon>
        <outerBoundaryIs><LinearRing><coordinates>
          6.112934,51.472550,0 6.098529,51.481788,0 6.081289,51.477907,0 6.084706,51.464759,0 6.083993,51.464215,0 6.098510,51.455103,0 6.116069,51.465704,0 6.112934,51.472550,0
        </coordinates></LinearRing></outerBoundaryIs>
      </Polygon>
    </Placemark>
    <Placemark>
      <name>obstacle_22</name>
      <Polygon>
        <outerBoundaryIs><LinearRing><coordinates>
          6.109549,51.112822,0 6.097497,51.086889,0 6.102012,51.078921,0 6.120366,51.094893,0 6.109549,51.112822,0
        </coordinates></LinearRing></outerBoundaryIs>
      </Polygon>
    </Placemark>
    <Placemark>
      <name>obstacle_23</name>
      <Polygon>
        <outerBoundaryIs><LinearRing><coordinates>
          6.052000,51.397267,0 6.042159,51.408291,0 6.025048,51.386272,0 6.029383,51.377261,0 6.037573,51.372817,0 6.052000,51.397267,0
        </coordinates></LinearRing></outerBoundaryIs>
      </Polygon>
    </Placemark>
    <Placemark>
      <name>obstacle_24</name>
      <Polygon>
        <outerBoundaryIs><LinearRing><coordinates>
          6.463697,51.110102,0 6.447980,51.118498,0 6.443156,51.112379,0 6.439070,51.099365,0 6.441613,51.092786,0 6.445513,51.086023,0 6.445039,51.080408,0 6.466933,51.090589,0 6.463697,51.110102,0
        </coordinates></LinearRing></outerBoundaryIs>
      </Polygon>
    </Placemark>
    <Placemark>
      <name>obstacle_25</name>
      <Polygon>
        <outerBoundaryIs><LinearRing><coordinates>
          6.130398,51.401000,0 6.131081,51.414328,0 6.107962,51.413885,0 6.104496,51.410220,0 6.101816,51.404139,0 6.102250,51.391988,0 6.130398,51.401000,0
        </coordinates></LinearRing></outerBoundaryIs>
      </Polygon>
    </Placemark>
    <Placemark>
      <name>obstacle_26</name>
      <Polygon>
        <outerBoundaryIs><LinearRing><coordinates>
          6.280760,51.316920,0 6.277441,51.319158,0 6.274759,51.326274,0 6.268132,51.324432,0 6.262993,51.330972,0 6.253261,51.298591,0 6.257602,51.298331,0 6.274934,51.308356,0 6.280760,51.316920,0
        </coordinates></LinearRing></outerBoundaryIs>
      </Polygon>
    </Placemark>
    <Placemark>
      <name>obstacle_27</name>
      <Polygon>
        <outerBoundaryIs><LinearRing><coordinates>
          6.034406,51.187953,0 6.024706,51.191937,0 6.028626,51.186523,0 6.027767,51.185311,0 6.029062,51.165484,0 6.035905,51.162347,0 6.052180,51.171844,0 6.034406,51.187953,0
        </coordinates></LinearRing></outerBoundaryIs>
      </Polygon>
    </Placemark>
    <Placemark>
      <name>obstacle_28</name>
      <Polygon>
        <outerBoundaryIs><LinearRing><coordinates>
          6.023940,51.337190,0 6.022751,51.334205,0 6.018482,51.336248,0 6.017116,51.327179,0 6.018445,51.303985,0 6.047089,51.311625,0 6.044669,51.314472,0 6.023940,51.337190,0
        </coordinates></LinearRing></outerBoundaryIs>
      </Polygon>
    </Placemark>
    <Placemark>
      <name>obstacle_29</name>
      <Polygon>
        <outerBoundaryIs><LinearRing><coordinates>
          6.198573,51.388497,0 6.170994,51.397418,0 6.173397,51.372717,0 6.179717,51.371462,0 6.193026,51.374339,0 6.198573,51.388497,0
        </coordinates></LinearRing></outerBoundaryIs>
      </Polygon>
    </Placemark>
  </Document>
</kml>
