<?xml version="1.0" encoding="UTF-8"?>
<kml xmlns="http://www.opengis.net/kml/2.2">
  <Document>
    <name>pyvisgraph benchmark map 09 - 105 obstacles</name>
    <Placemark>
      <name>obstacle_0</name>
      <Polygon>
        <outerBoundaryIs><LinearRing><coordinates>
          6.406524,51.446894,0 6.389947,51.448947,0 6.389693,51.444828,0 6.384932,51.443913,0 6.387999,51.435838,0 6.387740,51.435256,0 6.397215,51.431985,0 6.402278,51.433120,0 6.406524,51.446894,0
        </coordinates></LinearRing></outerBoundaryIs>
      </Polygon>
    </Placemark>
    <Placemark>
      <name>obstacle_1</name>
      <Polygon>
        <outerBoundaryIs><LinearRing><coordinates>
          6.321216,51.475782,0 6.317280,51.479300,0 6.299122,51.474215,0 6.312155,51.464581,0 6.312149,51.465570,0 6.314667,51.462503,0 6.321216,51.475782,0
        </coordinates></LinearRing></outerBoundaryIs>
      </Polygon>
    </Placemark>
    <Placemark>
      <name>obstacle_2</name>
      <Polygon>
        <outerBoundaryIs><LinearRing><coordinates>
          6.239550,51.356396,0 6.233844,51.363512,0 6.232842,51.361895,0 6.227505,51.360126,0 6.222608,51.358289,0 6.223696,51.345158,0 6.233151,51.344710,0 6.238358,51.350944,0 6.239550,51.356396,0
        </coordinates></LinearRing></outerBoundaryIs>
      </Polygon>
    </Placemark>
    <Placemark>
      <name>obstacle_3</name>
      <Polygon>
        <outerBoundaryIs><LinearRing><coordinates>
          6.108595,51.485316,0 6.107260,51.486550,0 6.101843,51.478331,0 6.109835,51.467040,0 6.121142,51.474619,0 6.108595,51.485316,0
        </coordinates></LinearRing></outerBoundaryIs>
      </Polygon>
    </Placemark>
    <Placemark>
      <name>obstacle_4</name>
      <Polygon>
        <outerBoundaryIs><LinearRing><coordinates>
          6.154917,51.485459,0 6.155581,51.489168,0 6.139019,51.483228,0 6.135721,51.480897,0 6.148106,51.474419,0 6.152459,51.477781,0 6.154917,51.485459,0
        </coordinates></LinearRing></outerBoundaryIs>
      </Polygon>
    </Placemark>
    <Placemark>
      <name>obstacle_5</name>
      <Polygon>
        <outerBoundaryIs><LinearRing><coordinates>
          6.026309,51.066194,0 6.025168,51.066791,0 6.016075,51.070975,0 6.007058,51.059100,0 6.006569,51.058738,0 6.006756,51.056364,0 6.006864,51.055405,0 6.010743,51.053529,0 6.026309,51.066194,0
        </coordinates></LinearRing></outerBoundaryIs>
      </Polygon>
    </Placemark>
    <Placemark>
      <name>obstacle_6</name>
      <Polygon>
        <outerBoundaryIs><LinearRing><coordinates>
          6.326708,51.105173,0 6.310757,51.100956,0 6.307698,51.099367,0 6.315272,51.089822,0 6.316014,51.087028,0 6.326708,51.105173,0
        </coordinates></LinearRing></outerBoundaryIs>
      </Polygon>
    </Placemark>
    <Placemark>
      <name>obstacle_7</name>
      <Polygon>
        <outerBoundaryIs><LinearRing><coordinates>
          6.442369,51.360100,0 6.443705,51.362632,0 6.427137,51.362857,0 6.427722,51.353728,0 6.427116,51.352149,0 6.427172,51.351240,0 6.429693,51.349050,0 6.439563,51.352839,0 6.442369,51.360100,0
        </coordinates></LinearRing></outerBoundaryIs>
      </Polygon>
    </Placemark>
    <Placemark>
      <name>obstacle_8</name>
      <Polygon>
        <outerBoundaryIs><LinearRing><coordinates>
          6.490631,51.477522,0 6.474814,51.472124,0 6.486914,51.469578,0 6.493539,51.473843,0 6.490979,51.475838,0 6.491185,51.476350,0 6.490631,51.477522,0
        </coordinates></LinearRing></outerBoundaryIs>
      </Polygon>
    </Placemark>
    <Placemark>
      <name>obstacle_9</name>
      <Polygon>
        <outerBoundaryIs><LinearRing><coordinates>
          6.051131,51.356133,0 6.047181,51.351582,0 6.049035,51.348221,0 6.057139,51.340650,0 6.051131,51.356133,0
        </coordinates></LinearRing></outerBoundaryIs>
      </Polygon>
    </Placemark>
    <Placemark>
      <name>obstacle_10</name>
      <Polygon>
        <outerBoundaryIs><LinearRing><coordinates>
          6.312537,51.067791,0 6.302421,51.064623,0 6.302154,51.060352,0 6.301898,51.057388,0 6.306459,51.053485,0 6.318917,51.054152,0 6.320900,51.056656,0 6.312537,51.067791,0
        </coordinates></LinearRing></outerBoundaryIs>
      </Polygon>
    </Placemark>
    <Placemark>
      <name>obstacle_11</name>
      <Polygon>
        <outerBoundaryIs><LinearRing><coordinates>
          6.027725,51.449402,0 6.019178,51.453477,0 6.015192,51.451932,0 6.027346,51.435339,0 6.027322,51.438944,0 6.026748,51.439915,0 6.027699,51.441721,0 6.027725,51.449402,0
        </coordinates></LinearRing></outerBoundaryIs>
      </Polygon>
    </Placemark>
    <Placemark>
      <name>obstacle_12</name>
      <Polygon>
        <outerBoundaryIs><LinearRing><coordinates>
          6.362879,51.065447,0 6.364861,51.068214,0 6.363929,51.070546,0 6.355608,51.071575,0 6.348595,51.075159,0 6.347793,51.074689,0 6.345813,51.070822,0 6.341951,51.067218,0 6.362879,51.065447,0
        </coordinates></LinearRing></outerBoundaryIs>
      </Polygon>
    </Placemark>
    <Placemark>
      <name>obstacle_13</name>
      <Polygon>
        <outerBoundaryIs><LinearRing><coordinates>
          6.156857,51.315654,0 6.149354,51.320778,0 6.141334,51.314606,0 6.142123,51.300476,0 6.146746,51.302622,0 6.148716,51.302475,0 6.149624,51.298756,0 6.150721,51.302417,0 6.156857,51.315654,0
        </coordinates></LinearRing></outerBoundaryIs>
      </Polygon>
    </Placemark>
    <Placemark>
      <name>obstacle_14</name>
      <Polygon>
        <outerBoundaryIs><LinearRing><coordinates>
          6.382955,51.315727,0 6.380313,51.309727,0 6.393656,51.298883,0 6.396096,51.301869,0 6.382955,51.315727,0
        </coordinates></LinearRing></outerBoundaryIs>
      </Polygon>
    </Placemark>
    <Placemark>
      <name>obstacle_15</name>
      <Polygon>
        <outerBoundaryIs><LinearRing><coordinates>
          6.398316,51.035857,0 6.390818,51.033243,0 6.385857,51.033643,0 6.388272,51.021486,0 6.400751,51.019143,0 6.398316,51.035857,0
        </coordinates></LinearRing></outerBoundaryIs>
      </Polygon>
    </Placemark>
    <Placemark>
      <name>obstacle_16</name>
      <Polygon>
        <outerBoundaryIs><LinearRing><coordinates>
          6.155768,51.196514,0 6.149098,51.198776,0 6.139683,51.193089,0 6.146461,51.181360,0 6.155768,51.196514,0
        </coordinates></LinearRing></outerBoundaryIs>
      </Polygon>
    </Placemark>
    <Placemark>
      <name>obstacle_17</name>
      <Polygon>
        <outerBoundaryIs><LinearRing><coordinates>
          6.072199,51.397804,0 6.072153,51.402226,0 6.071730,51.405389,0 6.067100,51.404308,0 6.059617,51.388964,0 6.065711,51.385647,0 6.072199,51.397804,0
        </coordinates></LinearRing></outerBoundaryIs>
      </Polygon>
    </Placemark>
    <Placemark>
      <name>obstacle_18</name>
      <Polygon>
        <outerBoundaryIs><LinearRing><coordinates>
          6.113911,51.279476,0 6.093715,51.275393,0 6.101104,51.265576,0 6.113020,51.271005,0 6.113911,51.279476,0
        </coordinates></LinearRing></outerBoundaryIs>
      </Polygon>
    </Placemark>
    <Placemark>
      <name>obstacle_19</name>
      <Polygon>
        <outerBoundaryIs><LinearRing><coordinates>
          6.037265,51.277810,0 6.021482,51.278207,0 6.027743,51.261438,0 6.035935,51.263693,0 6.036575,51.269254,0 6.037265,51.277810,0
        </coordinates></LinearRing></outerBoundaryIs>
      </Polygon>
    </Placemark>
    <Placemark>
      <name>obstacle_20</name>
      <Polygon>
        <outerBoundaryIs><LinearRing><coordinates>
          6.073681,51.111718,0 6.055188,51.104390,0 6.059593,51.102463,0 6.062645,51.100835,0 6.072379,51.108660,0 6.073681,51.111718,0
        </coordinates></LinearRing></outerBoundaryIs>
      </Polygon>
    </Placemark>
    <Placemark>
      <name>obstacle_21</name>
      <Polygon>
        <outerBoundaryIs><LinearRing><coordinates>
          6.076291,51.186951,0 6.072961,51.192491,0 6.071973,51.194699,0 6.070085,51.195199,0 6.055713,51.178856,0 6.062420,51.177148,0 6.075689,51.182245,0 6.076291,51.186951,0
        </coordinates></LinearRing></outerBoundaryIs>
      </Polygon>
    </Placemark>
    <Placemark>
      <name>obstacle_22</name>
      <Polygon>
        <outerBoundaryIs><LinearRing><coordinates>
          6.226286,51.191236,0 6.226143,51.185528,0 6.227975,51.179923,0 6.229178,51.176409,0 6.234795,51.174462,0 6.240164,51.177478,0 6.226286,51.191236,0
        </coordinates></LinearRing></outerBoundaryIs>
      </Polygon>
    </Placemark>
    <Placemark>
      <name>obstacle_23</name>
      <Polygon>
        <outerBoundaryIs><LinearRing><coordinates>
          6.408083,51.153379,0 6.405540,51.159083,0 6.401777,51.158382,0 6.399570,51.157314,0 6.390166,51.151593,0 6.400370,51.139728,0 6.408659,51.140906,0 6.409609,51.145355,0 6.408083,51.153379,0
        </coordinates></LinearRing></outerBoundaryIs>
      </Polygon>
    </Placemark>
    <Placemark>
      <name>obstacle_24</name>
      <Polygon>
        <outerBoundaryIs><LinearRing><coordinates>
          6.489273,51.146166,0 6.484202,51.152264,0 6.480790,51.153262,0 6.474036,51.144242,0 6.488497,51.134847,0 6.489273,51.146166,0
        </coordinates></LinearRing></outerBoundaryIs>
      </Polygon>
    </Placemark>
    <Placemark>
      <name>obstacle_25</name>
      <Polygon>
        <outerBoundaryIs><LinearRing><coordinates>
          6.262037,51.150823,0 6.260680,51.141310,0 6.260860,51.137359,0 6.263654,51.131586,0 6.274268,51.135475,0 6.262037,51.150823,0
        </coordinates></LinearRing></outerBoundaryIs>
      </Polygon>
    </Placemark>
    <Placemark>
      <name>obstacle_26</name>
      <Polygon>
        <outerBoundaryIs><LinearRing><coordinates>
          6.037192,51.355731,0 6.024039,51.362274,0 6.020713,51.359240,0 6.018482,51.356124,0 6.018130,51.355487,0 6.027573,51.339388,0 6.038186,51.350267,0 6.037192,51.355731,0
        </coordinates></LinearRing></outerBoundaryIs>
      </Polygon>
    </Placemark>
    <Placemark>
      <name>obstacle_27</name>
      <Polygon>
        <outerBoundaryIs><LinearRing><coordinates>
          6.347546,51.152235,0 6.348318,51.141079,0 6.348625,51.141130,0 6.357959,51.137052,0 6.347546,51.152235,0
        </coordinates></LinearRing></outerBoundaryIs>
      </Polygon>
    </Placemark>
    <Placemark>
      <name>obstacle_28</name>
      <Polygon>
        <outerBoundaryIs><LinearRing><coordinates>
          6.328960,51.193735,0 6.327660,51.194954,0 6.324930,51.199236,0 6.324442,51.203989,0 6.320979,51.201244,0 6.315307,51.204709,0 6.309454,51.188487,0 6.328960,51.193735,0
        </coordinates></LinearRing></outerBoundaryIs>
      </Polygon>
    </Placemark>
    <Placemark>
      <name>obstacle_29</name>
      <Polygon>
        <outerBoundaryIs><LinearRing><coordinates>
          6.192443,51.066642,0 6.178791,51.059906,0 6.178315,51.059849,0 6.183487,51.050319,0 6.183570,51.049469,0 6.189671,51.047378,0 6.197136,51.051729,0 6.192443,51.066642,0
        </coordinates></LinearRing></outerBoundaryIs>
      </Polygon>
    </Placemark>
    <Placemark>
      <name>obstacle_30</name>
      <Polygon>
        <outerBoundaryIs><LinearRing><coordinates>
          6.358841,51.232951,0 6.355021,51.236239,0 6.336944,51.229689,0 6.338860,51.225879,0 6.342585,51.224053,0 6.343633,51.220903,0 6.358841,51.232951,0
        </coordinates></LinearRing></outerBoundaryIs>
      </Polygon>
    </Placemark>
    <Placemark>
      <name>obstacle_31</name>
      <Polygon>
        <outerBoundaryIs><LinearRing><coordinates>
          6.493023,51.432730,0 6.486207,51.440450,0 6.471074,51.436295,0 6.473403,51.431674,0 6.469373,51.430823,0 6.478237,51.421826,0 6.482547,51.423195,0 6.488596,51.425172,0 6.493023,51.432730,0
        </coordinates></LinearRing></outerBoundaryIs>
      </Polygon>
    </Placemark>
    <Placemark>
      <name>obstacle_32</name>
      <Polygon>
        <outerBoundaryIs><LinearRing><coordinates>
          6.066984,51.068162,0 6.059846,51.054285,0 6.069974,51.050945,0 6.071430,51.049522,0 6.075483,51.055051,0 6.074743,51.058433,0 6.066984,51.068162,0
        </coordinates></LinearRing></outerBoundaryIs>
      </Polygon>
    </Placemark>
    <Placemark>
      <name>obstacle_33</name>
      <Polygon>
        <outerBoundaryIs><LinearRing><coordinates>
          6.150035,51.070938,0 6.133335,51.062213,0 6.143496,51.057785,0 6.147379,51.060857,0 6.150035,51.070938,0
        </coordinates></LinearRing></outerBoundaryIs>
      </Polygon>
    </Placemark>
    <Placemark>
      <name>obstacle_34</name>
      <Polygon>
        <outerBoundaryIs><LinearRing><coordinates>
          6.113115,51.105604,0 6.106008,51.110495,0 6.112553,51.093004,0 6.115556,51.099132,0 6.113115,51.105604,0
        </coordinates></LinearRing></outerBoundaryIs>
      </Polygon>
    </Placemark>
    <Placemark>
      <name>obstacle_35</name>
      <Polygon>
        <outerBoundaryIs><LinearRing><coordinates>
          6.480547,51.240004,0 6.472409,51.237341,0 6.472841,51.231726,0 6.469507,51.228446,0 6.479136,51.220483,0 6.480547,51.240004,0
        </coordinates></LinearRing></outerBoundaryIs>
      </Polygon>
    </Placemark>
    <Placemark>
      <name>obstacle_36</name>
      <Polygon>
        <outerBoundaryIs><LinearRing><coordinates>
          6.106993,51.186817,0 6.108503,51.189544,0 6.095927,51.189065,0 6.092686,51.188445,0 6.091841,51.188062,0 6.092492,51.183745,0 6.094611,51.176529,0 6.108734,51.175689,0 6.106993,51.186817,0
        </coordinates></LinearRing></outerBoundaryIs>
      </Polygon>
    </Placemark>
    <Placemark>
      <name>obstacle_37</name>
      <Polygon>
        <outerBoundaryIs><LinearRing><coordinates>
          6.327039,51.356357,0 6.313505,51.363190,0 6.310943,51.363769,0 6.308969,51.358762,0 6.306819,51.352788,0 6.313722,51.349722,0 6.313972,51.346511,0 6.327039,51.356357,0
        </coordinates></LinearRing></outerBoundaryIs>
      </Polygon>
    </Placemark>
    <Placemark>
      <name>obstacle_38</name>
      <Polygon>
        <outerBoundaryIs><LinearRing><coordinates>
          6.392362,51.228253,0 6.390246,51.228380,0 6.393562,51.218140,0 6.393886,51.217236,0 6.398059,51.215254,0 6.392362,51.228253,0
        </coordinates></LinearRing></outerBoundaryIs>
      </Polygon>
    </Placemark>
    <Placemark>
      <name>obstacle_39</name>
      <Polygon>
        <outerBoundaryIs><LinearRing><coordinates>
          6.199449,51.224801,0 6.186854,51.235902,0 6.180758,51.232163,0 6.176880,51.219880,0 6.180106,51.215022,0 6.182234,51.217595,0 6.189289,51.216553,0 6.194685,51.218876,0 6.199449,51.224801,0
        </coordinates></LinearRing></outerBoundaryIs>
      </Polygon>
    </Placemark>
    <Placemark>
      <name>obstacle_40</name>
      <Polygon>
        <outerBoundaryIs><LinearRing><coordinates>
          6.017545,51.482951,0 6.011812,51.464443,0 6.013147,51.465069,0 6.015611,51.464670,0 6.017545,51.482951,0
        </coordinates></LinearRing></outerBoundaryIs>
      </Polygon>
    </Placemark>
    <Placemark>
      <name>obstacle_41</name>
      <Polygon>
        <outerBoundaryIs><LinearRing><coordinates>
          6.360637,51.109316,0 6.360539,51.109974,0 6.351331,51.104672,0 6.347197,51.098471,0 6.365174,51.096652,0 6.368692,51.100397,0 6.360637,51.109316,0
        </coordinates></LinearRing></outerBoundaryIs>
      </Polygon>
    </Placemark>
    <Placemark>
      <name>obstacle_42</name>
      <Polygon>
        <outerBoundaryIs><LinearRing><coordinates>
          6.108427,51.438448,0 6.109111,51.439907,0 6.108391,51.444756,0 6.100948,51.444409,0 6.097731,51.442448,0 6.096221,51.441565,0 6.102181,51.428253,0 6.109572,51.428845,0 6.108427,51.438448,0
        </coordinates></LinearRing></outerBoundaryIs>
      </Polygon>
    </Placemark>
    <Placemark>
      <name>obstacle_43</name>
      <Polygon>
        <outerBoundaryIs><LinearRing><coordinates>
          6.388194,51.060574,0 6.388178,51.060345,0 6.390422,51.054481,0 6.392849,51.049711,0 6.407192,51.057565,0 6.388194,51.060574,0
        </coordinates></LinearRing></outerBoundaryIs>
      </Polygon>
    </Placemark>
    <Placemark>
      <name>obstacle_44</name>
      <Polygon>
        <outerBoundaryIs><LinearRing><coordinates>
          6.176617,51.114230,0 6.172346,51.110012,0 6.174275,51.107719,0 6.170598,51.107212,0 6.181724,51.097248,0 6.176617,51.114230,0
        </coordinates></LinearRing></outerBoundaryIs>
      </Polygon>
    </Placemark>
    <Placemark>
      <name>obstacle_45</name>
      <Polygon>
        <outerBoundaryIs><LinearRing><coordinates>
          6.478323,51.367537,0 6.467785,51.361561,0 6.466660,51.358267,0 6.478882,51.346133,0 6.478323,51.367537,0
        </coordinates></LinearRing></outerBoundaryIs>
      </Polygon>
    </Placemark>
    <Placemark>
      <name>obstacle_46</name>
      <Polygon>
        <outerBoundaryIs><LinearRing><coordinates>
          6.450025,51.437826,0 6.454129,51.439270,0 6.453747,51.440935,0 6.434447,51.430471,0 6.440987,51.426468,0 6.450025,51.437826,0
        </coordinates></LinearRing></outerBoundaryIs>
      </Polygon>
    </Placemark>
    <Placemark>
      <name>obstacle_47</name>
      <Polygon>
        <outerBoundaryIs><LinearRing><coordinates>
          6.033807,51.233810,0 6.033839,51.234251,0 6.030493,51.242222,0 6.024674,51.240682,0 6.017540,51.234256,0 6.024455,51.223282,0 6.033807,51.233810,0
        </coordinates></LinearRing></outerBoundaryIs>
      </Polygon>
    </Placemark>
    <Placemark>
      <name>obstacle_48</name>
      <Polygon>
        <outerBoundaryIs><LinearRing><coordinates>
          6.098728,51.069068,0 6.096076,51.070293,0 6.090518,51.066265,0 6.091488,51.055882,0 6.095751,51.051465,0 6.103726,51.055649,0 6.108403,51.056200,0 6.098728,51.069068,0
        </coordinates></LinearRing></outerBoundaryIs>
      </Polygon>
    </Placemark>
    <Placemark>
      <name>obstacle_49</name>
      <Polygon>
        <outerBoundaryIs><LinearRing><coordinates>
          6.327202,51.270694,0 6.325165,51.276645,0 6.322139,51.279856,0 6.310649,51.279429,0 6.308967,51.278104,0 6.310841,51.275779,0 6.311677,51.262802,0 6.327202,51.270694,0
        </coordinates></LinearRing></outerBoundaryIs>
      </Polygon>
    </Placemark>
    <Placemark>
      <name>obstacle_50</name>
      <Polygon>
        <outerBoundaryIs><LinearRing><coordinates>
          6.036408,51.029330,0 6.023910,51.032943,0 6.019879,51.020350,0 6.037154,51.021185,0 6.036408,51.029330,0
        </coordinates></LinearRing></outerBoundaryIs>
      </Polygon>
    </Placemark>
    <Placemark>
      <name>obstacle_51</name>
      <Polygon>
        <outerBoundaryIs><LinearRing><coordinates>
          6.194082,51.188801,0 6.191040,51.195533,0 6.189871,51.195752,0 6.180209,51.196226,0 6.186786,51.174990,0 6.191657,51.176813,0 6.194082,51.188801,0
        </coordinates></LinearRing></outerBoundaryIs>
      </Polygon>
    </Placemark>
    <Placemark>
      <name>obstacle_52</name>
      <Polygon>
        <outerBoundaryIs><LinearRing><coordinates>
          6.033732,51.318546,0 6.030870,51.326171,0 6.028942,51.324829,0 6.027593,51.327441,0 6.033732,51.318546,0
        </coordinates></LinearRing></outerBoundaryIs>
      </Polygon>
    </Placemark>
    <Placemark>
      <name>obstacle_53</name>
      <Polygon>
        <outerBoundaryIs><LinearRing><coordinates>
          6.198807,51.026547,0 6.191252,51.032367,0 6.190031,51.031181,0 6.188327,51.032057,0 6.181115,51.030284,0 6.188258,51.015154,0 6.195520,51.015917,0 6.198807,51.026547,0
        </coordinates></LinearRing></outerBoundaryIs>
      </Polygon>
    </Placemark>
    <Placemark>
      <name>obstacle_54</name>
      <Polygon>
        <outerBoundaryIs><LinearRing><coordinates>
          6.234684,51.108977,0 6.233062,51.110566,0 6.232847,51.116412,0 6.227846,51.115776,0 6.226192,51.120394,0 6.215394,51.110651,0 6.213881,51.108043,0 6.228752,51.099667,0 6.234684,51.108977,0
        </coordinates></LinearRing></outerBoundaryIs>
      </Polygon>
    </Placemark>
    <Placemark>
      <name>obstacle_55</name>
      <Polygon>
        <outerBoundaryIs><LinearRing><coordinates>
          6.072083,51.231936,0 6.076417,51.233599,0 6.071893,51.233776,0 6.073204,51.236491,0 6.056873,51.229666,0 6.054374,51.227425,0 6.058378,51.223834,0 6.061887,51.219573,0 6.072083,51.231936,0
        </coordinates></LinearRing></outerBoundaryIs>
      </Polygon>
    </Placemark>
    <Placemark>
      <name>obstacle_56</name>
      <Polygon>
        <outerBoundaryIs><LinearRing><coordinates>
          6.034068,51.154195,0 6.028575,51.156821,0 6.027309,51.157070,0 6.024321,51.155646,0 6.016283,51.145476,0 6.021560,51.136047,0 6.030560,51.143839,0 6.032532,51.147222,0 6.034068,51.154195,0
        </coordinates></LinearRing></outerBoundaryIs>
      </Polygon>
    </Placemark>
    <Placemark>
      <name>obstacle_57</name>
      <Polygon>
        <outerBoundaryIs><LinearRing><coordinates>
          6.449321,51.228979,0 6.446389,51.235534,0 6.431604,51.222757,0 6.437530,51.216980,0 6.439519,51.217207,0 6.444541,51.222048,0 6.447964,51.221424,0 6.449321,51.228979,0
        </coordinates></LinearRing></outerBoundaryIs>
      </Polygon>
    </Placemark>
    <Placemark>
      <name>obstacle_58</name>
      <Polygon>
        <outerBoundaryIs><LinearRing><coordinates>
          6.194437,51.276422,0 6.188922,51.274308,0 6.185545,51.274402,0 6.183922,51.270059,0 6.189685,51.257813,0 6.201180,51.259653,0 6.203272,51.262416,0 6.194437,51.276422,0
        </coordinates></LinearRing></outerBoundaryIs>
      </Polygon>
    </Placemark>
    <Placemark>
      <name>obstacle_59</name>
      <Polygon>
        <outerBoundaryIs><LinearRing><coordinates>
          6.441439,51.157161,0 6.426495,51.150394,0 6.427408,51.148340,0 6.422762,51.147112,0 6.428071,51.144153,0 6.441439,51.157161,0
        </coordinates></LinearRing></outerBoundaryIs>
      </Polygon>
    </Placemark>
    <Placemark>
      <name>obstacle_60</name>
      <Polygon>
        <outerBoundaryIs><LinearRing><coordinates>
          6.283132,51.195180,0 6.280946,51.194980,0 6.282899,51.197000,0 6.276607,51.199583,0 6.264214,51.189859,0 6.274661,51.179903,0 6.277935,51.183625,0 6.283132,51.195180,0
        </coordinates></LinearRing></outerBoundaryIs>
      </Polygon>
    </Placemark>
    <Placemark>
      <name>obstacle_61</name>
      <Polygon>
        <outerBoundaryIs><LinearRing><coordinates>
          6.307033,51.394987,0 6.307849,51.391946,0 6.308594,51.384361,0 6.313778,51.380968,0 6.313707,51.379888,0 6.314921,51.379328,0 6.327482,51.386001,0 6.307033,51.394987,0
        </coordinates></LinearRing></outerBoundaryIs>
      </Polygon>
    </Placemark>
    <Placemark>
      <name>obstacle_62</name>
      <Polygon>
        <outerBoundaryIs><LinearRing><coordinates>
          6.072248,51.146571,0 6.068670,51.151473,0 6.055082,51.146440,0 6.056741,51.134979,0 6.055965,51.133925,0 6.059986,51.134824,0 6.060288,51.129822,0 6.068370,51.136557,0 6.072248,51.146571,0
        </coordinates></LinearRing></outerBoundaryIs>
      </Polygon>
    </Placemark>
    <Placemark>
      <name>obstacle_63</name>
      <Polygon>
        <outerBoundaryIs><LinearRing><coordinates>
          6.276466,51.108349,0 6.256424,51.114000,0 6.255698,51.105283,0 6.258849,51.104225,0 6.270922,51.098538,0 6.276466,51.108349,0
        </coordinates></LinearRing></outerBoundaryIs>
      </Polygon>
    </Placemark>
    <Placemark>
      <name>obstacle_64</name>
      <Polygon>
        <outerBoundaryIs><LinearRing><coordinates>
          6.386517,51.201267,0 6.385661,51.183769,0 6.394119,51.183217,0 6.400721,51.183607,0 6.397819,51.188395,0 6.386517,51.201267,0
        </coordinates></LinearRing></outerBoundaryIs>
      </Polygon>
    </Placemark>
    <Placemark>
      <name>obstacle_65</name>
      <Polygon>
        <outerBoundaryIs><LinearRing><coordinates>
          6.279545,51.320047,0 6.271694,51.319684,0 6.266753,51.311586,0 6.278831,51.300855,0 6.285013,51.304473,0 6.279545,51.320047,0
        </coordinates></LinearRing></outerBoundaryIs>
      </Polygon>
    </Placemark>
    <Placemark>
      <name>obstacle_66</name>
      <Polygon>
        <outerBoundaryIs><LinearRing><coordinates>
          6.150476,51.283111,0 6.139401,51.271835,0 6.141843,51.270571,0 6.142123,51.266302,0 6.146289,51.262794,0 6.159803,51.269839,0 6.159379,51.272686,0 6.150476,51.283111,0
        </coordinates></LinearRing></outerBoundaryIs>
      </Polygon>
    </Placemark>
    <Placemark>
      <name>obstacle_67</name>
      <Polygon>
        <outerBoundaryIs><LinearRing><coordinates>
          6.488750,51.272095,0 6.487851,51.272557,0 6.485283,51.278827,0 6.469061,51.266311,0 6.473769,51.262368,0 6.487229,51.264981,0 6.488750,51.272095,0
        </coordinates></LinearRing></outerBoundaryIs>
      </Polygon>
    </Placemark>
    <Placemark>
      <name>obstacle_68</name>
      <Polygon>
        <outerBoundaryIs><LinearRing><coordinates>
          6.476678,51.011337,0 6.489073,51.004469,0 6.492407,51.008182,0 6.492824,51.014696,0 6.496697,51.014100,0 6.476678,51.011337,0
        </coordinates></LinearRing></outerBoundaryIs>
      </Polygon>
    </Placemark>
    <Placemark>
      <name>obstacle_69</name>
      <Polygon>
        <outerBoundaryIs><LinearRing><coordinates>
          6.430160,51.406428,0 6.430171,51.406055,0 6.430203,51.403108,0 6.428625,51.400305,0 6.430277,51.400007,0 6.433700,51.394242,0 6.446599,51.392953,0 6.430160,51.406428,0
        </coordinates></LinearRing></outerBoundaryIs>
      </Polygon>
    </Placemark>
    <Placemark>
      <name>obstacle_70</name>
      <Polygon>
        <outerBoundaryIs><LinearRing><coordinates>
          6.243011,51.396505,0 6.239634,51.400269,0 6.231064,51.403186,0 6.228112,51.405720,0 6.224599,51.392266,0 6.225415,51.388393,0 6.226117,51.388505,0 6.235025,51.385296,0 6.243011,51.396505,0
        </coordinates></LinearRing></outerBoundaryIs>
      </Polygon>
    </Placemark>
    <Placemark>
      <name>obstacle_71</name>
      <Polygon>
        <outerBoundaryIs><LinearRing><coordinates>
          6.031943,51.109818,0 6.032182,51.112997,0 6.021565,51.118472,0 6.018134,51.116170,0 6.013738,51.107199,0 6.031943,51.109818,0
        </coordinates></LinearRing></outerBoundaryIs>
      </Polygon>
    </Placemark>
    <Placemark>
      <name>obstacle_72</name>
      <Polygon>
        <outerBoundaryIs><LinearRing><coordinates>
          6.433988,51.060470,0 6.434347,51.056511,0 6.437669,51.057125,0 6.439490,51.054215,0 6.447163,51.051898,0 6.450578,51.060804,0 6.452275,51.063216,0 6.451749,51.063231,0 6.433988,51.060470,0
        </coordinates></LinearRing></outerBoundaryIs>
      </Polygon>
    </Placemark>
    <Placemark>
      <name>obstacle_73</name>
      <Polygon>
        <outerBoundaryIs><LinearRing><coordinates>
          6.406026,51.487350,0 6.401366,51.494236,0 6.389498,51.488918,0 6.388410,51.488541,0 6.393675,51.476655,0 6.396638,51.472989,0 6.406026,51.487350,0
        </coordinates></LinearRing></outerBoundaryIs>
      </Polygon>
    </Placemark>
    <Placemark>
      <name>obstacle_74</name>
      <Polygon>
        <outerBoundaryIs><LinearRing><coordinates>
          6.226582,51.158801,0 6.216179,51.152788,0 6.213914,51.147936,0 6.219610,51.138071,0 6.223183,51.138387,0 6.225821,51.138548,0 6.229924,51.138384,0 6.226582,51.158801,0
        </coordinates></LinearRing></outerBoundaryIs>
      </Polygon>
    </Placemark>
    <Placemark>
      <name>obstacle_75</name>
      <Polygon>
        <outerBoundaryIs><LinearRing><coordinates>
          6.472489,51.405904,0 6.465064,51.402182,0 6.467366,51.400193,0 6.467407,51.395074,0 6.472489,51.405904,0
        </coordinates></LinearRing></outerBoundaryIs>
      </Polygon>
    </Placemark>
    <Placemark>
      <name>obstacle_76</name>
      <Polygon>
        <outerBoundaryIs><LinearRing><coordinates>
          6.278985,51.273079,0 6.279415,51.273400,0 6.269656,51.282908,0 6.257516,51.277503,0 6.278985,51.273079,0
        </coordinates></LinearRing></outerBoundaryIs>
      </Polygon>
    </Placemark>
    <Placemark>
      <name>obstacle_77</name>
      <Polygon>
        <outerBoundaryIs><LinearRing><coordinates>
          6.370514,51.351462,0 6.371918,51.354379,0 6.361851,51.361617,0 6.355738,51.362399,0 6.352156,51.346762,0 6.361711,51.342172,0 6.365003,51.340355,0 6.366679,51.347101,0 6.370514,51.351462,0
        </coordinates></LinearRing></outerBoundaryIs>
      </Polygon>
    </Placemark>
    <Placemark>
      <name>obstacle_78</name>
      <Polygon>
        <outerBoundaryIs><LinearRing><coordinates>
          6.408031,51.403980,0 6.405659,51.409149,0 6.404553,51.410175,0 6.401151,51.411602,0 6.400344,51.413743,0 6.391301,51.404313,0 6.408070,51.392416,0 6.406587,51.396185,0 6.408031,51.403980,0
        </coordinates></LinearRing></outerBoundaryIs>
      </Polygon>
    </Placemark>
    <Placemark>
      <name>obstacle_79</name>
      <Polygon>
        <outerBoundaryIs><LinearRing><coordinates>
          6.402406,51.363239,0 6.403367,51.364642,0 6.388310,51.367875,0 6.388512,51.350276,0 6.390776,51.350941,0 6.404380,51.358983,0 6.402406,51.363239,0
        </coordinates></LinearRing></outerBoundaryIs>
      </Polygon>
    </Placemark>
    <Placemark>
      <name>obstacle_80</name>
      <Polygon>
        <outerBoundaryIs><LinearRing><coordinates>
          6.099226,51.030306,0 6.094129,51.022152,0 6.094443,51.016355,0 6.095236,51.012716,0 6.107101,51.008905,0 6.099226,51.030306,0
        </coordinates></LinearRing></outerBoundaryIs>
      </Polygon>
    </Placemark>
    <Placemark>
      <name>obstacle_81</name>
      <Polygon>
        <outerBoundaryIs><LinearRing><coordinates>
          6.436112,51.324893,0 6.427963,51.319817,0 6.436665,51.301330,0 6.448403,51.307234,0 6.447693,51.310341,0 6.436112,51.324893,0
        </coordinates></LinearRing></outerBoundaryIs>
      </Polygon>
    </Placemark>
    <Placemark>
      <name>obstacle_82</name>
      <Polygon>
        <outerBoundaryIs><LinearRing><coordinates>
          6.315627,51.441480,0 6.306822,51.442627,0 6.304565,51.434786,0 6.315732,51.425763,0 6.317019,51.424970,0 6.321724,51.427394,0 6.315627,51.441480,0
        </coordinates></LinearRing></outerBoundaryIs>
      </Polygon>
    </Placemark>
    <Placemark>
      <name>obstacle_83</name>
      <Polygon>
        <outerBoundaryIs><LinearRing><coordinates>
          6.361454,51.022453,0 6.347431,51.027646,0 6.345112,51.027123,0 6.344279,51.023651,0 6.361618,51.012943,0 6.365151,51.017799,0 6.361454,51.022453,0
        </coordinates></LinearRing></outerBoundaryIs>
      </Polygon>
    </Placemark>
    <Placemark>
      <name>obstacle_84</name>
      <Polygon>
        <outerBoundaryIs><LinearRing><coordinates>
          6.148370,51.364128,0 6.136868,51.354200,0 6.138263,51.351299,0 6.142748,51.347024,0 6.148370,51.364128,0
        </coordinates></LinearRing></outerBoundaryIs>
      </Polygon>
    </Placemark>
    <Placemark>
      <name>obstacle_85</name>
      <Polygon>
        <outerBoundaryIs><LinearRing><coordinates>
          6.400252,51.105676,0 6.401153,51.107779,0 6.395300,51.107634,0 6.388226,51.108086,0 6.391939,51.087995,0 6.392983,51.088265,0 6.400252,51.105676,0
        </coordinates></LinearRing></outerBoundaryIs>
      </Polygon>
    </Placemark>
    <Placemark>
      <name>obstacle_86</name>
      <Polygon>
        <outerBoundaryIs><LinearRing><coordinates>
          6.017453,51.398597,0 6.015486,51.400764,0 6.012295,51.400142,0 6.018779,51.379241,0 6.019573,51.380874,0 6.017453,51.398597,0
        </coordinates></LinearRing></outerBoundaryIs>
      </Polygon>
    </Placemark>
    <Placemark>
      <name>obstacle_87</name>
      <Polygon>
        <outerBoundaryIs><LinearRing><coordinates>
          6.366049,51.317271,0 6.346991,51.319094,0 6.343232,51.312982,0 6.346792,51.313861,0 6.346586,51.307730,0 6.351591,51.304707,0 6.366049,51.317271,0
        </coordinates></LinearRing></outerBoundaryIs>
      </Polygon>
    </Placemark>
    <Placemark>
      <name>obstacle_88</name>
      <Polygon>
        <outerBoundaryIs><LinearRing><coordinates>
          6.144519,51.111282,0 6.141620,51.113315,0 6.135779,51.114459,0 6.135927,51.111148,0 6.131912,51.101822,0 6.148744,51.101445,0 6.147562,51.102039,0 6.152235,51.104335,0 6.144519,51.111282,0
        </coordinates></LinearRing></outerBoundaryIs>
      </Polygon>
    </Placemark>
    <Placemark>
      <name>obstacle_89</name>
      <Polygon>
        <outerBoundaryIs><LinearRing><coordinates>
          6.154947,51.441353,0 6.142193,51.444894,0 6.139963,51.444618,0 6.136193,51.428537,0 6.138509,51.427220,0 6.146325,51.425871,0 6.154947,51.441353,0
        </coordinates></LinearRing></outerBoundaryIs>
      </Polygon>
    </Placemark>
    <Placemark>
      <name>obstacle_90</name>
      <Polygon>
        <outerBoundaryIs><LinearRing><coordinates>
          6.280717,51.008443,0 6.282518,51.011643,0 6.285573,51.014252,0 6.285497,51.014292,0 6.280717,51.008443,0
        </coordinates></LinearRing></outerBoundaryIs>
      </Polygon>
    </Placemark>
    <Placemark>
      <name>obstacle_91</name>
      <Polygon>
        <outerBoundaryIs><LinearRing><coordinates>
          6.319157,51.149198,0 6.313068,51.158441,0 6.306343,51.156275,0 6.304949,51.155046,0 6.299194,51.148921,0 6.308322,51.137660,0 6.321720,51.143540,0 6.317746,51.145467,0 6.319157,51.149198,0
        </coordinates></LinearRing></outerBoundaryIs>
      </Polygon>
    </Placemark>
    <Placemark>
      <name>obstacle_92</name>
      <Polygon>
        <outerBoundaryIs><LinearRing><coordinates>
          6.285377,51.356299,0 6.283951,51.360124,0 6.281158,51.363807,0 6.277734,51.361681,0 6.276050,51.364499,0 6.268610,51.345535,0 6.269665,51.343562,0 6.285876,51.350313,0 6.285377,51.356299,0
        </coordinates></LinearRing></outerBoundaryIs>
      </Polygon>
    </Placemark>
    <Placemark>
      <name>obstacle_93</name>
      <Polygon>
        <outerBoundaryIs><LinearRing><coordinates>
          6.355520,51.281033,0 6.343778,51.275098,0 6.341977,51.273716,0 6.344140,51.261946,0 6.353182,51.260630,0 6.355520,51.281033,0
        </coordinates></LinearRing></outerBoundaryIs>
      </Polygon>
    </Placemark>
    <Placemark>
      <name>obstacle_94</name>
      <Polygon>
        <outerBoundaryIs><LinearRing><coordinates>
          6.442579,51.492145,0 6.437078,51.493755,0 6.433107,51.487654,0 6.431776,51.484307,0 6.439499,51.473280,0 6.442579,51.492145,0
        </coordinates></LinearRing></outerBoundaryIs>
      </Polygon>
    </Placemark>
    <Placemark>
      <name>obstacle_95</name>
      <Polygon>
        <outerBoundaryIs><LinearRing><coordinates>
          6.202086,51.310613,0 6.198005,51.312347,0 6.182780,51.313207,0 6.180111,51.307755,0 6.188854,51.299275,0 6.202086,51.310613,0
        </coordinates></LinearRing></outerBoundaryIs>
      </Polygon>
    </Placemark>
    <Placemark>
      <name>obstacle_96</name>
      <Polygon>
        <outerBoundaryIs><LinearRing><coordinates>
          6.185495,51.405942,0 6.183659,51.406387,0 6.186578,51.389544,0 6.190990,51.391436,0 6.196471,51.390803,0 6.200917,51.397091,0 6.185495,51.405942,0
        </coordinates></LinearRing></outerBoundaryIs>
      </Polygon>
    </Placemark>
    <Placemark>
      <name>obstacle_97</name>
      <Polygon>
        <outerBoundaryIs><LinearRing><coordinates>
          6.194367,51.144171,0 6.186820,51.153209,0 6.173701,51.145282,0 6.175384,51.134984,0 6.176981,51.133102,0 6.191376,51.136356,0 6.191508,51.136886,0 6.194367,51.144171,0
        </coordinates></LinearRing></outerBoundaryIs>
      </Polygon>
    </Placemark>
    <Placemark>
      <name>obstacle_98</name>
      <Polygon>
        <outerBoundaryIs><LinearRing><coordinates>
          6.158731,51.027153,0 6.137586,51.034114,0 6.135029,51.029491,0 6.137015,51.028168,0 6.137267,51.021081,0 6.139243,51.019197,0 6.158731,51.027153,0
        </coordinates></LinearRing></outerBoundaryIs>
      </Polygon>
    </Placemark>
    <Placemark>
      <name>obstacle_99</name>
      <Polygon>
        <outerBoundaryIs><LinearRing><coordinates>
          6.244394,51.275221,0 6.239176,51.279555,0 6.232548,51.280470,0 6.229861,51.278325,0 6.225378,51.274206,0 6.223601,51.270118,0 6.223566,51.264938,0 6.245338,51.265568,0 6.244394,51.275221,0
        </coordinates></LinearRing></outerBoundaryIs>
      </Polygon>
    </Placemark>
    <Placemark>
      <name>obstacle_100</name>
      <Polygon>
        <outerBoundaryIs><LinearRing><coordinates>
          6.311760,51.326490,0 6.307322,51.325559,0 6.296423,51.319828,0 6.304319,51.309504,0 6.309036,51.308086,0 6.309563,51.310523,0 6.311760,51.326490,0
        </coordinates></LinearRing></outerBoundaryIs>
      </Polygon>
    </Placemark>
    <Placemark>
      <name>obstacle_101</name>
      <Polygon>
        <outerBoundaryIs><LinearRing><coordinates>
          6.230242,51.322247,0 6.228368,51.325209,0 6.227725,51.324909,0 6.224988,51.329454,0 6.214977,51.322595,0 6.216050,51.319422,0 6.221115,51.308561,0 6.223583,51.306750,0 6.230242,51.322247,0
        </coordinates></LinearRing></outerBoundaryIs>
      </Polygon>
    </Placemark>
    <Placemark>
      <name>obstacle_102</name>
      <Polygon>
        <outerBoundaryIs><LinearRing><coordinates>
          6.282819,51.401362,0 6.279802,51.401645,0 6.276253,51.405836,0 6.266453,51.401734,0 6.267115,51.387716,0 6.273432,51.383593,0 6.282819,51.401362,0
        </coordinates></LinearRing></outerBoundaryIs>
      </Polygon>
    </Placemark>
    <Placemark>
      <name>obstacle_103</name>
      <Polygon>
        <outerBoundaryIs><LinearRing><coordinates>
          6.221773,51.443768,0 6.217792,51.438792,0 6.216824,51.439333,0 6.220730,51.425042,0 6.223053,51.424240,0 6.223526,51.423114,0 6.225057,51.422907,0 6.221773,51.443768,0
        </coordinates></LinearRing></outerBoundaryIs>
      </Polygon>
    </Placemark>
    <Placemark>
      <name>obstacle_104</name>
      <Polygon>
        <outerBoundaryIs><LinearRing><coordinates>
          6.139222,51.144491,0 6.136227,51.142527,0 6.137913,51.141511,0 6.137814,51.139157,0 6.149990,51.132612,0 6.152937,51.132547,0 6.139222,51.144491,0
        </coordinates></LinearRing></outerBoundaryIs>
      </Polygon>
    </Placemark>
  </Document>
</kml>
