<?xml version="1.0" encoding="UTF-8"?>
<kml xmlns="http://www.opengis.net/kml/2.2">
  <Document>
    <name>pyvisgraph benchmark map 08 - 80 obstacles</name>
    <Placemark>
      <name>obstacle_0</name>
      <Polygon>
        <outerBoundaryIs><LinearRing><coordinates>
          6.106209,51.350297,0 6.104199,51.348243,0 6.099673,51.338634,0 6.103458,51.333117,0 6.113162,51.330065,0 6.115363,51.333109,0 6.118718,51.334865,0 6.116399,51.336721,0 6.106209,51.350297,0
        </coordinates></LinearRing></outerBoundaryIs>
      </Polygon>
    </Placemark>
    <Placemark>
      <name>obstacle_1</name>
      <Polygon>
        <outerBoundaryIs><LinearRing><coordinates>
          6.222752,51.164917,0 6.213439,51.173482,0 6.207626,51.172556,0 6.211535,51.153391,0 6.222752,51.164917,0
        </coordinates></LinearRing></outerBoundaryIs>
      </Polygon>
    </Placemark>
    <Placemark>
      <name>obstacle_2</name>
      <Polygon>
        <outerBoundaryIs><LinearRing><coordinates>
          6.211693,51.205666,0 6.209049,51.207159,0 6.212527,51.209732,0 6.191836,51.209293,0 6.196223,51.195632,0 6.198513,51.192089,0 6.201713,51.194140,0 6.211693,51.205666,0
        </coordinates></LinearRing></outerBoundaryIs>
      </Polygon>
    </Placemark>
    <Placemark>
      <name>obstacle_3</name>
      <Polygon>
        <outerBoundaryIs><LinearRing><coordinates>
          6.085873,51.252664,0 6.083186,51.256718,0 6.069962,51.259819,0 6.068041,51.259071,0 6.067733,51.254630,0 6.063786,51.247891,0 6.066007,51.240752,0 6.068427,51.240814,0 6.085873,51.252664,0
        </coordinates></LinearRing></outerBoundaryIs>
      </Polygon>
    </Placemark>
    <Placemark>
      <name>obstacle_4</name>
      <Polygon>
        <outerBoundaryIs><LinearRing><coordinates>
          6.116289,51.115337,0 6.099834,51.118874,0 6.098341,51.108850,0 6.101992,51.099749,0 6.107510,51.099404,0 6.108017,51.101553,0 6.111664,51.101692,0 6.116289,51.115337,0
        </coordinates></LinearRing></outerBoundaryIs>
      </Polygon>
    </Placemark>
    <Placemark>
      <name>obstacle_5</name>
      <Polygon>
        <outerBoundaryIs><LinearRing><coordinates>
          6.391499,51.111191,0 6.375354,51.116250,0 6.370775,51.101020,0 6.377879,51.097814,0 6.391499,51.111191,0
        </coordinates></LinearRing></outerBoundaryIs>
      </Polygon>
    </Placemark>
    <Placemark>
      <name>obstacle_6</name>
      <Polygon>
        <outerBoundaryIs><LinearRing><coordinates>
          6.026001,51.262006,0 6.018363,51.261554,0 6.016330,51.258533,0 6.012830,51.252702,0 6.009735,51.251169,0 6.026001,51.262006,0
        </coordinates></LinearRing></outerBoundaryIs>
      </Polygon>
    </Placemark>
    <Placemark>
      <name>obstacle_7</name>
      <Polygon>
        <outerBoundaryIs><LinearRing><coordinates>
          6.012670,51.488464,0 6.010888,51.475854,0 6.032218,51.474907,0 6.034663,51.477131,0 6.012670,51.488464,0
        </coordinates></LinearRing></outerBoundaryIs>
      </Polygon>
    </Placemark>
    <Placemark>
      <name>obstacle_8</name>
      <Polygon>
        <outerBoundaryIs><LinearRing><coordinates>
          6.075349,51.301985,0 6.065360,51.299791,0 6.078646,51.283222,0 6.084392,51.289383,0 6.075349,51.301985,0
        </coordinates></LinearRing></outerBoundaryIs>
      </Polygon>
    </Placemark>
    <Placemark>
      <name>obstacle_9</name>
      <Polygon>
        <outerBoundaryIs><LinearRing><coordinates>
          6.107886,51.447479,0 6.107486,51.442009,0 6.107611,51.438305,0 6.104170,51.435562,0 6.108515,51.431847,0 6.120663,51.428316,0 6.107886,51.447479,0
        </coordinates></LinearRing></outerBoundaryIs>
      </Polygon>
    </Placemark>
    <Placemark>
      <name>obstacle_10</name>
      <Polygon>
        <outerBoundaryIs><LinearRing><coordinates>
          6.425486,51.218487,0 6.425160,51.218450,0 6.420165,51.201997,0 6.431580,51.199303,0 6.437239,51.208147,0 6.436051,51.208755,0 6.425486,51.218487,0
        </coordinates></LinearRing></outerBoundaryIs>
      </Polygon>
    </Placemark>
    <Placemark>
      <name>obstacle_11</name>
      <Polygon>
        <outerBoundaryIs><LinearRing><coordinates>
          6.245844,51.441339,0 6.243875,51.440965,0 6.246798,51.421257,0 6.256636,51.419924,0 6.256647,51.423565,0 6.245844,51.441339,0
        </coordinates></LinearRing></outerBoundaryIs>
      </Polygon>
    </Placemark>
    <Placemark>
      <name>obstacle_12</name>
      <Polygon>
        <outerBoundaryIs><LinearRing><coordinates>
          6.124444,51.213429,0 6.113356,51.215758,0 6.105331,51.209605,0 6.108563,51.195244,0 6.124444,51.213429,0
        </coordinates></LinearRing></outerBoundaryIs>
      </Polygon>
    </Placemark>
    <Placemark>
      <name>obstacle_13</name>
      <Polygon>
        <outerBoundaryIs><LinearRing><coordinates>
          6.190203,51.354277,0 6.191721,51.334894,0 6.204046,51.334782,0 6.204907,51.337189,0 6.190203,51.354277,0
        </coordinates></LinearRing></outerBoundaryIs>
      </Polygon>
    </Placemark>
    <Placemark>
      <name>obstacle_14</name>
      <Polygon>
        <outerBoundaryIs><LinearRing><coordinates>
          6.350081,51.253325,0 6.343093,51.255560,0 6.326997,51.252914,0 6.331541,51.242634,0 6.347118,51.241541,0 6.345605,51.243734,0 6.350081,51.253325,0
        </coordinates></LinearRing></outerBoundaryIs>
      </Polygon>
    </Placemark>
    <Placemark>
      <name>obstacle_15</name>
      <Polygon>
        <outerBoundaryIs><LinearRing><coordinates>
          6.039188,51.160398,0 6.036240,51.163171,0 6.016323,51.152401,0 6.027465,51.144716,0 6.033428,51.147253,0 6.039188,51.160398,0
        </coordinates></LinearRing></outerBoundaryIs>
      </Polygon>
    </Placemark>
    <Placemark>
      <name>obstacle_16</name>
      <Polygon>
        <outerBoundaryIs><LinearRing><coordinates>
          6.259152,51.174171,0 6.255007,51.172471,0 6.244811,51.176571,0 6.241336,51.171263,0 6.261327,51.160210,0 6.259152,51.174171,0
        </coordinates></LinearRing></outerBoundaryIs>
      </Polygon>
    </Placemark>
    <Placemark>
      <name>obstacle_17</name>
      <Polygon>
        <outerBoundaryIs><LinearRing><coordinates>
          6.242452,51.353490,0 6.239973,51.343092,0 6.243660,51.334568,0 6.245676,51.334535,0 6.247598,51.334164,0 6.248066,51.337200,0 6.250998,51.335416,0 6.256258,51.338815,0 6.242452,51.353490,0
        </coordinates></LinearRing></outerBoundaryIs>
      </Polygon>
    </Placemark>
    <Placemark>
      <name>obstacle_18</name>
      <Polygon>
        <outerBoundaryIs><LinearRing><coordinates>
          6.442228,51.257482,0 6.429296,51.255462,0 6.422984,51.252115,0 6.424839,51.250934,0 6.426854,51.246073,0 6.442228,51.257482,0
        </coordinates></LinearRing></outerBoundaryIs>
      </Polygon>
    </Placemark>
    <Placemark>
      <name>obstacle_19</name>
      <Polygon>
        <outerBoundaryIs><LinearRing><coordinates>
          6.215161,51.244682,0 6.190722,51.247588,0 6.208125,51.233616,0 6.208321,51.233632,0 6.215119,51.239387,0 6.215161,51.244682,0
        </coordinates></LinearRing></outerBoundaryIs>
      </Polygon>
    </Placemark>
    <Placemark>
      <name>obstacle_20</name>
      <Polygon>
        <outerBoundaryIs><LinearRing><coordinates>
          6.256902,51.392850,0 6.257157,51.393409,0 6.242630,51.398410,0 6.239923,51.395423,0 6.241875,51.378032,0 6.245650,51.374446,0 6.254815,51.376536,0 6.260392,51.385180,0 6.256902,51.392850,0
        </coordinates></LinearRing></outerBoundaryIs>
      </Polygon>
    </Placemark>
    <Placemark>
      <name>obstacle_21</name>
      <Polygon>
        <outerBoundaryIs><LinearRing><coordinates>
          6.309597,51.346473,0 6.305777,51.351665,0 6.293090,51.344380,0 6.290771,51.344221,0 6.291569,51.342524,0 6.312830,51.340119,0 6.309597,51.346473,0
        </coordinates></LinearRing></outerBoundaryIs>
      </Polygon>
    </Placemark>
    <Placemark>
      <name>obstacle_22</name>
      <Polygon>
        <outerBoundaryIs><LinearRing><coordinates>
          6.470047,51.302937,0 6.467052,51.295990,0 6.465193,51.292733,0 6.467247,51.287633,0 6.469255,51.284883,0 6.470814,51.284223,0 6.483770,51.284081,0 6.470047,51.302937,0
        </coordinates></LinearRing></outerBoundaryIs>
      </Polygon>
    </Placemark>
    <Placemark>
      <name>obstacle_23</name>
      <Polygon>
        <outerBoundaryIs><LinearRing><coordinates>
          6.443448,51.383847,0 6.430772,51.391521,0 6.421326,51.381560,0 6.422703,51.378174,0 6.427872,51.370372,0 6.443448,51.383847,0
        </coordinates></LinearRing></outerBoundaryIs>
      </Polygon>
    </Placemark>
    <Placemark>
      <name>obstacle_24</name>
      <Polygon>
        <outerBoundaryIs><LinearRing><coordinates>
          6.071379,51.022290,0 6.071376,51.022981,0 6.069848,51.023421,0 6.068030,51.028689,0 6.057538,51.031011,0 6.071379,51.022290,0
        </coordinates></LinearRing></outerBoundaryIs>
      </Polygon>
    </Placemark>
    <Placemark>
      <name>obstacle_25</name>
      <Polygon>
        <outerBoundaryIs><LinearRing><coordinates>
          6.475600,51.031704,0 6.459488,51.017851,0 6.466454,51.007609,0 6.478881,51.011444,0 6.475600,51.031704,0
        </coordinates></LinearRing></outerBoundaryIs>
      </Polygon>
    </Placemark>
    <Placemark>
      <name>obstacle_26</name>
      <Polygon>
        <outerBoundaryIs><LinearRing><coordinates>
          6.478107,51.485355,0 6.466157,51.467516,0 6.469014,51.465978,0 6.481097,51.474480,0 6.478107,51.485355,0
        </coordinates></LinearRing></outerBoundaryIs>
      </Polygon>
    </Placemark>
    <Placemark>
      <name>obstacle_27</name>
      <Polygon>
        <outerBoundaryIs><LinearRing><coordinates>
          6.029860,51.116732,0 6.022625,51.121928,0 6.021449,51.118589,0 6.026590,51.099749,0 6.029860,51.116732,0
        </coordinates></LinearRing></outerBoundaryIs>
      </Polygon>
    </Placemark>
    <Placemark>
      <name>obstacle_28</name>
      <Polygon>
        <outerBoundaryIs><LinearRing><coordinates>
          6.393683,51.070443,0 6.386544,51.074549,0 6.378708,51.048886,0 6.380704,51.053012,0 6.385046,51.049095,0 6.393683,51.070443,0
        </coordinates></LinearRing></outerBoundaryIs>
      </Polygon>
    </Placemark>
    <Placemark>
      <name>obstacle_29</name>
      <Polygon>
        <outerBoundaryIs><LinearRing><coordinates>
          6.148984,51.083242,0 6.143992,51.073288,0 6.151193,51.063901,0 6.161926,51.066854,0 6.164958,51.065478,0 6.165211,51.067499,0 6.164441,51.072069,0 6.148984,51.083242,0
        </coordinates></LinearRing></outerBoundaryIs>
      </Polygon>
    </Placemark>
    <Placemark>
      <name>obstacle_30</name>
      <Polygon>
        <outerBoundaryIs><LinearRing><coordinates>
          6.302796,51.024221,0 6.299069,51.026395,0 6.288220,51.026354,0 6.286721,51.027353,0 6.282788,51.014531,0 6.286662,51.010555,0 6.293253,51.010198,0 6.302300,51.013164,0 6.302796,51.024221,0
        </coordinates></LinearRing></outerBoundaryIs>
      </Polygon>
    </Placemark>
    <Placemark>
      <name>obstacle_31</name>
      <Polygon>
        <outerBoundaryIs><LinearRing><coordinates>
          6.214433,51.403936,0 6.198880,51.392151,0 6.199918,51.388008,0 6.202022,51.385316,0 6.210684,51.380429,0 6.218807,51.383690,0 6.221721,51.389490,0 6.214433,51.403936,0
        </coordinates></LinearRing></outerBoundaryIs>
      </Polygon>
    </Placemark>
    <Placemark>
      <name>obstacle_32</name>
      <Polygon>
        <outerBoundaryIs><LinearRing><coordinates>
          6.256595,51.258926,0 6.257038,51.261660,0 6.254751,51.262421,0 6.244875,51.270244,0 6.237901,51.266906,0 6.253249,51.252193,0 6.256595,51.258926,0
        </coordinates></LinearRing></outerBoundaryIs>
      </Polygon>
    </Placemark>
    <Placemark>
      <name>obstacle_33</name>
      <Polygon>
        <outerBoundaryIs><LinearRing><coordinates>
          6.472392,51.393937,0 6.471595,51.393372,0 6.484234,51.379794,0 6.491296,51.384176,0 6.472392,51.393937,0
        </coordinates></LinearRing></outerBoundaryIs>
      </Polygon>
    </Placemark>
    <Placemark>
      <name>obstacle_34</name>
      <Polygon>
        <outerBoundaryIs><LinearRing><coordinates>
          6.059275,51.156419,0 6.059366,51.153283,0 6.060936,51.151295,0 6.062826,51.148011,0 6.071962,51.148054,0 6.074583,51.151568,0 6.079438,51.156571,0 6.059275,51.156419,0
        </coordinates></LinearRing></outerBoundaryIs>
      </Polygon>
    </Placemark>
    <Placemark>
      <name>obstacle_35</name>
      <Polygon>
        <outerBoundaryIs><LinearRing><coordinates>
          6.350106,51.348669,0 6.350258,51.350044,0 6.338382,51.355049,0 6.332278,51.352059,0 6.327365,51.352116,0 6.348525,51.341339,0 6.350106,51.348669,0
        </coordinates></LinearRing></outerBoundaryIs>
      </Polygon>
    </Placemark>
    <Placemark>
      <name>obstacle_36</name>
      <Polygon>
        <outerBoundaryIs><LinearRing><coordinates>
          6.161793,51.020709,0 6.157000,51.025174,0 6.148969,51.025338,0 6.145080,51.023060,0 6.142635,51.013556,0 6.151232,51.007117,0 6.161793,51.020709,0
        </coordinates></LinearRing></outerBoundaryIs>
      </Polygon>
    </Placemark>
    <Placemark>
      <name>obstacle_37</name>
      <Polygon>
        <outerBoundaryIs><LinearRing><coordinates>
          6.064401,51.075776,0 6.062307,51.074866,0 6.058389,51.071823,0 6.058780,51.062427,0 6.064401,51.075776,0
        </coordinates></LinearRing></outerBoundaryIs>
      </Polygon>
    </Placemark>
    <Placemark>
      <name>obstacle_38</name>
      <Polygon>
        <outerBoundaryIs><LinearRing><coordinates>
          6.009386,51.401593,0 6.009203,51.397772,0 6.013055,51.383367,0 6.025499,51.384939,0 6.009386,51.401593,0
        </coordinates></LinearRing></outerBoundaryIs>
      </Polygon>
    </Placemark>
    <Placemark>
      <name>obstacle_39</name>
      <Polygon>
        <outerBoundaryIs><LinearRing><coordinates>
          6.441864,51.127620,0 6.439167,51.128152,0 6.427691,51.107296,0 6.436190,51.106304,0 6.439886,51.104596,0 6.441864,51.127620,0
        </coordinates></LinearRing></outerBoundaryIs>
      </Polygon>
    </Placemark>
    <Placemark>
      <name>obstacle_40</name>
      <Polygon>
        <outerBoundaryIs><LinearRing><coordinates>
          6.352847,51.115980,0 6.350422,51.120174,0 6.341722,51.118848,0 6.337612,51.115748,0 6.343757,51.102463,0 6.349311,51.103885,0 6.352847,51.115980,0
        </coordinates></LinearRing></outerBoundaryIs>
      </Polygon>
    </Placemark>
    <Placemark>
      <name>obstacle_41</name>
      <Polygon>
        <outerBoundaryIs><LinearRing><coordinates>
          6.354277,51.484164,0 6.342175,51.488954,0 6.341613,51.491040,0 6.337066,51.485657,0 6.331980,51.484193,0 6.332293,51.483942,0 6.354748,51.474251,0 6.354277,51.484164,0
        </coordinates></LinearRing></outerBoundaryIs>
      </Polygon>
    </Placemark>
    <Placemark>
      <name>obstacle_42</name>
      <Polygon>
        <outerBoundaryIs><LinearRing><coordinates>
          6.071259,51.115123,0 6.067582,51.124148,0 6.062062,51.127830,0 6.055670,51.122777,0 6.056946,51.120619,0 6.055119,51.103884,0 6.059905,51.104946,0 6.071784,51.111373,0 6.071259,51.115123,0
        </coordinates></LinearRing></outerBoundaryIs>
      </Polygon>
    </Placemark>
    <Placemark>
      <name>obstacle_43</name>
      <Polygon>
        <outerBoundaryIs><LinearRing><coordinates>
          6.040779,51.352142,0 6.022402,51.354102,0 6.024257,51.337322,0 6.032971,51.334590,0 6.036524,51.338007,0 6.038450,51.344226,0 6.040779,51.352142,0
        </coordinates></LinearRing></outerBoundaryIs>
      </Polygon>
    </Placemark>
    <Placemark>
      <name>obstacle_44</name>
      <Polygon>
        <outerBoundaryIs><LinearRing><coordinates>
          6.163397,51.479666,0 6.155455,51.486954,0 6.147770,51.487376,0 6.147681,51.483832,0 6.140613,51.476010,0 6.163397,51.479666,0
        </coordinates></LinearRing></outerBoundaryIs>
      </Polygon>
    </Placemark>
    <Placemark>
      <name>obstacle_45</name>
      <Polygon>
        <outerBoundaryIs><LinearRing><coordinates>
          6.130653,51.389535,0 6.127936,51.391232,0 6.122435,51.396468,0 6.108595,51.381051,0 6.113969,51.379433,0 6.116070,51.379304,0 6.130653,51.389535,0
        </coordinates></LinearRing></outerBoundaryIs>
      </Polygon>
    </Placemark>
    <Placemark>
      <name>obstacle_46</name>
      <Polygon>
        <outerBoundaryIs><LinearRing><coordinates>
          6.386184,51.393170,0 6.378569,51.397182,0 6.375746,51.399490,0 6.373317,51.396462,0 6.374141,51.375862,0 6.377971,51.373799,0 6.389120,51.379288,0 6.391074,51.384450,0 6.386184,51.393170,0
        </coordinates></LinearRing></outerBoundaryIs>
      </Polygon>
    </Placemark>
    <Placemark>
      <name>obstacle_47</name>
      <Polygon>
        <outerBoundaryIs><LinearRing><coordinates>
          6.449780,51.068715,0 6.449621,51.069887,0 6.444846,51.076398,0 6.433444,51.080277,0 6.426598,51.063177,0 6.431815,51.056586,0 6.437085,51.056683,0 6.442912,51.062734,0 6.449780,51.068715,0
        </coordinates></LinearRing></outerBoundaryIs>
      </Polygon>
    </Placemark>
    <Placemark>
      <name>obstacle_48</name>
      <Polygon>
        <outerBoundaryIs><LinearRing><coordinates>
          6.468796,51.240156,0 6.467526,51.239418,0 6.471930,51.236244,0 6.480960,51.230691,0 6.484741,51.234476,0 6.491197,51.238829,0 6.468796,51.240156,0
        </coordinates></LinearRing></outerBoundaryIs>
      </Polygon>
    </Placemark>
    <Placemark>
      <name>obstacle_49</name>
      <Polygon>
        <outerBoundaryIs><LinearRing><coordinates>
          6.420855,51.441506,0 6.419542,51.434310,0 6.434934,51.429001,0 6.436802,51.427134,0 6.420855,51.441506,0
        </coordinates></LinearRing></outerBoundaryIs>
      </Polygon>
    </Placemark>
    <Placemark>
      <name>obstacle_50</name>
      <Polygon>
        <outerBoundaryIs><LinearRing><coordinates>
          6.072535,51.354685,0 6.068894,51.354663,0 6.063497,51.353000,0 6.064583,51.341111,0 6.076763,51.334963,0 6.072535,51.354685,0
        </coordinates></LinearRing></outerBoundaryIs>
      </Polygon>
    </Placemark>
    <Placemark>
      <name>obstacle_51</name>
      <Polygon>
        <outerBoundaryIs><LinearRing><coordinates>
          6.434796,51.352553,0 6.430251,51.353483,0 6.419551,51.341545,0 6.420128,51.336418,0 6.434796,51.352553,0
        </coordinates></LinearRing></outerBoundaryIs>
      </Polygon>
    </Placemark>
    <Placemark>
      <name>obstacle_52</name>
      <Polygon>
        <outerBoundaryIs><LinearRing><coordinates>
          6.035840,51.217044,0 6.032983,51.218980,0 6.028238,51.219346,0 6.023758,51.222325,0 6.017071,51.205953,0 6.020621,51.200093,0 6.037451,51.205237,0 6.035840,51.217044,0
        </coordinates></LinearRing></outerBoundaryIs>
      </Polygon>
    </Placemark>
    <Placemark>
      <name>obstacle_53</name>
      <Polygon>
        <outerBoundaryIs><LinearRing><coordinates>
          6.398170,51.345873,0 6.399896,51.351797,0 6.386776,51.355839,0 6.383472,51.333696,0 6.388105,51.330279,0 6.398170,51.345873,0
        </coordinates></LinearRing></outerBoundaryIs>
      </Polygon>
    </Placemark>
    <Placemark>
      <name>obstacle_54</name>
      <Polygon>
        <outerBoundaryIs><LinearRing><coordinates>
          6.398928,51.473231,0 6.397439,51.475992,0 6.389834,51.483691,0 6.382192,51.479211,0 6.375045,51.475311,0 6.380999,51.468020,0 6.395245,51.466395,0 6.398928,51.473231,0
        </coordinates></LinearRing></outerBoundaryIs>
      </Polygon>
    </Placemark>
    <Placemark>
      <name>obstacle_55</name>
      <Polygon>
        <outerBoundaryIs><LinearRing><coordinates>
          6.292256,51.215307,0 6.283519,51.207625,0 6.295999,51.195557,0 6.300954,51.196353,0 6.292256,51.215307,0
        </coordinates></LinearRing></outerBoundaryIs>
      </Polygon>
    </Placemark>
    <Placemark>
      <name>obstacle_56</name>
      <Polygon>
        <outerBoundaryIs><LinearRing><coordinates>
          6.425076,51.156749,0 6.423824,51.146582,0 6.436919,51.144940,0 6.440216,51.145111,0 6.425076,51.156749,0
        </coordinates></LinearRing></outerBoundaryIs>
      </Polygon>
    </Placemark>
    <Placemark>
      <name>obstacle_57</name>
      <Polygon>
        <outerBoundaryIs><LinearRing><coordinates>
          6.260530,51.074927,0 6.260670,51.076839,0 6.253444,51.082102,0 6.251655,51.085061,0 6.245340,51.080093,0 6.241518,51.074792,0 6.258408,51.064752,0 6.261797,51.067752,0 6.260530,51.074927,0
        </coordinates></LinearRing></outerBoundaryIs>
      </Polygon>
    </Placemark>
    <Placemark>
      <name>obstacle_58</name>
      <Polygon>
        <outerBoundaryIs><LinearRing><coordinates>
          6.247999,51.479695,0 6.250351,51.460551,0 6.251870,51.462786,0 6.258613,51.462451,0 6.261473,51.463926,0 6.263034,51.464026,0 6.247999,51.479695,0
        </coordinates></LinearRing></outerBoundaryIs>
      </Polygon>
    </Placemark>
    <Placemark>
      <name>obstacle_59</name>
      <Polygon>
        <outerBoundaryIs><LinearRing><coordinates>
          6.163752,51.110879,0 6.161437,51.112098,0 6.161959,51.115144,0 6.142727,51.108053,0 6.144632,51.106127,0 6.155691,51.099481,0 6.163752,51.110879,0
        </coordinates></LinearRing></outerBoundaryIs>
      </Polygon>
    </Placemark>
    <Placemark>
      <name>obstacle_60</name>
      <Polygon>
        <outerBoundaryIs><LinearRing><coordinates>
          6.119915,51.030896,0 6.115023,51.031076,0 6.108357,51.032584,0 6.108359,51.031492,0 6.103777,51.027706,0 6.102616,51.025312,0 6.109169,51.009129,0 6.115896,51.015251,0 6.119915,51.030896,0
        </coordinates></LinearRing></outerBoundaryIs>
      </Polygon>
    </Placemark>
    <Placemark>
      <name>obstacle_61</name>
      <Polygon>
        <outerBoundaryIs><LinearRing><coordinates>
          6.210548,51.490112,0 6.201586,51.484853,0 6.202737,51.481631,0 6.216001,51.470812,0 6.220870,51.471067,0 6.210548,51.490112,0
        </coordinates></LinearRing></outerBoundaryIs>
      </Polygon>
    </Placemark>
    <Placemark>
      <name>obstacle_62</name>
      <Polygon>
        <outerBoundaryIs><LinearRing><coordinates>
          6.436634,51.020156,0 6.432672,51.023620,0 6.424864,51.027648,0 6.424115,51.028421,0 6.428401,51.004475,0 6.429500,51.009357,0 6.434628,51.010733,0 6.436634,51.020156,0
        </coordinates></LinearRing></outerBoundaryIs>
      </Polygon>
    </Placemark>
    <Placemark>
      <name>obstacle_63</name>
      <Polygon>
        <outerBoundaryIs><LinearRing><coordinates>
          6.123565,51.259191,0 6.114827,51.264918,0 6.113630,51.262560,0 6.113969,51.261486,0 6.110396,51.259588,0 6.109646,51.254745,0 6.117897,51.242421,0 6.123565,51.259191,0
        </coordinates></LinearRing></outerBoundaryIs>
      </Polygon>
    </Placemark>
    <Placemark>
      <name>obstacle_64</name>
      <Polygon>
        <outerBoundaryIs><LinearRing><coordinates>
          6.305967,51.163259,0 6.292926,51.169262,0 6.284394,51.166587,0 6.287772,51.151131,0 6.304840,51.150323,0 6.305590,51.152295,0 6.309032,51.158664,0 6.305967,51.163259,0
        </coordinates></LinearRing></outerBoundaryIs>
      </Polygon>
    </Placemark>
    <Placemark>
      <name>obstacle_65</name>
      <Polygon>
        <outerBoundaryIs><LinearRing><coordinates>
          6.489096,51.158299,0 6.487460,51.158903,0 6.480042,51.163760,0 6.476701,51.145525,0 6.482196,51.141466,0 6.489096,51.158299,0
        </coordinates></LinearRing></outerBoundaryIs>
      </Polygon>
    </Placemark>
    <Placemark>
      <name>obstacle_66</name>
      <Polygon>
        <outerBoundaryIs><LinearRing><coordinates>
          6.357630,51.163906,0 6.349391,51.170834,0 6.348732,51.175741,0 6.344170,51.170924,0 6.337733,51.169425,0 6.336231,51.168603,0 6.351529,51.149883,0 6.356232,51.162470,0 6.357630,51.163906,0
        </coordinates></LinearRing></outerBoundaryIs>
      </Polygon>
    </Placemark>
    <Placemark>
      <name>obstacle_67</name>
      <Polygon>
        <outerBoundaryIs><LinearRing><coordinates>
          6.160847,51.260656,0 6.160482,51.262996,0 6.151464,51.244514,0 6.164632,51.248684,0 6.166277,51.251018,0 6.160847,51.260656,0
        </coordinates></LinearRing></outerBoundaryIs>
      </Polygon>
    </Placemark>
    <Placemark>
      <name>obstacle_68</name>
      <Polygon>
        <outerBoundaryIs><LinearRing><coordinates>
          6.005164,51.301938,0 6.007778,51.292418,0 6.009545,51.293996,0 6.014585,51.293187,0 6.021217,51.289237,0 6.005164,51.301938,0
        </coordinates></LinearRing></outerBoundaryIs>
      </Polygon>
    </Placemark>
    <Placemark>
      <name>obstacle_69</name>
      <Polygon>
        <outerBoundaryIs><LinearRing><coordinates>
          6.390471,51.163155,0 6.374741,51.155518,0 6.372160,51.153628,0 6.379770,51.142154,0 6.384071,51.141582,0 6.385681,51.143740,0 6.392709,51.150060,0 6.390471,51.163155,0
        </coordinates></LinearRing></outerBoundaryIs>
      </Polygon>
    </Placemark>
    <Placemark>
      <name>obstacle_70</name>
      <Polygon>
        <outerBoundaryIs><LinearRing><coordinates>
          6.216191,51.024959,0 6.212258,51.026604,0 6.201334,51.022277,0 6.202686,51.014900,0 6.205261,51.007080,0 6.206538,51.005369,0 6.209676,51.005243,0 6.215518,51.011387,0 6.216191,51.024959,0
        </coordinates></LinearRing></outerBoundaryIs>
      </Polygon>
    </Placemark>
    <Placemark>
      <name>obstacle_71</name>
      <Polygon>
        <outerBoundaryIs><LinearRing><coordinates>
          6.077708,51.435096,0 6.066684,51.438294,0 6.060237,51.420529,0 6.060139,51.416958,0 6.061173,51.415139,0 6.070492,51.418109,0 6.080882,51.424166,0 6.080946,51.425245,0 6.077708,51.435096,0
        </coordinates></LinearRing></outerBoundaryIs>
      </Polygon>
    </Placemark>
    <Placemark>
      <name>obstacle_72</name>
      <Polygon>
        <outerBoundaryIs><LinearRing><coordinates>
          6.195543,51.301492,0 6.206859,51.285544,0 6.211334,51.288456,0 6.214091,51.290466,0 6.195543,51.301492,0
        </coordinates></LinearRing></outerBoundaryIs>
      </Polygon>
    </Placemark>
    <Placemark>
      <name>obstacle_73</name>
      <Polygon>
        <outerBoundaryIs><LinearRing><coordinates>
          6.393598,51.031624,0 6.389181,51.034661,0 6.387339,51.040604,0 6.375202,51.036049,0 6.373440,51.037564,0 6.369143,51.032003,0 6.371644,51.028248,0 6.375259,51.021809,0 6.393598,51.031624,0
        </coordinates></LinearRing></outerBoundaryIs>
      </Polygon>
    </Placemark>
    <Placemark>
      <name>obstacle_74</name>
      <Polygon>
        <outerBoundaryIs><LinearRing><coordinates>
          6.164427,51.383911,0 6.161604,51.385306,0 6.144453,51.387856,0 6.142862,51.378505,0 6.167380,51.376364,0 6.164427,51.383911,0
        </coordinates></LinearRing></outerBoundaryIs>
      </Polygon>
    </Placemark>
    <Placemark>
      <name>obstacle_75</name>
      <Polygon>
        <outerBoundaryIs><LinearRing><coordinates>
          6.489971,51.071421,0 6.471828,51.074524,0 6.472565,51.057035,0 6.472819,51.056124,0 6.480531,51.056627,0 6.488939,51.058948,0 6.492149,51.059657,0 6.493052,51.064300,0 6.489971,51.071421,0
        </coordinates></LinearRing></outerBoundaryIs>
      </Polygon>
    </Placemark>
    <Placemark>
      <name>obstacle_76</name>
      <Polygon>
        <outerBoundaryIs><LinearRing><coordinates>
          6.119537,51.483960,0 6.115951,51.488441,0 6.108958,51.493766,0 6.097831,51.484328,0 6.098050,51.477756,0 6.114463,51.476525,0 6.119537,51.483960,0
        </coordinates></LinearRing></outerBoundaryIs>
      </Polygon>
    </Placemark>
    <Placemark>
      <name>obstacle_77</name>
      <Polygon>
        <outerBoundaryIs><LinearRing><coordinates>
          6.164278,51.295062,0 6.166384,51.296829,0 6.140899,51.291114,0 6.157303,51.282110,0 6.161992,51.281903,0 6.162348,51.285792,0 6.164278,51.295062,0
        </coordinates></LinearRing></outerBoundaryIs>
      </Polygon>
    </Placemark>
    <Placemark>
      <name>obstacle_78</name>
      <Polygon>
        <outerBoundaryIs><LinearRing><coordinates>
          6.343257,51.306113,0 6.334509,51.287548,0 6.334399,51.286575,0 6.338771,51.286740,0 6.343298,51.285337,0 6.343912,51.283991,0 6.349269,51.288258,0 6.343257,51.306113,0
        </coordinates></LinearRing></outerBoundaryIs>
      </Polygon>
    </Placemark>
    <Placemark>
      <name>obstacle_79</name>
      <Polygon>
        <outerBoundaryIs><LinearRing><coordinates>
          6.081542,51.387454,0 6.075425,51.390143,0 6.063412,51.387882,0 6.059753,51.378626,0 6.062276,51.376526,0 6.068994,51.369562,0 6.081542,51.387454,0
        </coordinates></LinearRing></outerBoundaryIs>
      </Polygon>
    </Placemark>
  </Document>
</kml>
