<?xml version="1.0" encoding="UTF-8"?>
<kml xmlns="http://www.opengis.net/kml/2.2">
  <Document>
    <name>pyvisgraph benchmark map 27 - 23 obstacles</name>
    <Placemark>
      <name>obstacle_0</name>
      <Polygon>
        <outerBoundaryIs><LinearRing><coordinates>
          6.476634,51.036804,0 6.486952,51.052985,0 6.470806,51.073322,0 6.448999,51.069876,0 6.439099,51.048733,0 6.454707,51.031230,0 6.476634,51.036804,0
        </coordinates></LinearRing></outerBoundaryIs>
        <innerBoundaryIs><LinearRing><coordinates>
          6.468612,51.058404,0 6.465925,51.054067,0 6.462714,51.054743,0 6.460983,51.058719,0 6.462389,51.061772,0 6.466693,51.061272,0 6.468612,51.058404,0
        </coordinates></LinearRing></innerBoundaryIs>
      </Polygon>
    </Placemark>
    <Placemark>
      <name>obstacle_1</name>
      <Polygon>
        <outerBoundaryIs><LinearRing><coordinates>
          6.206735,51.469706,0 6.189290,51.469447,0 6.175407,51.458331,0 6.175054,51.444709,0 6.184640,51.431340,0 6.201213,51.429097,0 6.217354,51.439748,0 6.217574,51.456011,0 6.206735,51.469706,0
        </coordinates></LinearRing></outerBoundaryIs>
        <innerBoundaryIs><LinearRing><coordinates>
          6.195509,51.452577,0 6.198693,51.450137,0 6.195860,51.447502,0 6.193598,51.450163,0 6.195509,51.452577,0
        </coordinates></LinearRing></innerBoundaryIs>
        <innerBoundaryIs><LinearRing><coordinates>
          6.201153,51.439602,0 6.197962,51.439726,0 6.196083,51.443488,0 6.198551,51.446493,0 6.202123,51.445742,0 6.203478,51.442126,0 6.201153,51.439602,0
        </coordinates></LinearRing></innerBoundaryIs>
        <innerBoundaryIs><LinearRing><coordinates>
          6.207297,51.455128,0 6.208861,51.451570,0 6.205584,51.450731,0 6.204661,51.453643,0 6.207297,51.455128,0
        </coordinates></LinearRing></innerBoundaryIs>
        <innerBoundaryIs><LinearRing><coordinates>
          6.189133,51.449235,0 6.185670,51.449993,0 6.185799,51.454339,0 6.188384,51.456284,0 6.191489,51.454089,0 6.191476,51.450944,0 6.189133,51.449235,0
        </coordinates></LinearRing></innerBoundaryIs>
        <innerBoundaryIs><LinearRing><coordinates>
          6.187066,51.442415,0 6.187536,51.445659,0 6.190490,51.447110,0 6.192960,51.446068,0 6.193325,51.442468,0 6.190614,51.440947,0 6.187066,51.442415,0
        </coordinates></LinearRing></innerBoundaryIs>
      </Polygon>
    </Placemark>
    <Placemark>
      <name>obstacle_2</name>
      <Polygon>
        <outerBoundaryIs><LinearRing><coordinates>
          6.294645,51.056342,0 6.285043,51.050521,0 6.278376,51.037348,0 6.282307,51.023104,0 6.291046,51.012218,0 6.306346,51.012890,0 6.318963,51.019625,0 6.321550,51.031844,0 6.320032,51.045443,0 6.309092,51.055600,0 6.294645,51.056342,0
        </coordinates></LinearRing></outerBoundaryIs>
        <innerBoundaryIs><LinearRing><coordinates>
          6.296909,51.038024,0 6.299572,51.037453,0 6.301219,51.034526,0 6.299243,51.032409,0 6.296120,51.032556,0 6.295139,51.034929,0 6.296909,51.038024,0
        </coordinates></LinearRing></innerBoundaryIs>
        <innerBoundaryIs><LinearRing><coordinates>
          6.305892,51.025678,0 6.303806,51.023107,0 6.299968,51.023342,0 6.298589,51.026650,0 6.301354,51.029838,0 6.304830,51.028622,0 6.305892,51.025678,0
        </coordinates></LinearRing></innerBoundaryIs>
        <innerBoundaryIs><LinearRing><coordinates>
          6.299107,51.040486,0 6.299845,51.042891,0 6.302885,51.042411,0 6.303394,51.039810,0 6.300685,51.038444,0 6.299107,51.040486,0
        </coordinates></LinearRing></innerBoundaryIs>
        <innerBoundaryIs><LinearRing><coordinates>
          6.305971,51.034123,0 6.309302,51.038811,0 6.313724,51.035410,0 6.309989,51.031166,0 6.305971,51.034123,0
        </coordinates></LinearRing></innerBoundaryIs>
        <innerBoundaryIs><LinearRing><coordinates>
          6.307392,51.044174,0 6.309321,51.042488,0 6.308574,51.040530,0 6.306377,51.039904,0 6.304468,51.041128,0 6.304538,51.043551,0 6.307392,51.044174,0
        </coordinates></LinearRing></innerBoundaryIs>
      </Polygon>
    </Placemark>
    <Placemark>
      <name>obstacle_3</name>
      <Polygon>
        <outerBoundaryIs><LinearRing><coordinates>
          6.211826,51.017818,0 6.228882,51.018019,0 6.240444,51.031851,0 6.234352,51.050291,0 6.224335,51.061759,0 6.205312,51.056290,0 6.197247,51.046009,0 6.199965,51.027107,0 6.211826,51.017818,0
        </coordinates></LinearRing></outerBoundaryIs>
        <innerBoundaryIs><LinearRing><coordinates>
          6.220251,51.036248,0 6.216895,51.039806,0 6.219423,51.043782,0 6.223959,51.042224,0 6.224096,51.037929,0 6.220251,51.036248,0
        </coordinates></LinearRing></innerBoundaryIs>
      </Polygon>
    </Placemark>
    <Placemark>
      <name>obstacle_4</name>
      <Polygon>
        <outerBoundaryIs><LinearRing><coordinates>
          6.039240,51.396701,0 6.026608,51.377389,0 6.032323,51.358599,0 6.058746,51.353676,0 6.068030,51.369043,0 6.062565,51.390340,0 6.039240,51.396701,0
        </coordinates></LinearRing></outerBoundaryIs>
        <innerBoundaryIs><LinearRing><coordinates>
          6.040429,51.376773,0 6.037267,51.376465,0 6.036307,51.380094,0 6.039937,51.380581,0 6.040429,51.376773,0
        </coordinates></LinearRing></innerBoundaryIs>
      </Polygon>
    </Placemark>
    <Placemark>
      <name>obstacle_5</name>
      <Polygon>
        <outerBoundaryIs><LinearRing><coordinates>
          6.053040,51.189884,0 6.064872,51.195477,0 6.071240,51.206774,0 6.069081,51.221733,0 6.062100,51.231320,0 6.047988,51.232084,0 6.034677,51.229847,0 6.030106,51.214373,0 6.031370,51.202535,0 6.042043,51.189275,0 6.053040,51.189884,0
        </coordinates></LinearRing></outerBoundaryIs>
        <innerBoundaryIs><LinearRing><coordinates>
          6.042874,51.213873,0 6.040082,51.216948,0 6.042193,51.220820,0 6.045167,51.221463,0 6.048046,51.218359,0 6.045990,51.214593,0 6.042874,51.213873,0
        </coordinates></LinearRing></innerBoundaryIs>
        <innerBoundaryIs><LinearRing><coordinates>
          6.049392,51.208102,0 6.052287,51.206055,0 6.050160,51.202477,0 6.047288,51.204026,0 6.049392,51.208102,0
        </coordinates></LinearRing></innerBoundaryIs>
        <innerBoundaryIs><LinearRing><coordinates>
          6.048698,51.210569,0 6.049461,51.213668,0 6.052980,51.212617,0 6.052644,51.209689,0 6.048698,51.210569,0
        </coordinates></LinearRing></innerBoundaryIs>
      </Polygon>
    </Placemark>
    <Placemark>
      <name>obstacle_6</name>
      <Polygon>
        <outerBoundaryIs><LinearRing><coordinates>
          6.107439,51.196846,0 6.120252,51.186509,0 6.136931,51.192984,0 6.145643,51.200043,0 6.146907,51.215737,0 6.135168,51.229108,0 6.121491,51.231283,0 6.108215,51.222903,0 6.102203,51.210714,0 6.107439,51.196846,0
        </coordinates></LinearRing></outerBoundaryIs>
        <innerBoundaryIs><LinearRing><coordinates>
          6.128215,51.207187,0 6.126657,51.201922,0 6.121356,51.201134,0 6.120219,51.206789,0 6.123307,51.209519,0 6.128215,51.207187,0
        </coordinates></LinearRing></innerBoundaryIs>
        <innerBoundaryIs><LinearRing><coordinates>
          6.120808,51.219287,0 6.122383,51.215196,0 6.117517,51.212772,0 6.115552,51.216776,0 6.120808,51.219287,0
        </coordinates></LinearRing></innerBoundaryIs>
        <innerBoundaryIs><LinearRing><coordinates>
          6.117629,51.203647,0 6.115306,51.202356,0 6.113261,51.204050,0 6.114535,51.206077,0 6.117377,51.205591,0 6.117629,51.203647,0
        </coordinates></LinearRing></innerBoundaryIs>
        <innerBoundaryIs><LinearRing><coordinates>
          6.132220,51.213592,0 6.134331,51.214122,0 6.136256,51.212514,0 6.135431,51.210277,0 6.133383,51.209549,0 6.131887,51.211296,0 6.132220,51.213592,0
        </coordinates></LinearRing></innerBoundaryIs>
        <innerBoundaryIs><LinearRing><coordinates>
          6.125902,51.215354,0 6.123631,51.218221,0 6.124405,51.221532,0 6.128256,51.222858,0 6.130639,51.220537,0 6.129786,51.216214,0 6.125902,51.215354,0
        </coordinates></LinearRing></innerBoundaryIs>
      </Polygon>
    </Placemark>
    <Placemark>
      <name>obstacle_7</name>
      <Polygon>
        <outerBoundaryIs><LinearRing><coordinates>
          6.363201,51.228842,0 6.353861,51.209946,0 6.365028,51.187633,0 6.385608,51.186771,0 6.399436,51.211334,0 6.388057,51.229843,0 6.363201,51.228842,0
        </coordinates></LinearRing></outerBoundaryIs>
        <innerBoundaryIs><LinearRing><coordinates>
          6.373140,51.202794,0 6.372443,51.198636,0 6.367660,51.199821,0 6.369658,51.203607,0 6.373140,51.202794,0
        </coordinates></LinearRing></innerBoundaryIs>
        <innerBoundaryIs><LinearRing><coordinates>
          6.373075,51.209121,0 6.375879,51.212142,0 6.377702,51.209442,0 6.375157,51.207012,0 6.373075,51.209121,0
        </coordinates></LinearRing></innerBoundaryIs>
      </Polygon>
    </Placemark>
    <Placemark>
      <name>obstacle_8</name>
      <Polygon>
        <outerBoundaryIs><LinearRing><coordinates>
          6.468854,51.395459,0 6.448376,51.397387,0 6.434203,51.387671,0 6.437864,51.364678,0 6.451375,51.352185,0 6.465509,51.358463,0 6.478222,51.376073,0 6.468854,51.395459,0
        </coordinates></LinearRing></outerBoundaryIs>
        <innerBoundaryIs><LinearRing><coordinates>
          6.450376,51.374314,0 6.454650,51.376531,0 6.457535,51.371401,0 6.452688,51.368918,0 6.450376,51.374314,0
        </coordinates></LinearRing></innerBoundaryIs>
        <innerBoundaryIs><LinearRing><coordinates>
          6.464705,51.378396,0 6.461487,51.376680,0 6.459103,51.379874,0 6.462237,51.382352,0 6.464705,51.378396,0
        </coordinates></LinearRing></innerBoundaryIs>
        <innerBoundaryIs><LinearRing><coordinates>
          6.449020,51.380136,0 6.447651,51.384210,0 6.450732,51.385966,0 6.454049,51.384018,0 6.452527,51.380024,0 6.449020,51.380136,0
        </coordinates></LinearRing></innerBoundaryIs>
      </Polygon>
    </Placemark>
    <Placemark>
      <name>obstacle_9</name>
      <Polygon>
        <outerBoundaryIs><LinearRing><coordinates>
          6.114527,51.362392,0 6.135827,51.359250,0 6.144068,51.375226,0 6.139230,51.394809,0 6.121586,51.405258,0 6.106422,51.391358,0 6.100852,51.374205,0 6.114527,51.362392,0
        </coordinates></LinearRing></outerBoundaryIs>
        <innerBoundaryIs><LinearRing><coordinates>
          6.127721,51.382772,0 6.127904,51.378090,0 6.124175,51.376318,0 6.120497,51.380016,0 6.122809,51.383638,0 6.127721,51.382772,0
        </coordinates></LinearRing></innerBoundaryIs>
        <innerBoundaryIs><LinearRing><coordinates>
          6.127603,51.374645,0 6.129419,51.371723,0 6.127880,51.369390,0 6.124212,51.370497,0 6.124400,51.373673,0 6.127603,51.374645,0
        </coordinates></LinearRing></innerBoundaryIs>
        <innerBoundaryIs><LinearRing><coordinates>
          6.127742,51.390687,0 6.128480,51.388233,0 6.126412,51.386374,0 6.124455,51.387260,0 6.123249,51.389648,0 6.124829,51.391753,0 6.127742,51.390687,0
        </coordinates></LinearRing></innerBoundaryIs>
        <innerBoundaryIs><LinearRing><coordinates>
          6.118747,51.378454,0 6.116799,51.374678,0 6.113058,51.374384,0 6.111963,51.379047,0 6.115848,51.380697,0 6.118747,51.378454,0
        </coordinates></LinearRing></innerBoundaryIs>
      </Polygon>
    </Placemark>
    <Placemark>
      <name>obstacle_10</name>
      <Polygon>
        <outerBoundaryIs><LinearRing><coordinates>
          6.406483,51.468830,0 6.384654,51.481205,0 6.365164,51.469966,0 6.366433,51.449428,0 6.385253,51.435701,0 6.403768,51.446218,0 6.406483,51.468830,0
        </coordinates></LinearRing></outerBoundaryIs>
        <innerBoundaryIs><LinearRing><coordinates>
          6.393365,51.454600,0 6.394782,51.458681,0 6.399224,51.456446,0 6.396940,51.452540,0 6.393365,51.454600,0
        </coordinates></LinearRing></innerBoundaryIs>
      </Polygon>
    </Placemark>
    <Placemark>
      <name>obstacle_11</name>
      <Polygon>
        <outerBoundaryIs><LinearRing><coordinates>
          6.121772,51.481365,0 6.105654,51.476658,0 6.096173,51.460820,0 6.100232,51.442375,0 6.115751,51.436384,0 6.135147,51.442223,0 6.138349,51.463383,0 6.121772,51.481365,0
        </coordinates></LinearRing></outerBoundaryIs>
        <innerBoundaryIs><LinearRing><coordinates>
          6.120027,51.458465,0 6.118583,51.454410,0 6.114247,51.454051,0 6.112325,51.458475,0 6.116006,51.461780,0 6.120027,51.458465,0
        </coordinates></LinearRing></innerBoundaryIs>
        <innerBoundaryIs><LinearRing><coordinates>
          6.123050,51.446316,0 6.118089,51.449177,0 6.121144,51.454178,0 6.125678,51.450848,0 6.123050,51.446316,0
        </coordinates></LinearRing></innerBoundaryIs>
        <innerBoundaryIs><LinearRing><coordinates>
          6.105939,51.463801,0 6.109730,51.463094,0 6.109056,51.460059,0 6.105671,51.460581,0 6.105939,51.463801,0
        </coordinates></LinearRing></innerBoundaryIs>
        <innerBoundaryIs><LinearRing><coordinates>
          6.126053,51.464538,0 6.128075,51.459077,0 6.123337,51.458464,0 6.122225,51.463506,0 6.126053,51.464538,0
        </coordinates></LinearRing></innerBoundaryIs>
        <innerBoundaryIs><LinearRing><coordinates>
          6.116977,51.465709,0 6.116899,51.468085,0 6.119554,51.469290,0 6.121135,51.467201,0 6.119624,51.464843,0 6.116977,51.465709,0
        </coordinates></LinearRing></innerBoundaryIs>
      </Polygon>
    </Placemark>
    <Placemark>
      <name>obstacle_12</name>
      <Polygon>
        <outerBoundaryIs><LinearRing><coordinates>
          6.473836,51.215314,0 6.450491,51.228314,0 6.434190,51.216431,0 6.431722,51.191974,0 6.454524,51.184270,0 6.469089,51.192368,0 6.473836,51.215314,0
        </coordinates></LinearRing></outerBoundaryIs>
        <innerBoundaryIs><LinearRing><coordinates>
          6.453462,51.206719,0 6.450207,51.205802,0 6.448898,51.209027,0 6.450643,51.210805,0 6.453675,51.209498,0 6.453462,51.206719,0
        </coordinates></LinearRing></innerBoundaryIs>
        <innerBoundaryIs><LinearRing><coordinates>
          6.447155,51.198153,0 6.442049,51.200462,0 6.445739,51.205704,0 6.450297,51.201742,0 6.447155,51.198153,0
        </coordinates></LinearRing></innerBoundaryIs>
        <innerBoundaryIs><LinearRing><coordinates>
          6.441011,51.211832,0 6.442725,51.215288,0 6.445881,51.213483,0 6.445392,51.210669,0 6.441011,51.211832,0
        </coordinates></LinearRing></innerBoundaryIs>
      </Polygon>
    </Placemark>
    <Placemark>
      <name>obstacle_13</name>
      <Polygon>
        <outerBoundaryIs><LinearRing><coordinates>
          6.045143,51.426820,0 6.070243,51.439471,0 6.070688,51.463278,0 6.049193,51.472136,0 6.031682,51.465710,0 6.028392,51.440858,0 6.045143,51.426820,0
        </coordinates></LinearRing></outerBoundaryIs>
        <innerBoundaryIs><LinearRing><coordinates>
          6.054776,51.451701,0 6.054066,51.449620,0 6.051097,51.448593,0 6.048974,51.450737,0 6.050338,51.453725,0 6.053236,51.454075,0 6.054776,51.451701,0
        </coordinates></LinearRing></innerBoundaryIs>
        <innerBoundaryIs><LinearRing><coordinates>
          6.042052,51.443882,0 6.042130,51.447094,0 6.044051,51.448812,0 6.047603,51.448064,0 6.048102,51.443853,0 6.045489,51.442170,0 6.042052,51.443882,0
        </coordinates></LinearRing></innerBoundaryIs>
        <innerBoundaryIs><LinearRing><coordinates>
          6.057021,51.446185,0 6.059755,51.444026,0 6.056901,51.440451,0 6.054140,51.443598,0 6.057021,51.446185,0
        </coordinates></LinearRing></innerBoundaryIs>
        <innerBoundaryIs><LinearRing><coordinates>
          6.045638,51.450922,0 6.041485,51.451671,0 6.040791,51.456060,0 6.044077,51.457924,0 6.047004,51.457200,0 6.048427,51.453120,0 6.045638,51.450922,0
        </coordinates></LinearRing></innerBoundaryIs>
      </Polygon>
    </Placemark>
    <Placemark>
      <name>obstacle_14</name>
      <Polygon>
        <outerBoundaryIs><LinearRing><coordinates>
          6.101312,51.133978,0 6.102434,51.116792,0 6.109234,51.105261,0 6.127547,51.101244,0 6.140920,51.107313,0 6.143904,51.127483,0 6.132482,51.141429,0 6.119039,51.143846,0 6.101312,51.133978,0
        </coordinates></LinearRing></outerBoundaryIs>
        <innerBoundaryIs><LinearRing><coordinates>
          6.125743,51.119232,0 6.123057,51.116744,0 6.118524,51.119191,0 6.118325,51.123046,0 6.122187,51.125042,0 6.125438,51.123907,0 6.125743,51.119232,0
        </coordinates></LinearRing></innerBoundaryIs>
        <innerBoundaryIs><LinearRing><coordinates>
          6.109863,51.121530,0 6.109672,51.123969,0 6.111447,51.125817,0 6.113912,51.125133,0 6.114699,51.122897,0 6.112836,51.120995,0 6.109863,51.121530,0
        </coordinates></LinearRing></innerBoundaryIs>
        <innerBoundaryIs><LinearRing><coordinates>
          6.114205,51.132260,0 6.117765,51.130365,0 6.115885,51.127260,0 6.112363,51.129436,0 6.114205,51.132260,0
        </coordinates></LinearRing></innerBoundaryIs>
      </Polygon>
    </Placemark>
    <Placemark>
      <name>obstacle_15</name>
      <Polygon>
        <outerBoundaryIs><LinearRing><coordinates>
          6.257771,51.287564,0 6.263884,51.265525,0 6.278778,51.260854,0 6.297623,51.271378,0 6.300347,51.288478,0 6.291261,51.303584,0 6.265543,51.301555,0 6.257771,51.287564,0
        </coordinates></LinearRing></outerBoundaryIs>
        <innerBoundaryIs><LinearRing><coordinates>
          6.279572,51.279534,0 6.284446,51.277424,0 6.281176,51.271848,0 6.276701,51.275380,0 6.279572,51.279534,0
        </coordinates></LinearRing></innerBoundaryIs>
        <innerBoundaryIs><LinearRing><coordinates>
          6.286904,51.288745,0 6.290024,51.286830,0 6.289687,51.283161,0 6.286692,51.281619,0 6.284299,51.283995,0 6.283997,51.286507,0 6.286904,51.288745,0
        </coordinates></LinearRing></innerBoundaryIs>
        <innerBoundaryIs><LinearRing><coordinates>
          6.276101,51.278629,0 6.273513,51.276676,0 6.271375,51.278331,0 6.272260,51.280969,0 6.274915,51.281128,0 6.276101,51.278629,0
        </coordinates></LinearRing></innerBoundaryIs>
        <innerBoundaryIs><LinearRing><coordinates>
          6.280540,51.293040,0 6.282876,51.290490,0 6.281960,51.286516,0 6.276853,51.287148,0 6.276064,51.290771,0 6.280540,51.293040,0
        </coordinates></LinearRing></innerBoundaryIs>
      </Polygon>
    </Placemark>
    <Placemark>
      <name>obstacle_16</name>
      <Polygon>
        <outerBoundaryIs><LinearRing><coordinates>
          6.223316,51.302866,0 6.217122,51.316540,0 6.205633,51.318561,0 6.192889,51.315538,0 6.182782,51.305281,0 6.180697,51.290089,0 6.187381,51.280829,0 6.202141,51.272786,0 6.213932,51.279690,0 6.221386,51.288039,0 6.223316,51.302866,0
        </coordinates></LinearRing></outerBoundaryIs>
        <innerBoundaryIs><LinearRing><coordinates>
          6.196813,51.298482,0 6.197376,51.295931,0 6.195866,51.294607,0 6.193684,51.295500,0 6.192941,51.297651,0 6.195028,51.299119,0 6.196813,51.298482,0
        </coordinates></LinearRing></innerBoundaryIs>
        <innerBoundaryIs><LinearRing><coordinates>
          6.203791,51.288721,0 6.200626,51.292203,0 6.202154,51.295279,0 6.206236,51.294672,0 6.206679,51.290271,0 6.203791,51.288721,0
        </coordinates></LinearRing></innerBoundaryIs>
        <innerBoundaryIs><LinearRing><coordinates>
          6.209661,51.306726,0 6.208424,51.301794,0 6.202994,51.302461,0 6.204061,51.308800,0 6.209661,51.306726,0
        </coordinates></LinearRing></innerBoundaryIs>
        <innerBoundaryIs><LinearRing><coordinates>
          6.210625,51.298226,0 6.212293,51.298395,0 6.213973,51.296598,0 6.213009,51.294007,0 6.210241,51.293904,0 6.209004,51.295803,0 6.210625,51.298226,0
        </coordinates></LinearRing></innerBoundaryIs>
        <innerBoundaryIs><LinearRing><coordinates>
          6.200290,51.304961,0 6.197756,51.302363,0 6.195723,51.303939,0 6.197902,51.306892,0 6.200290,51.304961,0
        </coordinates></LinearRing></innerBoundaryIs>
      </Polygon>
    </Placemark>
    <Placemark>
      <name>obstacle_17</name>
      <Polygon>
        <outerBoundaryIs><LinearRing><coordinates>
          6.429813,51.458177,0 6.434853,51.439847,0 6.451104,51.432198,0 6.470657,51.436541,0 6.474162,51.458627,0 6.460965,51.474600,0 6.446214,51.477137,0 6.429813,51.458177,0
        </coordinates></LinearRing></outerBoundaryIs>
        <innerBoundaryIs><LinearRing><coordinates>
          6.449975,51.451254,0 6.452416,51.448545,0 6.449080,51.446048,0 6.446992,51.449405,0 6.449975,51.451254,0
        </coordinates></LinearRing></innerBoundaryIs>
        <innerBoundaryIs><LinearRing><coordinates>
          6.459974,51.451734,0 6.456653,51.451728,0 6.456643,51.454923,0 6.459624,51.455849,0 6.459974,51.451734,0
        </coordinates></LinearRing></innerBoundaryIs>
      </Polygon>
    </Placemark>
    <Placemark>
      <name>obstacle_18</name>
      <Polygon>
        <outerBoundaryIs><LinearRing><coordinates>
          6.457139,51.262188,0 6.471246,51.277648,0 6.463809,51.302228,0 6.440892,51.307204,0 6.428736,51.287828,0 6.437559,51.265883,0 6.457139,51.262188,0
        </coordinates></LinearRing></outerBoundaryIs>
        <innerBoundaryIs><LinearRing><coordinates>
          6.442876,51.285342,0 6.441993,51.281990,0 6.438561,51.282822,0 6.440240,51.286081,0 6.442876,51.285342,0
        </coordinates></LinearRing></innerBoundaryIs>
        <innerBoundaryIs><LinearRing><coordinates>
          6.456037,51.288464,0 6.458804,51.292587,0 6.462148,51.289184,0 6.459732,51.286496,0 6.456037,51.288464,0
        </coordinates></LinearRing></innerBoundaryIs>
        <innerBoundaryIs><LinearRing><coordinates>
          6.446859,51.278719,0 6.445560,51.281537,0 6.448248,51.284072,0 6.450328,51.282144,0 6.449911,51.279212,0 6.446859,51.278719,0
        </coordinates></LinearRing></innerBoundaryIs>
        <innerBoundaryIs><LinearRing><coordinates>
          6.448924,51.286494,0 6.450131,51.289133,0 6.453209,51.288879,0 6.454405,51.285976,0 6.451858,51.284187,0 6.448924,51.286494,0
        </coordinates></LinearRing></innerBoundaryIs>
        <innerBoundaryIs><LinearRing><coordinates>
          6.450050,51.278004,0 6.452718,51.277499,0 6.453857,51.274597,0 6.450642,51.272853,0 6.448773,51.275068,0 6.450050,51.278004,0
        </coordinates></LinearRing></innerBoundaryIs>
      </Polygon>
    </Placemark>
    <Placemark>
      <name>obstacle_19</name>
      <Polygon>
        <outerBoundaryIs><LinearRing><coordinates>
          6.187817,51.137328,0 6.185455,51.121093,0 6.201371,51.110000,0 6.214880,51.105854,0 6.229904,51.123415,0 6.228404,51.138548,0 6.215880,51.148645,0 6.198534,51.148421,0 6.187817,51.137328,0
        </coordinates></LinearRing></outerBoundaryIs>
        <innerBoundaryIs><LinearRing><coordinates>
          6.209513,51.131322,0 6.209717,51.128029,0 6.206140,51.126780,0 6.204550,51.129136,0 6.206467,51.132811,0 6.209513,51.131322,0
        </coordinates></LinearRing></innerBoundaryIs>
      </Polygon>
    </Placemark>
    <Placemark>
      <name>obstacle_20</name>
      <Polygon>
        <outerBoundaryIs><LinearRing><coordinates>
          6.196087,51.350730,0 6.213153,51.354025,0 6.218686,51.362741,0 6.221803,51.374519,0 6.216630,51.390355,0 6.205987,51.395549,0 6.191170,51.392809,0 6.180063,51.385151,0 6.178076,51.369088,0 6.184245,51.357131,0 6.196087,51.350730,0
        </coordinates></LinearRing></outerBoundaryIs>
        <innerBoundaryIs><LinearRing><coordinates>
          6.201376,51.382626,0 6.205753,51.381672,0 6.205451,51.376632,0 6.201208,51.375913,0 6.198505,51.378987,0 6.201376,51.382626,0
        </coordinates></LinearRing></innerBoundaryIs>
      </Polygon>
    </Placemark>
    <Placemark>
      <name>obstacle_21</name>
      <Polygon>
        <outerBoundaryIs><LinearRing><coordinates>
          6.360184,51.017691,0 6.377297,51.007418,0 6.392892,51.011582,0 6.404842,51.030012,0 6.395128,51.050191,0 6.376870,51.051187,0 6.359993,51.037796,0 6.360184,51.017691,0
        </coordinates></LinearRing></outerBoundaryIs>
        <innerBoundaryIs><LinearRing><coordinates>
          6.382773,51.028706,0 6.379916,51.026266,0 6.376392,51.027527,0 6.376154,51.031090,0 6.378214,51.033162,0 6.381605,51.032360,0 6.382773,51.028706,0
        </coordinates></LinearRing></innerBoundaryIs>
        <innerBoundaryIs><LinearRing><coordinates>
          6.375106,51.025341,0 6.375540,51.022789,0 6.372491,51.021323,0 6.371451,51.025083,0 6.375106,51.025341,0
        </coordinates></LinearRing></innerBoundaryIs>
        <innerBoundaryIs><LinearRing><coordinates>
          6.385685,51.026244,0 6.384746,51.030405,0 6.389549,51.032981,0 6.392517,51.030951,0 6.392919,51.026368,0 6.388704,51.024360,0 6.385685,51.026244,0
        </coordinates></LinearRing></innerBoundaryIs>
      </Polygon>
    </Placemark>
    <Placemark>
      <name>obstacle_22</name>
      <Polygon>
        <outerBoundaryIs><LinearRing><coordinates>
          6.049050,51.029794,0 6.052645,51.049864,0 6.040002,51.064622,0 6.017325,51.062663,0 6.010404,51.043681,0 6.012337,51.026017,0 6.028889,51.020091,0 6.049050,51.029794,0
        </coordinates></LinearRing></outerBoundaryIs>
        <innerBoundaryIs><LinearRing><coordinates>
          6.029860,51.036281,0 6.026861,51.037635,0 6.028045,51.040010,0 6.031132,51.039304,0 6.029860,51.036281,0
        </coordinates></LinearRing></innerBoundaryIs>
        <innerBoundaryIs><LinearRing><coordinates>
          6.025495,51.044372,0 6.025644,51.047344,0 6.027568,51.047712,0 6.029480,51.046227,0 6.029254,51.043716,0 6.026885,51.042785,0 6.025495,51.044372,0
        </coordinates></LinearRing></innerBoundaryIs>
      </Polygon>
    </Placemark>
  </Document>
</kml>
