<?xml version="1.0" encoding="UTF-8"?>
<kml xmlns="http://www.opengis.net/kml/2.2">
  <Document>
    <name>pyvisgraph benchmark map 28 - 28 obstacles</name>
    <Placemark>
      <name>obstacle_0</name>
      <Polygon>
        <outerBoundaryIs><LinearRing><coordinates>
          6.094056,51.027752,0 6.104281,51.025353,0 6.112711,51.033178,0 6.120064,51.044829,0 6.116983,51.054681,0 6.105560,51.062530,0 6.096744,51.063601,0 6.086514,51.057754,0 6.080014,51.047987,0 6.085028,51.033995,0 6.094056,51.027752,0
        </coordinates></LinearRing></outerBoundaryIs>
        <innerBoundaryIs><LinearRing><coordinates>
          6.092188,51.051144,0 6.096044,51.052316,0 6.097899,51.047519,0 6.093028,51.046284,0 6.092188,51.051144,0
        </coordinates></LinearRing></innerBoundaryIs>
        <innerBoundaryIs><LinearRing><coordinates>
          6.102603,51.038777,0 6.099614,51.037314,0 6.097630,51.039147,0 6.098491,51.041695,0 6.101567,51.041845,0 6.102603,51.038777,0
        </coordinates></LinearRing></innerBoundaryIs>
        <innerBoundaryIs><LinearRing><coordinates>
          6.102610,51.050712,0 6.107033,51.052361,0 6.108652,51.048327,0 6.104147,51.046786,0 6.102610,51.050712,0
        </coordinates></LinearRing></innerBoundaryIs>
        <innerBoundaryIs><LinearRing><coordinates>
          6.093003,51.044222,0 6.095063,51.043464,0 6.095588,51.040507,0 6.093142,51.039520,0 6.091330,51.041477,0 6.093003,51.044222,0
        </coordinates></LinearRing></innerBoundaryIs>
      </Polygon>
    </Placemark>
    <Placemark>
      <name>obstacle_1</name>
      <Polygon>
        <outerBoundaryIs><LinearRing><coordinates>
          6.445539,51.397154,0 6.455325,51.385267,0 6.468428,51.383477,0 6.482625,51.389794,0 6.483029,51.405865,0 6.476934,51.415592,0 6.463565,51.422686,0 6.451638,51.411811,0 6.445539,51.397154,0
        </coordinates></LinearRing></outerBoundaryIs>
        <innerBoundaryIs><LinearRing><coordinates>
          6.467891,51.405381,0 6.471155,51.405527,0 6.472698,51.403192,0 6.471437,51.400434,0 6.468490,51.400247,0 6.466447,51.402881,0 6.467891,51.405381,0
        </coordinates></LinearRing></innerBoundaryIs>
        <innerBoundaryIs><LinearRing><coordinates>
          6.460895,51.399586,0 6.458270,51.400574,0 6.458538,51.404274,0 6.461338,51.404698,0 6.462940,51.401431,0 6.460895,51.399586,0
        </coordinates></LinearRing></innerBoundaryIs>
      </Polygon>
    </Placemark>
    <Placemark>
      <name>obstacle_2</name>
      <Polygon>
        <outerBoundaryIs><LinearRing><coordinates>
          6.127277,51.092090,0 6.125719,51.104970,0 6.116516,51.115117,0 6.101343,51.112920,0 6.093911,51.105126,0 6.091591,51.094384,0 6.095039,51.081427,0 6.109069,51.076420,0 6.122156,51.083643,0 6.127277,51.092090,0
        </coordinates></LinearRing></outerBoundaryIs>
        <innerBoundaryIs><LinearRing><coordinates>
          6.107621,51.100637,0 6.111646,51.100683,0 6.112186,51.096460,0 6.109394,51.094404,0 6.106260,51.096886,0 6.107621,51.100637,0
        </coordinates></LinearRing></innerBoundaryIs>
        <innerBoundaryIs><LinearRing><coordinates>
          6.101247,51.099718,0 6.101054,51.103315,0 6.103633,51.103713,0 6.105653,51.101470,0 6.103813,51.099283,0 6.101247,51.099718,0
        </coordinates></LinearRing></innerBoundaryIs>
        <innerBoundaryIs><LinearRing><coordinates>
          6.106155,51.089486,0 6.105179,51.087790,0 6.102768,51.087882,0 6.102135,51.089625,0 6.102919,51.091234,0 6.105183,51.091401,0 6.106155,51.089486,0
        </coordinates></LinearRing></innerBoundaryIs>
        <innerBoundaryIs><LinearRing><coordinates>
          6.114010,51.089381,0 6.113067,51.092679,0 6.117704,51.094505,0 6.119141,51.091082,0 6.114010,51.089381,0
        </coordinates></LinearRing></innerBoundaryIs>
      </Polygon>
    </Placemark>
    <Placemark>
      <name>obstacle_3</name>
      <Polygon>
        <outerBoundaryIs><LinearRing><coordinates>
          6.317864,51.439543,0 6.331713,51.454511,0 6.321877,51.476117,0 6.302877,51.477444,0 6.295113,51.463088,0 6.299260,51.443308,0 6.317864,51.439543,0
        </coordinates></LinearRing></outerBoundaryIs>
        <innerBoundaryIs><LinearRing><coordinates>
          6.311655,51.457548,0 6.308544,51.459688,0 6.310537,51.462484,0 6.313800,51.460947,0 6.311655,51.457548,0
        </coordinates></LinearRing></innerBoundaryIs>
        <innerBoundaryIs><LinearRing><coordinates>
          6.314676,51.452171,0 6.312921,51.450138,0 6.311442,51.450895,0 6.311678,51.453402,0 6.313658,51.453908,0 6.314676,51.452171,0
        </coordinates></LinearRing></innerBoundaryIs>
      </Polygon>
    </Placemark>
    <Placemark>
      <name>obstacle_4</name>
      <Polygon>
        <outerBoundaryIs><LinearRing><coordinates>
          6.366368,51.261774,0 6.362715,51.248070,0 6.370477,51.238206,0 6.380193,51.232780,0 6.389856,51.234089,0 6.397612,51.241477,0 6.404182,51.255043,0 6.399586,51.264283,0 6.389604,51.271352,0 6.377203,51.269523,0 6.366368,51.261774,0
        </coordinates></LinearRing></outerBoundaryIs>
        <innerBoundaryIs><LinearRing><coordinates>
          6.376478,51.259275,0 6.381031,51.259803,0 6.382344,51.253973,0 6.376464,51.254417,0 6.376478,51.259275,0
        </coordinates></LinearRing></innerBoundaryIs>
      </Polygon>
    </Placemark>
    <Placemark>
      <name>obstacle_5</name>
      <Polygon>
        <outerBoundaryIs><LinearRing><coordinates>
          6.115857,51.311896,0 6.113021,51.324345,0 6.107409,51.335380,0 6.096678,51.335648,0 6.084825,51.333470,0 6.076418,51.322270,0 6.078544,51.308353,0 6.086463,51.302135,0 6.097171,51.296092,0 6.107225,51.303055,0 6.115857,51.311896,0
        </coordinates></LinearRing></outerBoundaryIs>
        <innerBoundaryIs><LinearRing><coordinates>
          6.087084,51.317189,0 6.087966,51.319868,0 6.091102,51.321624,0 6.093640,51.319246,0 6.093268,51.316002,0 6.090061,51.314895,0 6.087084,51.317189,0
        </coordinates></LinearRing></innerBoundaryIs>
      </Polygon>
    </Placemark>
    <Placemark>
      <name>obstacle_6</name>
      <Polygon>
        <outerBoundaryIs><LinearRing><coordinates>
          6.154974,51.035234,0 6.158276,51.021095,0 6.168917,51.012861,0 6.178485,51.014847,0 6.189635,51.018066,0 6.194124,51.029318,0 6.194652,51.041660,0 6.183375,51.048172,0 6.172630,51.052404,0 6.159885,51.046468,0 6.154974,51.035234,0
        </coordinates></LinearRing></outerBoundaryIs>
        <innerBoundaryIs><LinearRing><coordinates>
          6.175361,51.032211,0 6.177289,51.031094,0 6.176882,51.028150,0 6.174889,51.027378,0 6.172574,51.029173,0 6.173035,51.031457,0 6.175361,51.032211,0
        </coordinates></LinearRing></innerBoundaryIs>
        <innerBoundaryIs><LinearRing><coordinates>
          6.179920,51.035270,0 6.178451,51.036939,0 6.179143,51.040126,0 6.182778,51.039768,0 6.183170,51.037000,0 6.179920,51.035270,0
        </coordinates></LinearRing></innerBoundaryIs>
      </Polygon>
    </Placemark>
    <Placemark>
      <name>obstacle_7</name>
      <Polygon>
        <outerBoundaryIs><LinearRing><coordinates>
          6.436551,51.341771,0 6.436555,51.325272,0 6.443357,51.315463,0 6.460593,51.314720,0 6.470392,51.322133,0 6.473962,51.335229,0 6.462058,51.348579,0 6.447042,51.349225,0 6.436551,51.341771,0
        </coordinates></LinearRing></outerBoundaryIs>
        <innerBoundaryIs><LinearRing><coordinates>
          6.449978,51.331162,0 6.446510,51.329845,0 6.444234,51.332376,0 6.446141,51.336000,0 6.449540,51.335096,0 6.449978,51.331162,0
        </coordinates></LinearRing></innerBoundaryIs>
        <innerBoundaryIs><LinearRing><coordinates>
          6.452703,51.333102,0 6.456642,51.333871,0 6.457305,51.329845,0 6.453229,51.329181,0 6.452703,51.333102,0
        </coordinates></LinearRing></innerBoundaryIs>
        <innerBoundaryIs><LinearRing><coordinates>
          6.462762,51.327217,0 6.460280,51.327314,0 6.459494,51.329446,0 6.460493,51.331629,0 6.462895,51.331290,0 6.464348,51.329711,0 6.462762,51.327217,0
        </coordinates></LinearRing></innerBoundaryIs>
      </Polygon>
    </Placemark>
    <Placemark>
      <name>obstacle_8</name>
      <Polygon>
        <outerBoundaryIs><LinearRing><coordinates>
          6.369244,51.390976,0 6.377992,51.381321,0 6.389258,51.377408,0 6.398562,51.386247,0 6.405416,51.395122,0 6.401852,51.405656,0 6.396312,51.416759,0 6.384445,51.416445,0 6.372053,51.411190,0 6.364886,51.401490,0 6.369244,51.390976,0
        </coordinates></LinearRing></outerBoundaryIs>
        <innerBoundaryIs><LinearRing><coordinates>
          6.387002,51.393002,0 6.384782,51.395697,0 6.385355,51.398839,0 6.389247,51.399907,0 6.391060,51.397610,0 6.390003,51.393920,0 6.387002,51.393002,0
        </coordinates></LinearRing></innerBoundaryIs>
        <innerBoundaryIs><LinearRing><coordinates>
          6.385237,51.407620,0 6.388415,51.407959,0 6.389681,51.405539,0 6.388418,51.402839,0 6.385487,51.402974,0 6.384382,51.405004,0 6.385237,51.407620,0
        </coordinates></LinearRing></innerBoundaryIs>
        <innerBoundaryIs><LinearRing><coordinates>
          6.378257,51.394072,0 6.376586,51.397430,0 6.378468,51.400275,0 6.382300,51.399404,0 6.382241,51.395092,0 6.378257,51.394072,0
        </coordinates></LinearRing></innerBoundaryIs>
        <innerBoundaryIs><LinearRing><coordinates>
          6.383851,51.388525,0 6.381212,51.388717,0 6.381634,51.391635,0 6.384328,51.391296,0 6.383851,51.388525,0
        </coordinates></LinearRing></innerBoundaryIs>
      </Polygon>
    </Placemark>
    <Placemark>
      <name>obstacle_9</name>
      <Polygon>
        <outerBoundaryIs><LinearRing><coordinates>
          6.323305,51.091990,0 6.339125,51.099218,0 6.343840,51.114158,0 6.331415,51.130480,0 6.318135,51.127379,0 6.303819,51.115722,0 6.308733,51.102212,0 6.323305,51.091990,0
        </coordinates></LinearRing></outerBoundaryIs>
        <innerBoundaryIs><LinearRing><coordinates>
          6.315192,51.112303,0 6.318766,51.114159,0 6.320577,51.111664,0 6.317566,51.108381,0 6.315192,51.112303,0
        </coordinates></LinearRing></innerBoundaryIs>
        <innerBoundaryIs><LinearRing><coordinates>
          6.321775,51.114163,0 6.324544,51.116884,0 6.326899,51.115719,0 6.327005,51.112133,0 6.323772,51.111509,0 6.321775,51.114163,0
        </coordinates></LinearRing></innerBoundaryIs>
        <innerBoundaryIs><LinearRing><coordinates>
          6.321758,51.105923,0 6.324823,51.106632,0 6.327287,51.104229,0 6.326510,51.101635,0 6.323437,51.100863,0 6.321114,51.102720,0 6.321758,51.105923,0
        </coordinates></LinearRing></innerBoundaryIs>
        <innerBoundaryIs><LinearRing><coordinates>
          6.334221,51.106847,0 6.330946,51.105690,0 6.329979,51.109530,0 6.332898,51.110090,0 6.334221,51.106847,0
        </coordinates></LinearRing></innerBoundaryIs>
        <innerBoundaryIs><LinearRing><coordinates>
          6.333435,51.115226,0 6.329452,51.114998,0 6.329481,51.117864,0 6.332408,51.118720,0 6.333435,51.115226,0
        </coordinates></LinearRing></innerBoundaryIs>
      </Polygon>
    </Placemark>
    <Placemark>
      <name>obstacle_10</name>
      <Polygon>
        <outerBoundaryIs><LinearRing><coordinates>
          6.243893,51.400350,0 6.226309,51.396699,0 6.224931,51.382813,0 6.226429,51.369784,0 6.242898,51.362278,0 6.255731,51.365953,0 6.261553,51.383703,0 6.258972,51.395895,0 6.243893,51.400350,0
        </coordinates></LinearRing></outerBoundaryIs>
        <innerBoundaryIs><LinearRing><coordinates>
          6.245399,51.380468,0 6.248880,51.384276,0 6.252506,51.378951,0 6.248369,51.376780,0 6.245399,51.380468,0
        </coordinates></LinearRing></innerBoundaryIs>
      </Polygon>
    </Placemark>
    <Placemark>
      <name>obstacle_11</name>
      <Polygon>
        <outerBoundaryIs><LinearRing><coordinates>
          6.101174,51.473427,0 6.083548,51.463342,0 6.084806,51.449440,0 6.096026,51.435363,0 6.110554,51.440235,0 6.119616,51.454889,0 6.114046,51.472342,0 6.101174,51.473427,0
        </coordinates></LinearRing></outerBoundaryIs>
        <innerBoundaryIs><LinearRing><coordinates>
          6.105972,51.449954,0 6.102224,51.451543,0 6.102790,51.455302,0 6.106404,51.456226,0 6.108268,51.453570,0 6.105972,51.449954,0
        </coordinates></LinearRing></innerBoundaryIs>
      </Polygon>
    </Placemark>
    <Placemark>
      <name>obstacle_12</name>
      <Polygon>
        <outerBoundaryIs><LinearRing><coordinates>
          6.403929,51.156069,0 6.415064,51.160729,0 6.417911,51.174606,0 6.410402,51.189435,0 6.397515,51.190345,0 6.385400,51.189411,0 6.377407,51.175992,0 6.383216,51.164508,0 6.390962,51.154614,0 6.403929,51.156069,0
        </coordinates></LinearRing></outerBoundaryIs>
        <innerBoundaryIs><LinearRing><coordinates>
          6.399675,51.167804,0 6.398555,51.172141,0 6.400814,51.174428,0 6.405247,51.172525,0 6.404226,51.169065,0 6.399675,51.167804,0
        </coordinates></LinearRing></innerBoundaryIs>
        <innerBoundaryIs><LinearRing><coordinates>
          6.398173,51.167318,0 6.397638,51.164396,0 6.394517,51.164251,0 6.393807,51.166784,0 6.395498,51.168499,0 6.398173,51.167318,0
        </coordinates></LinearRing></innerBoundaryIs>
        <innerBoundaryIs><LinearRing><coordinates>
          6.395660,51.176288,0 6.395863,51.173695,0 6.392278,51.173568,0 6.392386,51.176692,0 6.395660,51.176288,0
        </coordinates></LinearRing></innerBoundaryIs>
        <innerBoundaryIs><LinearRing><coordinates>
          6.404408,51.177768,0 6.401123,51.178248,0 6.400510,51.181851,0 6.404581,51.182353,0 6.404408,51.177768,0
        </coordinates></LinearRing></innerBoundaryIs>
        <innerBoundaryIs><LinearRing><coordinates>
          6.399718,51.164778,0 6.402412,51.166290,0 6.403754,51.163521,0 6.400731,51.162520,0 6.399718,51.164778,0
        </coordinates></LinearRing></innerBoundaryIs>
      </Polygon>
    </Placemark>
    <Placemark>
      <name>obstacle_13</name>
      <Polygon>
        <outerBoundaryIs><LinearRing><coordinates>
          6.115274,51.203754,0 6.102983,51.198987,0 6.094527,51.193400,0 6.091768,51.181330,0 6.096028,51.170183,0 6.107771,51.166150,0 6.118421,51.164503,0 6.128262,51.173469,0 6.129931,51.184500,0 6.124063,51.194914,0 6.115274,51.203754,0
        </coordinates></LinearRing></outerBoundaryIs>
        <innerBoundaryIs><LinearRing><coordinates>
          6.107983,51.179593,0 6.107357,51.184632,0 6.112005,51.185931,0 6.113287,51.180137,0 6.107983,51.179593,0
        </coordinates></LinearRing></innerBoundaryIs>
        <innerBoundaryIs><LinearRing><coordinates>
          6.115213,51.180665,0 6.118658,51.180174,0 6.119524,51.177418,0 6.118013,51.175038,0 6.114744,51.175236,0 6.113383,51.178279,0 6.115213,51.180665,0
        </coordinates></LinearRing></innerBoundaryIs>
      </Polygon>
    </Placemark>
    <Placemark>
      <name>obstacle_14</name>
      <Polygon>
        <outerBoundaryIs><LinearRing><coordinates>
          6.236861,51.324131,0 6.247674,51.311848,0 6.261356,51.312460,0 6.276171,51.325802,0 6.271446,51.339089,0 6.254230,51.348517,0 6.241041,51.341067,0 6.236861,51.324131,0
        </coordinates></LinearRing></outerBoundaryIs>
        <innerBoundaryIs><LinearRing><coordinates>
          6.265392,51.323537,0 6.260738,51.322607,0 6.258762,51.325965,0 6.261831,51.329083,0 6.265144,51.327327,0 6.265392,51.323537,0
        </coordinates></LinearRing></innerBoundaryIs>
        <innerBoundaryIs><LinearRing><coordinates>
          6.260970,51.332531,0 6.258709,51.329372,0 6.255215,51.329261,0 6.254409,51.332418,0 6.255602,51.335182,0 6.258946,51.335122,0 6.260970,51.332531,0
        </coordinates></LinearRing></innerBoundaryIs>
        <innerBoundaryIs><LinearRing><coordinates>
          6.256141,51.322201,0 6.254007,51.323893,0 6.255047,51.326022,0 6.256862,51.325792,0 6.257618,51.323685,0 6.256141,51.322201,0
        </coordinates></LinearRing></innerBoundaryIs>
        <innerBoundaryIs><LinearRing><coordinates>
          6.251234,51.332019,0 6.248405,51.328863,0 6.246623,51.331821,0 6.249021,51.334052,0 6.251234,51.332019,0
        </coordinates></LinearRing></innerBoundaryIs>
      </Polygon>
    </Placemark>
    <Placemark>
      <name>obstacle_15</name>
      <Polygon>
        <outerBoundaryIs><LinearRing><coordinates>
          6.084097,51.269720,0 6.078938,51.257163,0 6.086064,51.245349,0 6.098367,51.235623,0 6.111222,51.244069,0 6.118901,51.257536,0 6.114999,51.271436,0 6.101358,51.275423,0 6.084097,51.269720,0
        </coordinates></LinearRing></outerBoundaryIs>
        <innerBoundaryIs><LinearRing><coordinates>
          6.102352,51.259786,0 6.098490,51.260782,0 6.098294,51.265492,0 6.102581,51.267139,0 6.105042,51.263290,0 6.102352,51.259786,0
        </coordinates></LinearRing></innerBoundaryIs>
        <innerBoundaryIs><LinearRing><coordinates>
          6.090141,51.260008,0 6.091832,51.258966,0 6.091754,51.257105,0 6.089855,51.256075,0 6.088536,51.257453,0 6.088541,51.259482,0 6.090141,51.260008,0
        </coordinates></LinearRing></innerBoundaryIs>
      </Polygon>
    </Placemark>
    <Placemark>
      <name>obstacle_16</name>
      <Polygon>
        <outerBoundaryIs><LinearRing><coordinates>
          6.381414,51.492070,0 6.366255,51.483147,0 6.366488,51.464608,0 6.378864,51.453537,0 6.393140,51.453656,0 6.402992,51.467156,0 6.395210,51.486459,0 6.381414,51.492070,0
        </coordinates></LinearRing></outerBoundaryIs>
        <innerBoundaryIs><LinearRing><coordinates>
          6.378795,51.477876,0 6.381508,51.475265,0 6.378380,51.472105,0 6.375621,51.475011,0 6.378795,51.477876,0
        </coordinates></LinearRing></innerBoundaryIs>
        <innerBoundaryIs><LinearRing><coordinates>
          6.382130,51.471292,0 6.383772,51.473307,0 6.387212,51.471487,0 6.386272,51.468798,0 6.383379,51.468502,0 6.382130,51.471292,0
        </coordinates></LinearRing></innerBoundaryIs>
        <innerBoundaryIs><LinearRing><coordinates>
          6.385017,51.479467,0 6.387449,51.479631,0 6.388293,51.477393,0 6.387698,51.475616,0 6.385247,51.475536,0 6.383927,51.477276,0 6.385017,51.479467,0
        </coordinates></LinearRing></innerBoundaryIs>
      </Polygon>
    </Placemark>
    <Placemark>
      <name>obstacle_17</name>
      <Polygon>
        <outerBoundaryIs><LinearRing><coordinates>
          6.108345,51.408005,0 6.093068,51.406639,0 6.086511,51.394858,0 6.086945,51.382564,0 6.095821,51.371494,0 6.109009,51.370913,0 6.118337,51.378880,0 6.122167,51.388253,0 6.118787,51.400637,0 6.108345,51.408005,0
        </coordinates></LinearRing></outerBoundaryIs>
        <innerBoundaryIs><LinearRing><coordinates>
          6.103865,51.387759,0 6.106608,51.386651,0 6.107822,51.383215,0 6.105531,51.380872,0 6.102331,51.381674,0 6.101153,51.384987,0 6.103865,51.387759,0
        </coordinates></LinearRing></innerBoundaryIs>
      </Polygon>
    </Placemark>
    <Placemark>
      <name>obstacle_18</name>
      <Polygon>
        <outerBoundaryIs><LinearRing><coordinates>
          6.014215,51.457480,0 6.022303,51.441508,0 6.038457,51.437137,0 6.051535,51.445192,0 6.053146,51.461912,0 6.041074,51.473490,0 6.023389,51.472077,0 6.014215,51.457480,0
        </coordinates></LinearRing></outerBoundaryIs>
        <innerBoundaryIs><LinearRing><coordinates>
          6.037264,51.456889,0 6.038822,51.454875,0 6.037960,51.452699,0 6.035346,51.452113,0 6.033537,51.454330,0 6.034495,51.456623,0 6.037264,51.456889,0
        </coordinates></LinearRing></innerBoundaryIs>
        <innerBoundaryIs><LinearRing><coordinates>
          6.032393,51.460651,0 6.031962,51.465129,0 6.036844,51.465702,0 6.037421,51.461241,0 6.032393,51.460651,0
        </coordinates></LinearRing></innerBoundaryIs>
        <innerBoundaryIs><LinearRing><coordinates>
          6.031004,51.452641,0 6.029940,51.450925,0 6.026838,51.451671,0 6.027135,51.454849,0 6.029964,51.455110,0 6.031004,51.452641,0
        </coordinates></LinearRing></innerBoundaryIs>
      </Polygon>
    </Placemark>
    <Placemark>
      <name>obstacle_19</name>
      <Polygon>
        <outerBoundaryIs><LinearRing><coordinates>
          6.027372,51.035514,0 6.034509,51.020179,0 6.047158,51.019008,0 6.060710,51.023508,0 6.064165,51.039827,0 6.058064,51.052096,0 6.043937,51.056285,0 6.030175,51.047160,0 6.027372,51.035514,0
        </coordinates></LinearRing></outerBoundaryIs>
        <innerBoundaryIs><LinearRing><coordinates>
          6.050548,51.026804,0 6.048908,51.028441,0 6.049138,51.031107,0 6.051035,51.031893,0 6.053170,51.030073,0 6.052692,51.027981,0 6.050548,51.026804,0
        </coordinates></LinearRing></innerBoundaryIs>
      </Polygon>
    </Placemark>
    <Placemark>
      <name>obstacle_20</name>
      <Polygon>
        <outerBoundaryIs><LinearRing><coordinates>
          6.406606,51.102608,0 6.398196,51.120010,0 6.376998,51.118569,0 6.369454,51.103694,0 6.381745,51.087903,0 6.399811,51.088532,0 6.406606,51.102608,0
        </coordinates></LinearRing></outerBoundaryIs>
        <innerBoundaryIs><LinearRing><coordinates>
          6.389196,51.104559,0 6.392821,51.107132,0 6.395351,51.104191,0 6.394512,51.101221,0 6.390391,51.101650,0 6.389196,51.104559,0
        </coordinates></LinearRing></innerBoundaryIs>
        <innerBoundaryIs><LinearRing><coordinates>
          6.385180,51.100752,0 6.381662,51.099094,0 6.379430,51.102400,0 6.380757,51.105153,0 6.384692,51.104506,0 6.385180,51.100752,0
        </coordinates></LinearRing></innerBoundaryIs>
        <innerBoundaryIs><LinearRing><coordinates>
          6.384386,51.095126,0 6.384479,51.097331,0 6.387368,51.098527,0 6.389087,51.096110,0 6.387091,51.094004,0 6.384386,51.095126,0
        </coordinates></LinearRing></innerBoundaryIs>
        <innerBoundaryIs><LinearRing><coordinates>
          6.387126,51.104875,0 6.384054,51.107162,0 6.386778,51.110055,0 6.389467,51.107575,0 6.387126,51.104875,0
        </coordinates></LinearRing></innerBoundaryIs>
        <innerBoundaryIs><LinearRing><coordinates>
          6.395280,51.113001,0 6.396191,51.110267,0 6.394673,51.107686,0 6.391154,51.109254,0 6.391253,51.112053,0 6.395280,51.113001,0
        </coordinates></LinearRing></innerBoundaryIs>
      </Polygon>
    </Placemark>
    <Placemark>
      <name>obstacle_21</name>
      <Polygon>
        <outerBoundaryIs><LinearRing><coordinates>
          6.445691,51.461173,0 6.453691,51.457267,0 6.467719,51.454414,0 6.478378,51.459512,0 6.481520,51.471423,0 6.476836,51.483229,0 6.469919,51.490838,0 6.457399,51.491742,0 6.448777,51.486462,0 6.443724,51.476591,0 6.445691,51.461173,0
        </coordinates></LinearRing></outerBoundaryIs>
        <innerBoundaryIs><LinearRing><coordinates>
          6.455210,51.472482,0 6.452883,51.473814,0 6.453663,51.476234,0 6.455218,51.476989,0 6.457040,51.475715,0 6.457179,51.473619,0 6.455210,51.472482,0
        </coordinates></LinearRing></innerBoundaryIs>
      </Polygon>
    </Placemark>
    <Placemark>
      <name>obstacle_22</name>
      <Polygon>
        <outerBoundaryIs><LinearRing><coordinates>
          6.047761,51.191015,0 6.032623,51.197921,0 6.018894,51.192710,0 6.014688,51.179131,0 6.020234,51.161663,0 6.035196,51.159237,0 6.046905,51.162186,0 6.053153,51.176582,0 6.047761,51.191015,0
        </coordinates></LinearRing></outerBoundaryIs>
        <innerBoundaryIs><LinearRing><coordinates>
          6.036967,51.169496,0 6.034975,51.169286,0 6.033074,51.170944,0 6.033547,51.173067,0 6.035632,51.173765,0 6.037709,51.171989,0 6.036967,51.169496,0
        </coordinates></LinearRing></innerBoundaryIs>
        <innerBoundaryIs><LinearRing><coordinates>
          6.039756,51.175121,0 6.036906,51.179193,0 6.039758,51.181319,0 6.042779,51.178769,0 6.039756,51.175121,0
        </coordinates></LinearRing></innerBoundaryIs>
        <innerBoundaryIs><LinearRing><coordinates>
          6.034606,51.185608,0 6.034236,51.183897,0 6.032258,51.183372,0 6.030685,51.184829,0 6.031324,51.186521,0 6.032949,51.187168,0 6.034606,51.185608,0
        </coordinates></LinearRing></innerBoundaryIs>
      </Polygon>
    </Placemark>
    <Placemark>
      <name>obstacle_23</name>
      <Polygon>
        <outerBoundaryIs><LinearRing><coordinates>
          6.034942,51.223430,0 6.047364,51.226416,0 6.056974,51.235648,0 6.054916,51.247947,0 6.049342,51.256912,0 6.038196,51.260799,0 6.028765,51.258272,0 6.019883,51.250705,0 6.017763,51.240240,0 6.021995,51.229172,0 6.034942,51.223430,0
        </coordinates></LinearRing></outerBoundaryIs>
        <innerBoundaryIs><LinearRing><coordinates>
          6.038374,51.240634,0 6.034514,51.242220,0 6.036938,51.247216,0 6.040680,51.245286,0 6.038374,51.240634,0
        </coordinates></LinearRing></innerBoundaryIs>
        <innerBoundaryIs><LinearRing><coordinates>
          6.037589,51.251119,0 6.037169,51.252550,0 6.038731,51.254376,0 6.040598,51.253523,0 6.040984,51.252080,0 6.039473,51.250516,0 6.037589,51.251119,0
        </coordinates></LinearRing></innerBoundaryIs>
      </Polygon>
    </Placemark>
    <Placemark>
      <name>obstacle_24</name>
      <Polygon>
        <outerBoundaryIs><LinearRing><coordinates>
          6.318504,51.023978,0 6.328812,51.029137,0 6.333148,51.044704,0 6.323962,51.056488,0 6.313118,51.059784,0 6.301607,51.056687,0 6.293681,51.045160,0 6.296333,51.030141,0 6.306745,51.022932,0 6.318504,51.023978,0
        </coordinates></LinearRing></outerBoundaryIs>
        <innerBoundaryIs><LinearRing><coordinates>
          6.315043,51.041692,0 6.311765,51.042335,0 6.311181,51.045139,0 6.313294,51.047190,0 6.315929,51.046203,0 6.316619,51.043609,0 6.315043,51.041692,0
        </coordinates></LinearRing></innerBoundaryIs>
        <innerBoundaryIs><LinearRing><coordinates>
          6.308838,51.043574,0 6.308519,51.038819,0 6.303979,51.039677,0 6.304119,51.043916,0 6.308838,51.043574,0
        </coordinates></LinearRing></innerBoundaryIs>
        <innerBoundaryIs><LinearRing><coordinates>
          6.320009,51.038241,0 6.322512,51.035223,0 6.318491,51.032676,0 6.316451,51.035935,0 6.320009,51.038241,0
        </coordinates></LinearRing></innerBoundaryIs>
      </Polygon>
    </Placemark>
    <Placemark>
      <name>obstacle_25</name>
      <Polygon>
        <outerBoundaryIs><LinearRing><coordinates>
          6.300271,51.372489,0 6.313955,51.365051,0 6.330073,51.369569,0 6.336665,51.383499,0 6.328156,51.399916,0 6.309498,51.403801,0 6.297856,51.388577,0 6.300271,51.372489,0
        </coordinates></LinearRing></outerBoundaryIs>
        <innerBoundaryIs><LinearRing><coordinates>
          6.320946,51.386496,0 6.321637,51.388923,0 6.323900,51.389460,0 6.325892,51.388149,0 6.325662,51.385303,0 6.323363,51.384711,0 6.320946,51.386496,0
        </coordinates></LinearRing></innerBoundaryIs>
        <innerBoundaryIs><LinearRing><coordinates>
          6.317505,51.388043,0 6.317585,51.384116,0 6.313269,51.382129,0 6.310021,51.385434,0 6.312303,51.389239,0 6.317505,51.388043,0
        </coordinates></LinearRing></innerBoundaryIs>
        <innerBoundaryIs><LinearRing><coordinates>
          6.318216,51.380732,0 6.321046,51.380363,0 6.321981,51.377691,0 6.319630,51.376354,0 6.317582,51.377859,0 6.318216,51.380732,0
        </coordinates></LinearRing></innerBoundaryIs>
        <innerBoundaryIs><LinearRing><coordinates>
          6.310070,51.379952,0 6.312929,51.380672,0 6.313291,51.377744,0 6.310843,51.377371,0 6.310070,51.379952,0
        </coordinates></LinearRing></innerBoundaryIs>
        <innerBoundaryIs><LinearRing><coordinates>
          6.305062,51.383772,0 6.308245,51.384492,0 6.309544,51.382018,0 6.307280,51.379780,0 6.304800,51.381350,0 6.305062,51.383772,0
        </coordinates></LinearRing></innerBoundaryIs>
      </Polygon>
    </Placemark>
    <Placemark>
      <name>obstacle_26</name>
      <Polygon>
        <outerBoundaryIs><LinearRing><coordinates>
          6.240860,51.117479,0 6.239333,51.104714,0 6.249223,51.095670,0 6.261822,51.095933,0 6.272009,51.102186,0 6.277583,51.114972,0 6.272977,51.126065,0 6.258525,51.133145,0 6.247955,51.128830,0 6.240860,51.117479,0
        </coordinates></LinearRing></outerBoundaryIs>
        <innerBoundaryIs><LinearRing><coordinates>
          6.260585,51.108111,0 6.258338,51.108822,0 6.258185,51.111064,0 6.259836,51.112214,0 6.261774,51.111902,0 6.262405,51.109305,0 6.260585,51.108111,0
        </coordinates></LinearRing></innerBoundaryIs>
        <innerBoundaryIs><LinearRing><coordinates>
          6.252401,51.105323,0 6.250933,51.108014,0 6.252491,51.110384,0 6.255816,51.110653,0 6.257321,51.108493,0 6.255636,51.105720,0 6.252401,51.105323,0
        </coordinates></LinearRing></innerBoundaryIs>
        <innerBoundaryIs><LinearRing><coordinates>
          6.257654,51.116623,0 6.255590,51.114220,0 6.252035,51.114790,0 6.250286,51.117853,0 6.252896,51.121283,0 6.256464,51.120350,0 6.257654,51.116623,0
        </coordinates></LinearRing></innerBoundaryIs>
      </Polygon>
    </Placemark>
    <Placemark>
      <name>obstacle_27</name>
      <Polygon>
        <outerBoundaryIs><LinearRing><coordinates>
          6.053075,51.312805,0 6.061834,51.320811,0 6.064602,51.332262,0 6.059508,51.342168,0 6.048138,51.349729,0 6.035466,51.349069,0 6.027533,51.340948,0 6.027843,51.329654,0 6.030679,51.318649,0 6.042699,51.313970,0 6.053075,51.312805,0
        </coordinates></LinearRing></outerBoundaryIs>
        <innerBoundaryIs><LinearRing><coordinates>
          6.035726,51.332572,0 6.037117,51.335455,0 6.039841,51.334589,0 6.039887,51.331828,0 6.037147,51.331030,0 6.035726,51.332572,0
        </coordinates></LinearRing></innerBoundaryIs>
      </Polygon>
    </Placemark>
  </Document>
</kml>
