<?xml version="1.0" encoding="UTF-8"?>
<kml xmlns="http://www.opengis.net/kml/2.2">
  <Document>
    <name>pyvisgraph benchmark map 01 - 3 obstacles</name>
    <Placemark>
      <name>obstacle_0</name>
      <Polygon>
        <outerBoundaryIs><LinearRing><coordinates>
          6.123563,51.440531,0 6.058719,51.419868,0 6.065841,51.408484,0 6.038623,51.386639,0 6.044078,51.379440,0 6.069106,51.344619,0 6.149356,51.340786,0 6.123563,51.440531,0
        </coordinates></LinearRing></outerBoundaryIs>
      </Polygon>
    </Placemark>
    <Placemark>
      <name>obstacle_1</name>
      <Polygon>
        <outerBoundaryIs><LinearRing><coordinates>
          6.348730,51.181081,0 6.301256,51.171287,0 6.287861,51.163544,0 6.394725,51.113877,0 6.348730,51.181081,0
        </coordinates></LinearRing></outerBoundaryIs>
      </Polygon>
    </Placemark>
    <Placemark>
      <name>obstacle_2</name>
      <Polygon>
        <outerBoundaryIs><LinearRing><coordinates>
          6.042162,51.141340,0 6.108280,51.056928,0 6.160224,51.072737,0 6.164704,51.075094,0 6.156465,51.088886,0 6.042162,51.141340,0
        </coordinates></LinearRing></outerBoundaryIs>
      </Polygon>
    </Placemark>
  </Document>
</kml>
