<?xml version="1.0" encoding="UTF-8"?>
<kml xmlns="http://www.opengis.net/kml/2.2">
  <Document>
    <name>pyvisgraph benchmark map 21 - 2 obstacles</name>
    <Placemark>
      <name>obstacle_0</name>
      <Polygon>
        <outerBoundaryIs><LinearRing><coordinates>
          6.181887,51.333302,0 6.200862,51.373300,0 6.204894,51.414237,0 6.178716,51.447702,0 6.125544,51.445773,0 6.077605,51.425767,0 6.073033,51.378275,0 6.092781,51.330690,0 6.130492,51.319073,0 6.181887,51.333302,0
        </coordinates></LinearRing></outerBoundaryIs>
        <innerBoundaryIs><LinearRing><coordinates>
          6.137737,51.366245,0 6.121155,51.358661,0 6.117419,51.374043,0 6.133477,51.377728,0 6.137737,51.366245,0
        </coordinates></LinearRing></innerBoundaryIs>
        <innerBoundaryIs><LinearRing><coordinates>
          6.168610,51.381648,0 6.162581,51.381789,0 6.158790,51.388816,0 6.163127,51.394629,0 6.169683,51.394414,0 6.173074,51.386887,0 6.168610,51.381648,0
        </coordinates></LinearRing></innerBoundaryIs>
        <innerBoundaryIs><LinearRing><coordinates>
          6.123907,51.392025,0 6.115312,51.393180,0 6.112846,51.402435,0 6.119623,51.406720,0 6.128154,51.399022,0 6.123907,51.392025,0
        </coordinates></LinearRing></innerBoundaryIs>
      </Polygon>
    </Placemark>
    <Placemark>
      <name>obstacle_1</name>
      <Polygon>
        <outerBoundaryIs><LinearRing><coordinates>
          6.343024,51.300772,0 6.398316,51.278466,0 6.435087,51.314716,0 6.440300,51.378843,0 6.405381,51.409743,0 6.354974,51.412224,0 6.320689,51.354882,0 6.343024,51.300772,0
        </coordinates></LinearRing></outerBoundaryIs>
        <innerBoundaryIs><LinearRing><coordinates>
          6.404666,51.330774,0 6.389268,51.327442,0 6.384412,51.346251,0 6.396037,51.352821,0 6.408102,51.343510,0 6.404666,51.330774,0
        </coordinates></LinearRing></innerBoundaryIs>
        <innerBoundaryIs><LinearRing><coordinates>
          6.374552,51.349996,0 6.360568,51.341710,0 6.351979,51.348718,0 6.355804,51.364713,0 6.370782,51.364005,0 6.374552,51.349996,0
        </coordinates></LinearRing></innerBoundaryIs>
      </Polygon>
    </Placemark>
  </Document>
</kml>
