<?xml version="1.0" encoding="UTF-8"?>
<kml xmlns="http://www.opengis.net/kml/2.2">
  <Document>
    <name>pyvisgraph benchmark map 22 - 4 obstacles</name>
    <Placemark>
      <name>obstacle_0</name>
      <Polygon>
        <outerBoundaryIs><LinearRing><coordinates>
          6.110831,51.353022,0 6.140332,51.372695,0 6.155551,51.416378,0 6.115795,51.445772,0 6.069727,51.422727,0 6.069947,51.375845,0 6.110831,51.353022,0
        </coordinates></LinearRing></outerBoundaryIs>
        <innerBoundaryIs><LinearRing><coordinates>
          6.107381,51.413766,0 6.116489,51.410752,0 6.115378,51.401158,0 6.104825,51.401487,0 6.107381,51.413766,0
        </coordinates></LinearRing></innerBoundaryIs>
      </Polygon>
    </Placemark>
    <Placemark>
      <name>obstacle_1</name>
      <Polygon>
        <outerBoundaryIs><LinearRing><coordinates>
          6.267587,51.135488,0 6.244998,51.137643,0 6.218342,51.130996,0 6.197352,51.109968,0 6.198110,51.085689,0 6.210994,51.058156,0 6.236902,51.053810,0 6.264711,51.061801,0 6.283378,51.082024,0 6.285871,51.109075,0 6.267587,51.135488,0
        </coordinates></LinearRing></outerBoundaryIs>
        <innerBoundaryIs><LinearRing><coordinates>
          6.246009,51.097926,0 6.241888,51.093159,0 6.235724,51.093227,0 6.233125,51.098161,0 6.236821,51.104105,0 6.241820,51.103978,0 6.246009,51.097926,0
        </coordinates></LinearRing></innerBoundaryIs>
        <innerBoundaryIs><LinearRing><coordinates>
          6.260968,51.106103,0 6.260615,51.100003,0 6.255961,51.098476,0 6.252860,51.101339,0 6.252523,51.106874,0 6.257112,51.108050,0 6.260968,51.106103,0
        </coordinates></LinearRing></innerBoundaryIs>
        <innerBoundaryIs><LinearRing><coordinates>
          6.244357,51.116855,0 6.243249,51.111634,0 6.237062,51.110425,0 6.234734,51.116202,0 6.238185,51.119595,0 6.244357,51.116855,0
        </coordinates></LinearRing></innerBoundaryIs>
        <innerBoundaryIs><LinearRing><coordinates>
          6.222826,51.098997,0 6.225815,51.093653,0 6.222048,51.089781,0 6.216734,51.091274,0 6.216175,51.096625,0 6.222826,51.098997,0
        </coordinates></LinearRing></innerBoundaryIs>
        <innerBoundaryIs><LinearRing><coordinates>
          6.263240,51.087401,0 6.258030,51.084387,0 6.254928,51.091456,0 6.261118,51.093942,0 6.263240,51.087401,0
        </coordinates></LinearRing></innerBoundaryIs>
      </Polygon>
    </Placemark>
    <Placemark>
      <name>obstacle_2</name>
      <Polygon>
        <outerBoundaryIs><LinearRing><coordinates>
          6.132143,51.077370,0 6.110920,51.105979,0 6.085898,51.107636,0 6.059546,51.092454,0 6.040894,51.067560,0 6.046059,51.039773,0 6.068995,51.020054,0 6.092973,51.018883,0 6.115569,51.030127,0 6.132573,51.056038,0 6.132143,51.077370,0
        </coordinates></LinearRing></outerBoundaryIs>
        <innerBoundaryIs><LinearRing><coordinates>
          6.091239,51.050992,0 6.082676,51.060343,0 6.088461,51.068049,0 6.097723,51.065688,0 6.098290,51.055538,0 6.091239,51.050992,0
        </coordinates></LinearRing></innerBoundaryIs>
      </Polygon>
    </Placemark>
    <Placemark>
      <name>obstacle_3</name>
      <Polygon>
        <outerBoundaryIs><LinearRing><coordinates>
          6.259672,51.279810,0 6.232518,51.277293,0 6.207072,51.267313,0 6.207680,51.232002,0 6.212604,51.206792,0 6.240020,51.199139,0 6.265050,51.198556,0 6.289685,51.219493,0 6.294276,51.243750,0 6.285413,51.267499,0 6.259672,51.279810,0
        </coordinates></LinearRing></outerBoundaryIs>
        <innerBoundaryIs><LinearRing><coordinates>
          6.251056,51.245115,0 6.259859,51.240190,0 6.257424,51.233481,0 6.247895,51.238335,0 6.251056,51.245115,0
        </coordinates></LinearRing></innerBoundaryIs>
        <innerBoundaryIs><LinearRing><coordinates>
          6.244915,51.261161,0 6.251646,51.260851,0 6.254229,51.253717,0 6.248907,51.248773,0 6.242794,51.250068,0 6.239660,51.256208,0 6.244915,51.261161,0
        </coordinates></LinearRing></innerBoundaryIs>
        <innerBoundaryIs><LinearRing><coordinates>
          6.229060,51.232968,0 6.236065,51.240166,0 6.241873,51.235531,0 6.240792,51.228806,0 6.233296,51.227180,0 6.229060,51.232968,0
        </coordinates></LinearRing></innerBoundaryIs>
        <innerBoundaryIs><LinearRing><coordinates>
          6.260817,51.228019,0 6.262713,51.221531,0 6.258711,51.217288,0 6.251968,51.219568,0 6.250654,51.223988,0 6.256006,51.228520,0 6.260817,51.228019,0
        </coordinates></LinearRing></innerBoundaryIs>
      </Polygon>
    </Placemark>
  </Document>
</kml>
