<?xml version="1.0" encoding="UTF-8"?>
<kml xmlns="http://www.opengis.net/kml/2.2">
  <Document>
    <name>pyvisgraph benchmark map 03 - 12 obstacles</name>
    <Placemark>
      <name>obstacle_0</name>
      <Polygon>
        <outerBoundaryIs><LinearRing><coordinates>
          6.205833,51.449044,0 6.191980,51.448521,0 6.162136,51.446513,0 6.165334,51.419603,0 6.154320,51.414631,0 6.204270,51.408204,0 6.219959,51.410574,0 6.205833,51.449044,0
        </coordinates></LinearRing></outerBoundaryIs>
      </Polygon>
    </Placemark>
    <Placemark>
      <name>obstacle_1</name>
      <Polygon>
        <outerBoundaryIs><LinearRing><coordinates>
          6.296444,51.200731,0 6.302108,51.187024,0 6.319150,51.154935,0 6.319621,51.153591,0 6.336263,51.143747,0 6.345656,51.158815,0 6.352693,51.163679,0 6.349467,51.168216,0 6.296444,51.200731,0
        </coordinates></LinearRing></outerBoundaryIs>
      </Polygon>
    </Placemark>
    <Placemark>
      <name>obstacle_2</name>
      <Polygon>
        <outerBoundaryIs><LinearRing><coordinates>
          6.339035,51.063001,0 6.316260,51.089614,0 6.295694,51.086380,0 6.285199,51.076313,0 6.286002,51.052395,0 6.339204,51.042751,0 6.339035,51.063001,0
        </coordinates></LinearRing></outerBoundaryIs>
      </Polygon>
    </Placemark>
    <Placemark>
      <name>obstacle_3</name>
      <Polygon>
        <outerBoundaryIs><LinearRing><coordinates>
          6.087964,51.320257,0 6.062011,51.327234,0 6.037714,51.300774,0 6.049435,51.280225,0 6.101054,51.294961,0 6.087964,51.320257,0
        </coordinates></LinearRing></outerBoundaryIs>
      </Polygon>
    </Placemark>
    <Placemark>
      <name>obstacle_4</name>
      <Polygon>
        <outerBoundaryIs><LinearRing><coordinates>
          6.205289,51.194967,0 6.198395,51.193149,0 6.151253,51.217501,0 6.149090,51.166876,0 6.164845,51.161577,0 6.191461,51.162186,0 6.186339,51.169139,0 6.205289,51.194967,0
        </coordinates></LinearRing></outerBoundaryIs>
      </Polygon>
    </Placemark>
    <Placemark>
      <name>obstacle_5</name>
      <Polygon>
        <outerBoundaryIs><LinearRing><coordinates>
          6.449098,51.336198,0 6.423777,51.337241,0 6.407164,51.339046,0 6.405268,51.334229,0 6.408968,51.325857,0 6.412439,51.274582,0 6.448538,51.282570,0 6.452510,51.305699,0 6.449098,51.336198,0
        </coordinates></LinearRing></outerBoundaryIs>
      </Polygon>
    </Placemark>
    <Placemark>
      <name>obstacle_6</name>
      <Polygon>
        <outerBoundaryIs><LinearRing><coordinates>
          6.441128,51.472773,0 6.433336,51.472188,0 6.425926,51.472160,0 6.419905,51.454969,0 6.450182,51.414510,0 6.469937,51.443422,0 6.441128,51.472773,0
        </coordinates></LinearRing></outerBoundaryIs>
      </Polygon>
    </Placemark>
    <Placemark>
      <name>obstacle_7</name>
      <Polygon>
        <outerBoundaryIs><LinearRing><coordinates>
          6.088070,51.207511,0 6.082331,51.213292,0 6.056787,51.231109,0 6.030812,51.210520,0 6.044416,51.178088,0 6.048585,51.172859,0 6.054956,51.176220,0 6.084397,51.196716,0 6.088070,51.207511,0
        </coordinates></LinearRing></outerBoundaryIs>
      </Polygon>
    </Placemark>
    <Placemark>
      <name>obstacle_8</name>
      <Polygon>
        <outerBoundaryIs><LinearRing><coordinates>
          6.088952,51.062368,0 6.068883,51.076037,0 6.055461,51.077196,0 6.040086,51.044757,0 6.057446,51.023877,0 6.053007,51.016261,0 6.056589,51.011556,0 6.063125,51.023085,0 6.088952,51.062368,0
        </coordinates></LinearRing></outerBoundaryIs>
      </Polygon>
    </Placemark>
    <Placemark>
      <name>obstacle_9</name>
      <Polygon>
        <outerBoundaryIs><LinearRing><coordinates>
          6.215920,51.320301,0 6.210604,51.333564,0 6.208254,51.331858,0 6.201983,51.336095,0 6.170194,51.310297,0 6.172555,51.297401,0 6.205964,51.276739,0 6.214735,51.272699,0 6.215920,51.320301,0
        </coordinates></LinearRing></outerBoundaryIs>
      </Polygon>
    </Placemark>
    <Placemark>
      <name>obstacle_10</name>
      <Polygon>
        <outerBoundaryIs><LinearRing><coordinates>
          6.084968,51.438790,0 6.063314,51.460389,0 6.046164,51.461632,0 6.022034,51.451067,0 6.020996,51.436455,0 6.033020,51.422170,0 6.068467,51.406248,0 6.084968,51.438790,0
        </coordinates></LinearRing></outerBoundaryIs>
      </Polygon>
    </Placemark>
    <Placemark>
      <name>obstacle_11</name>
      <Polygon>
        <outerBoundaryIs><LinearRing><coordinates>
          6.466078,51.089713,0 6.424844,51.065535,0 6.468682,51.044907,0 6.466465,51.048729,0 6.466602,51.055524,0 6.482162,51.065314,0 6.466078,51.089713,0
        </coordinates></LinearRing></outerBoundaryIs>
      </Polygon>
    </Placemark>
  </Document>
</kml>
