<?xml version="1.0" encoding="UTF-8"?>
<kml xmlns="http://www.opengis.net/kml/2.2">
  <Document>
    <name>pyvisgraph benchmark map 20 - 130 obstacles</name>
    <Placemark>
      <name>obstacle_0</name>
      <Polygon>
        <outerBoundaryIs><LinearRing><coordinates>
          6.133286,51.125224,0 6.140271,51.130417,0 6.139321,51.131435,0 6.139977,51.132570,0 6.133286,51.125224,0
        </coordinates></LinearRing></outerBoundaryIs>
      </Polygon>
    </Placemark>
    <Placemark>
      <name>obstacle_1</name>
      <Polygon>
        <outerBoundaryIs><LinearRing><coordinates>
          6.134464,51.144712,0 6.132654,51.144244,0 6.129253,51.142015,0 6.124313,51.133136,0 6.138535,51.129459,0 6.134464,51.144712,0
        </coordinates></LinearRing></outerBoundaryIs>
      </Polygon>
    </Placemark>
    <Placemark>
      <name>obstacle_2</name>
      <Polygon>
        <outerBoundaryIs><LinearRing><coordinates>
          6.145753,51.198543,0 6.148036,51.202474,0 6.129720,51.205235,0 6.136899,51.188076,0 6.145753,51.198543,0
        </coordinates></LinearRing></outerBoundaryIs>
      </Polygon>
    </Placemark>
    <Placemark>
      <name>obstacle_3</name>
      <Polygon>
        <outerBoundaryIs><LinearRing><coordinates>
          6.142703,51.205314,0 6.131021,51.191514,0 6.137770,51.187892,0 6.150069,51.191153,0 6.142703,51.205314,0
        </coordinates></LinearRing></outerBoundaryIs>
      </Polygon>
    </Placemark>
    <Placemark>
      <name>obstacle_4</name>
      <Polygon>
        <outerBoundaryIs><LinearRing><coordinates>
          6.144642,51.207197,0 6.138672,51.206899,0 6.132985,51.210339,0 6.141054,51.192966,0 6.144642,51.207197,0
        </coordinates></LinearRing></outerBoundaryIs>
      </Polygon>
    </Placemark>
    <Placemark>
      <name>obstacle_5</name>
      <Polygon>
        <outerBoundaryIs><LinearRing><coordinates>
          6.309971,51.368644,0 6.298256,51.364587,0 6.295154,51.358361,0 6.298270,51.356167,0 6.307922,51.353634,0 6.311655,51.357005,0 6.309971,51.368644,0
        </coordinates></LinearRing></outerBoundaryIs>
      </Polygon>
    </Placemark>
    <Placemark>
      <name>obstacle_6</name>
      <Polygon>
        <outerBoundaryIs><LinearRing><coordinates>
          6.303397,51.367190,0 6.299601,51.367549,0 6.297875,51.366595,0 6.303116,51.350356,0 6.308281,51.360131,0 6.303397,51.367190,0
        </coordinates></LinearRing></outerBoundaryIs>
      </Polygon>
    </Placemark>
    <Placemark>
      <name>obstacle_7</name>
      <Polygon>
        <outerBoundaryIs><LinearRing><coordinates>
          6.088756,51.359372,0 6.069603,51.362492,0 6.068928,51.361591,0 6.070335,51.356528,0 6.087560,51.353807,0 6.090072,51.356770,0 6.088756,51.359372,0
        </coordinates></LinearRing></outerBoundaryIs>
      </Polygon>
    </Placemark>
    <Placemark>
      <name>obstacle_8</name>
      <Polygon>
        <outerBoundaryIs><LinearRing><coordinates>
          6.089251,51.366067,0 6.089640,51.369542,0 6.075466,51.370805,0 6.072698,51.362876,0 6.072960,51.362336,0 6.076979,51.353953,0 6.082983,51.352201,0 6.087905,51.354173,0 6.089251,51.366067,0
        </coordinates></LinearRing></outerBoundaryIs>
      </Polygon>
    </Placemark>
    <Placemark>
      <name>obstacle_9</name>
      <Polygon>
        <outerBoundaryIs><LinearRing><coordinates>
          6.093549,51.360899,0 6.090346,51.365026,0 6.087599,51.368466,0 6.082750,51.365632,0 6.077477,51.363406,0 6.077086,51.356453,0 6.080867,51.349159,0 6.089649,51.354905,0 6.093549,51.360899,0
        </coordinates></LinearRing></outerBoundaryIs>
      </Polygon>
    </Placemark>
    <Placemark>
      <name>obstacle_10</name>
      <Polygon>
        <outerBoundaryIs><LinearRing><coordinates>
          6.093097,51.416570,0 6.094236,51.418903,0 6.094908,51.419893,0 6.093798,51.419945,0 6.085599,51.424496,0 6.083245,51.423908,0 6.093097,51.416570,0
        </coordinates></LinearRing></outerBoundaryIs>
      </Polygon>
    </Placemark>
    <Placemark>
      <name>obstacle_11</name>
      <Polygon>
        <outerBoundaryIs><LinearRing><coordinates>
          6.090693,51.427296,0 6.082621,51.429600,0 6.078050,51.416935,0 6.091064,51.410347,0 6.093445,51.416777,0 6.090693,51.427296,0
        </coordinates></LinearRing></outerBoundaryIs>
      </Polygon>
    </Placemark>
    <Placemark>
      <name>obstacle_12</name>
      <Polygon>
        <outerBoundaryIs><LinearRing><coordinates>
          6.476820,51.141582,0 6.470445,51.142070,0 6.463697,51.128631,0 6.467692,51.126124,0 6.475078,51.128413,0 6.475568,51.129721,0 6.476820,51.141582,0
        </coordinates></LinearRing></outerBoundaryIs>
      </Polygon>
    </Placemark>
    <Placemark>
      <name>obstacle_13</name>
      <Polygon>
        <outerBoundaryIs><LinearRing><coordinates>
          6.463572,51.142377,0 6.458233,51.143266,0 6.458539,51.133182,0 6.465234,51.126958,0 6.475735,51.134174,0 6.463572,51.142377,0
        </coordinates></LinearRing></outerBoundaryIs>
      </Polygon>
    </Placemark>
    <Placemark>
      <name>obstacle_14</name>
      <Polygon>
        <outerBoundaryIs><LinearRing><coordinates>
          6.370985,51.032507,0 6.367534,51.038004,0 6.357342,51.025265,0 6.359821,51.018986,0 6.369065,51.019041,0 6.371039,51.020637,0 6.370985,51.032507,0
        </coordinates></LinearRing></outerBoundaryIs>
      </Polygon>
    </Placemark>
    <Placemark>
      <name>obstacle_15</name>
      <Polygon>
        <outerBoundaryIs><LinearRing><coordinates>
          6.363518,51.039760,0 6.357946,51.032544,0 6.359557,51.027902,0 6.365816,51.025282,0 6.363518,51.039760,0
        </coordinates></LinearRing></outerBoundaryIs>
      </Polygon>
    </Placemark>
    <Placemark>
      <name>obstacle_16</name>
      <Polygon>
        <outerBoundaryIs><LinearRing><coordinates>
          6.367814,51.028588,0 6.368414,51.030226,0 6.368109,51.031892,0 6.366460,51.036929,0 6.351106,51.032106,0 6.352930,51.025334,0 6.352119,51.021658,0 6.363293,51.017261,0 6.367814,51.028588,0
        </coordinates></LinearRing></outerBoundaryIs>
      </Polygon>
    </Placemark>
    <Placemark>
      <name>obstacle_17</name>
      <Polygon>
        <outerBoundaryIs><LinearRing><coordinates>
          6.262014,51.474235,0 6.259555,51.477822,0 6.253431,51.484910,0 6.243444,51.477478,0 6.256383,51.466646,0 6.262014,51.474235,0
        </coordinates></LinearRing></outerBoundaryIs>
      </Polygon>
    </Placemark>
    <Placemark>
      <name>obstacle_18</name>
      <Polygon>
        <outerBoundaryIs><LinearRing><coordinates>
          6.242386,51.474670,0 6.251110,51.467399,0 6.251661,51.468797,0 6.256367,51.468636,0 6.256690,51.468278,0 6.258706,51.469621,0 6.242386,51.474670,0
        </coordinates></LinearRing></outerBoundaryIs>
      </Polygon>
    </Placemark>
    <Placemark>
      <name>obstacle_19</name>
      <Polygon>
        <outerBoundaryIs><LinearRing><coordinates>
          6.259303,51.476666,0 6.256364,51.479151,0 6.249166,51.478287,0 6.247349,51.462004,0 6.259519,51.468139,0 6.259303,51.476666,0
        </coordinates></LinearRing></outerBoundaryIs>
      </Polygon>
    </Placemark>
    <Placemark>
      <name>obstacle_20</name>
      <Polygon>
        <outerBoundaryIs><LinearRing><coordinates>
          6.202993,51.087158,0 6.199025,51.090632,0 6.181776,51.088177,0 6.184466,51.086169,0 6.202993,51.087158,0
        </coordinates></LinearRing></outerBoundaryIs>
      </Polygon>
    </Placemark>
    <Placemark>
      <name>obstacle_21</name>
      <Polygon>
        <outerBoundaryIs><LinearRing><coordinates>
          6.198753,51.092040,0 6.187473,51.095674,0 6.182965,51.083249,0 6.195376,51.081049,0 6.197470,51.085659,0 6.198753,51.092040,0
        </coordinates></LinearRing></outerBoundaryIs>
      </Polygon>
    </Placemark>
    <Placemark>
      <name>obstacle_22</name>
      <Polygon>
        <outerBoundaryIs><LinearRing><coordinates>
          6.096185,51.302890,0 6.084675,51.309687,0 6.082595,51.308248,0 6.080750,51.304422,0 6.086967,51.295094,0 6.088292,51.294918,0 6.096185,51.302890,0
        </coordinates></LinearRing></outerBoundaryIs>
      </Polygon>
    </Placemark>
    <Placemark>
      <name>obstacle_23</name>
      <Polygon>
        <outerBoundaryIs><LinearRing><coordinates>
          6.086871,51.306106,0 6.084685,51.307933,0 6.078857,51.297771,0 6.080538,51.290588,0 6.086871,51.306106,0
        </coordinates></LinearRing></outerBoundaryIs>
      </Polygon>
    </Placemark>
    <Placemark>
      <name>obstacle_24</name>
      <Polygon>
        <outerBoundaryIs><LinearRing><coordinates>
          6.025236,51.355252,0 6.028234,51.349125,0 6.031231,51.349248,0 6.035312,51.348497,0 6.039148,51.352738,0 6.038502,51.355080,0 6.025236,51.355252,0
        </coordinates></LinearRing></outerBoundaryIs>
      </Polygon>
    </Placemark>
    <Placemark>
      <name>obstacle_25</name>
      <Polygon>
        <outerBoundaryIs><LinearRing><coordinates>
          6.031745,51.347524,0 6.031743,51.344570,0 6.042827,51.348676,0 6.043663,51.352941,0 6.031745,51.347524,0
        </coordinates></LinearRing></outerBoundaryIs>
      </Polygon>
    </Placemark>
    <Placemark>
      <name>obstacle_26</name>
      <Polygon>
        <outerBoundaryIs><LinearRing><coordinates>
          6.424579,51.198638,0 6.424428,51.198794,0 6.408793,51.199563,0 6.409929,51.198593,0 6.408175,51.198993,0 6.417798,51.185718,0 6.424535,51.188658,0 6.423930,51.192692,0 6.424579,51.198638,0
        </coordinates></LinearRing></outerBoundaryIs>
      </Polygon>
    </Placemark>
    <Placemark>
      <name>obstacle_27</name>
      <Polygon>
        <outerBoundaryIs><LinearRing><coordinates>
          6.426706,51.200497,0 6.417470,51.201152,0 6.413819,51.200860,0 6.411906,51.188546,0 6.419103,51.186024,0 6.426706,51.200497,0
        </coordinates></LinearRing></outerBoundaryIs>
      </Polygon>
    </Placemark>
    <Placemark>
      <name>obstacle_28</name>
      <Polygon>
        <outerBoundaryIs><LinearRing><coordinates>
          6.420678,51.211052,0 6.415317,51.211938,0 6.411173,51.209396,0 6.410086,51.196592,0 6.412060,51.197447,0 6.424038,51.193982,0 6.420678,51.211052,0
        </coordinates></LinearRing></outerBoundaryIs>
      </Polygon>
    </Placemark>
    <Placemark>
      <name>obstacle_29</name>
      <Polygon>
        <outerBoundaryIs><LinearRing><coordinates>
          6.134940,51.364407,0 6.125136,51.359195,0 6.143355,51.354745,0 6.146938,51.356972,0 6.134940,51.364407,0
        </coordinates></LinearRing></outerBoundaryIs>
      </Polygon>
    </Placemark>
    <Placemark>
      <name>obstacle_30</name>
      <Polygon>
        <outerBoundaryIs><LinearRing><coordinates>
          6.146755,51.361408,0 6.142560,51.367844,0 6.136515,51.366504,0 6.134193,51.366166,0 6.133176,51.361621,0 6.147550,51.352778,0 6.146755,51.361408,0
        </coordinates></LinearRing></outerBoundaryIs>
      </Polygon>
    </Placemark>
    <Placemark>
      <name>obstacle_31</name>
      <Polygon>
        <outerBoundaryIs><LinearRing><coordinates>
          6.141881,51.356903,0 6.138587,51.361297,0 6.135918,51.364217,0 6.126546,51.356493,0 6.124580,51.354979,0 6.124582,51.350238,0 6.141316,51.354363,0 6.141881,51.356903,0
        </coordinates></LinearRing></outerBoundaryIs>
      </Polygon>
    </Placemark>
    <Placemark>
      <name>obstacle_32</name>
      <Polygon>
        <outerBoundaryIs><LinearRing><coordinates>
          6.366858,51.094700,0 6.366576,51.095767,0 6.365326,51.096747,0 6.358090,51.092366,0 6.358085,51.081463,0 6.361467,51.082370,0 6.372352,51.086436,0 6.373838,51.086910,0 6.366858,51.094700,0
        </coordinates></LinearRing></outerBoundaryIs>
      </Polygon>
    </Placemark>
    <Placemark>
      <name>obstacle_33</name>
      <Polygon>
        <outerBoundaryIs><LinearRing><coordinates>
          6.370585,51.093077,0 6.369809,51.096666,0 6.367661,51.095138,0 6.362895,51.096645,0 6.371252,51.087835,0 6.370585,51.093077,0
        </coordinates></LinearRing></outerBoundaryIs>
      </Polygon>
    </Placemark>
    <Placemark>
      <name>obstacle_34</name>
      <Polygon>
        <outerBoundaryIs><LinearRing><coordinates>
          6.370890,51.096497,0 6.370553,51.098586,0 6.364848,51.098706,0 6.363712,51.097671,0 6.362083,51.082227,0 6.368053,51.083312,0 6.370652,51.088424,0 6.370890,51.096497,0
        </coordinates></LinearRing></outerBoundaryIs>
      </Polygon>
    </Placemark>
    <Placemark>
      <name>obstacle_35</name>
      <Polygon>
        <outerBoundaryIs><LinearRing><coordinates>
          6.137742,51.258778,0 6.146539,51.244111,0 6.147930,51.245475,0 6.146391,51.247119,0 6.146854,51.249054,0 6.137742,51.258778,0
        </coordinates></LinearRing></outerBoundaryIs>
      </Polygon>
    </Placemark>
    <Placemark>
      <name>obstacle_36</name>
      <Polygon>
        <outerBoundaryIs><LinearRing><coordinates>
          6.137129,51.258389,0 6.135583,51.259991,0 6.134239,51.259899,0 6.132639,51.257514,0 6.131849,51.257380,0 6.126727,51.252366,0 6.130653,51.245558,0 6.137129,51.258389,0
        </coordinates></LinearRing></outerBoundaryIs>
      </Polygon>
    </Placemark>
    <Placemark>
      <name>obstacle_37</name>
      <Polygon>
        <outerBoundaryIs><LinearRing><coordinates>
          6.149246,51.253153,0 6.147036,51.252043,0 6.148079,51.254953,0 6.142277,51.256469,0 6.130327,51.251408,0 6.131003,51.247391,0 6.144199,51.238636,0 6.145414,51.243275,0 6.149246,51.253153,0
        </coordinates></LinearRing></outerBoundaryIs>
      </Polygon>
    </Placemark>
    <Placemark>
      <name>obstacle_38</name>
      <Polygon>
        <outerBoundaryIs><LinearRing><coordinates>
          6.425019,51.358864,0 6.422235,51.361495,0 6.423240,51.363838,0 6.423132,51.363927,0 6.422121,51.362986,0 6.408764,51.357719,0 6.417755,51.349487,0 6.426605,51.354828,0 6.425019,51.358864,0
        </coordinates></LinearRing></outerBoundaryIs>
      </Polygon>
    </Placemark>
    <Placemark>
      <name>obstacle_39</name>
      <Polygon>
        <outerBoundaryIs><LinearRing><coordinates>
          6.421896,51.368027,0 6.405993,51.362872,0 6.403754,51.363224,0 6.405585,51.360401,0 6.416866,51.354751,0 6.421896,51.368027,0
        </coordinates></LinearRing></outerBoundaryIs>
      </Polygon>
    </Placemark>
    <Placemark>
      <name>obstacle_40</name>
      <Polygon>
        <outerBoundaryIs><LinearRing><coordinates>
          6.095817,51.082150,0 6.093452,51.084853,0 6.082888,51.086591,0 6.077402,51.081501,0 6.077207,51.076378,0 6.095817,51.082150,0
        </coordinates></LinearRing></outerBoundaryIs>
      </Polygon>
    </Placemark>
    <Placemark>
      <name>obstacle_41</name>
      <Polygon>
        <outerBoundaryIs><LinearRing><coordinates>
          6.100427,51.077889,0 6.087386,51.083843,0 6.084252,51.083550,0 6.081286,51.070253,0 6.086488,51.066323,0 6.098058,51.073811,0 6.100427,51.077889,0
        </coordinates></LinearRing></outerBoundaryIs>
      </Polygon>
    </Placemark>
    <Placemark>
      <name>obstacle_42</name>
      <Polygon>
        <outerBoundaryIs><LinearRing><coordinates>
          6.408949,51.483632,0 6.408044,51.475289,0 6.408841,51.475485,0 6.407620,51.471260,0 6.412041,51.469019,0 6.418677,51.468833,0 6.425265,51.477208,0 6.408949,51.483632,0
        </coordinates></LinearRing></outerBoundaryIs>
      </Polygon>
    </Placemark>
    <Placemark>
      <name>obstacle_43</name>
      <Polygon>
        <outerBoundaryIs><LinearRing><coordinates>
          6.429985,51.483299,0 6.428205,51.483492,0 6.413100,51.471736,0 6.429396,51.475790,0 6.429985,51.483299,0
        </coordinates></LinearRing></outerBoundaryIs>
      </Polygon>
    </Placemark>
    <Placemark>
      <name>obstacle_44</name>
      <Polygon>
        <outerBoundaryIs><LinearRing><coordinates>
          6.426548,51.482334,0 6.418603,51.482647,0 6.411269,51.469712,0 6.418790,51.463944,0 6.419589,51.465424,0 6.426548,51.482334,0
        </coordinates></LinearRing></outerBoundaryIs>
      </Polygon>
    </Placemark>
    <Placemark>
      <name>obstacle_45</name>
      <Polygon>
        <outerBoundaryIs><LinearRing><coordinates>
          6.299888,51.311596,0 6.299653,51.309433,0 6.296671,51.304454,0 6.297684,51.300172,0 6.303283,51.293676,0 6.314448,51.298429,0 6.299888,51.311596,0
        </coordinates></LinearRing></outerBoundaryIs>
      </Polygon>
    </Placemark>
    <Placemark>
      <name>obstacle_46</name>
      <Polygon>
        <outerBoundaryIs><LinearRing><coordinates>
          6.312388,51.304473,0 6.307245,51.305674,0 6.301105,51.306196,0 6.295822,51.299635,0 6.298010,51.294269,0 6.298321,51.289927,0 6.301310,51.291284,0 6.307986,51.293869,0 6.312388,51.304473,0
        </coordinates></LinearRing></outerBoundaryIs>
      </Polygon>
    </Placemark>
    <Placemark>
      <name>obstacle_47</name>
      <Polygon>
        <outerBoundaryIs><LinearRing><coordinates>
          6.313687,51.307733,0 6.309668,51.314569,0 6.304889,51.313329,0 6.296327,51.310502,0 6.297447,51.298238,0 6.297571,51.298295,0 6.301854,51.299781,0 6.314274,51.303823,0 6.313687,51.307733,0
        </coordinates></LinearRing></outerBoundaryIs>
      </Polygon>
    </Placemark>
    <Placemark>
      <name>obstacle_48</name>
      <Polygon>
        <outerBoundaryIs><LinearRing><coordinates>
          6.365794,51.146577,0 6.364940,51.146264,0 6.355353,51.152607,0 6.364731,51.139183,0 6.364796,51.141460,0 6.365794,51.146577,0
        </coordinates></LinearRing></outerBoundaryIs>
      </Polygon>
    </Placemark>
    <Placemark>
      <name>obstacle_49</name>
      <Polygon>
        <outerBoundaryIs><LinearRing><coordinates>
          6.366476,51.147462,0 6.353692,51.145746,0 6.359169,51.132449,0 6.361835,51.131984,0 6.366476,51.147462,0
        </coordinates></LinearRing></outerBoundaryIs>
      </Polygon>
    </Placemark>
    <Placemark>
      <name>obstacle_50</name>
      <Polygon>
        <outerBoundaryIs><LinearRing><coordinates>
          6.362090,51.147850,0 6.347368,51.141963,0 6.354949,51.136620,0 6.357473,51.136724,0 6.363965,51.143009,0 6.362090,51.147850,0
        </coordinates></LinearRing></outerBoundaryIs>
      </Polygon>
    </Placemark>
    <Placemark>
      <name>obstacle_51</name>
      <Polygon>
        <outerBoundaryIs><LinearRing><coordinates>
          6.135013,51.037033,0 6.128353,51.031190,0 6.134228,51.022361,0 6.142181,51.025963,0 6.142469,51.026089,0 6.135013,51.037033,0
        </coordinates></LinearRing></outerBoundaryIs>
      </Polygon>
    </Placemark>
    <Placemark>
      <name>obstacle_52</name>
      <Polygon>
        <outerBoundaryIs><LinearRing><coordinates>
          6.141405,51.034648,0 6.140940,51.041021,0 6.133393,51.040583,0 6.129383,51.037562,0 6.124172,51.034082,0 6.125162,51.033747,0 6.139366,51.023248,0 6.140251,51.025359,0 6.141405,51.034648,0
        </coordinates></LinearRing></outerBoundaryIs>
      </Polygon>
    </Placemark>
    <Placemark>
      <name>obstacle_53</name>
      <Polygon>
        <outerBoundaryIs><LinearRing><coordinates>
          6.129313,51.029538,0 6.126812,51.026389,0 6.130329,51.015026,0 6.132980,51.015073,0 6.135388,51.016930,0 6.129313,51.029538,0
        </coordinates></LinearRing></outerBoundaryIs>
      </Polygon>
    </Placemark>
    <Placemark>
      <name>obstacle_54</name>
      <Polygon>
        <outerBoundaryIs><LinearRing><coordinates>
          6.032824,51.031832,0 6.023521,51.035736,0 6.021840,51.037097,0 6.021321,51.035382,0 6.017709,51.022731,0 6.021958,51.020146,0 6.029457,51.020500,0 6.032824,51.031832,0
        </coordinates></LinearRing></outerBoundaryIs>
      </Polygon>
    </Placemark>
    <Placemark>
      <name>obstacle_55</name>
      <Polygon>
        <outerBoundaryIs><LinearRing><coordinates>
          6.030999,51.032047,0 6.023922,51.033095,0 6.021765,51.033046,0 6.015109,51.026330,0 6.015637,51.020992,0 6.030999,51.032047,0
        </coordinates></LinearRing></outerBoundaryIs>
      </Polygon>
    </Placemark>
    <Placemark>
      <name>obstacle_56</name>
      <Polygon>
        <outerBoundaryIs><LinearRing><coordinates>
          6.475127,51.372506,0 6.468688,51.370537,0 6.469122,51.366283,0 6.466844,51.359473,0 6.483476,51.361451,0 6.475127,51.372506,0
        </coordinates></LinearRing></outerBoundaryIs>
      </Polygon>
    </Placemark>
    <Placemark>
      <name>obstacle_57</name>
      <Polygon>
        <outerBoundaryIs><LinearRing><coordinates>
          6.483514,51.368797,0 6.481056,51.374919,0 6.477807,51.374605,0 6.480043,51.357477,0 6.488266,51.364797,0 6.483514,51.368797,0
        </coordinates></LinearRing></outerBoundaryIs>
      </Polygon>
    </Placemark>
    <Placemark>
      <name>obstacle_58</name>
      <Polygon>
        <outerBoundaryIs><LinearRing><coordinates>
          6.483329,51.364628,0 6.480115,51.367572,0 6.477178,51.368543,0 6.465016,51.363401,0 6.465199,51.359718,0 6.468149,51.357808,0 6.483329,51.364628,0
        </coordinates></LinearRing></outerBoundaryIs>
      </Polygon>
    </Placemark>
    <Placemark>
      <name>obstacle_59</name>
      <Polygon>
        <outerBoundaryIs><LinearRing><coordinates>
          6.254159,51.312458,0 6.253312,51.311538,0 6.248964,51.306855,0 6.244718,51.306345,0 6.251904,51.295874,0 6.262006,51.302824,0 6.254159,51.312458,0
        </coordinates></LinearRing></outerBoundaryIs>
      </Polygon>
    </Placemark>
    <Placemark>
      <name>obstacle_60</name>
      <Polygon>
        <outerBoundaryIs><LinearRing><coordinates>
          6.261120,51.309478,0 6.255532,51.310693,0 6.248611,51.305022,0 6.246480,51.299902,0 6.248117,51.294671,0 6.250564,51.295211,0 6.267065,51.299418,0 6.261120,51.309478,0
        </coordinates></LinearRing></outerBoundaryIs>
      </Polygon>
    </Placemark>
    <Placemark>
      <name>obstacle_61</name>
      <Polygon>
        <outerBoundaryIs><LinearRing><coordinates>
          6.261954,51.302281,0 6.259154,51.306049,0 6.256935,51.310002,0 6.254319,51.306851,0 6.245365,51.298760,0 6.254456,51.292488,0 6.256791,51.292223,0 6.259579,51.290127,0 6.261954,51.302281,0
        </coordinates></LinearRing></outerBoundaryIs>
      </Polygon>
    </Placemark>
    <Placemark>
      <name>obstacle_62</name>
      <Polygon>
        <outerBoundaryIs><LinearRing><coordinates>
          6.363505,51.254842,0 6.348586,51.251521,0 6.350134,51.249042,0 6.364868,51.241945,0 6.363505,51.254842,0
        </coordinates></LinearRing></outerBoundaryIs>
      </Polygon>
    </Placemark>
    <Placemark>
      <name>obstacle_63</name>
      <Polygon>
        <outerBoundaryIs><LinearRing><coordinates>
          6.347080,51.249652,0 6.357254,51.239754,0 6.360403,51.239138,0 6.361567,51.240097,0 6.364256,51.243740,0 6.364222,51.247078,0 6.347080,51.249652,0
        </coordinates></LinearRing></outerBoundaryIs>
      </Polygon>
    </Placemark>
    <Placemark>
      <name>obstacle_64</name>
      <Polygon>
        <outerBoundaryIs><LinearRing><coordinates>
          6.474347,51.471090,0 6.472411,51.473171,0 6.468884,51.476020,0 6.460353,51.473118,0 6.458651,51.472940,0 6.459870,51.461115,0 6.461911,51.462812,0 6.467645,51.459101,0 6.474347,51.471090,0
        </coordinates></LinearRing></outerBoundaryIs>
      </Polygon>
    </Placemark>
    <Placemark>
      <name>obstacle_65</name>
      <Polygon>
        <outerBoundaryIs><LinearRing><coordinates>
          6.460960,51.470157,0 6.460431,51.470097,0 6.466752,51.465913,0 6.468461,51.462841,0 6.476313,51.466359,0 6.460960,51.470157,0
        </coordinates></LinearRing></outerBoundaryIs>
      </Polygon>
    </Placemark>
    <Placemark>
      <name>obstacle_66</name>
      <Polygon>
        <outerBoundaryIs><LinearRing><coordinates>
          6.240250,51.409653,0 6.241335,51.406789,0 6.242829,51.403883,0 6.245534,51.404219,0 6.256235,51.410277,0 6.240250,51.409653,0
        </coordinates></LinearRing></outerBoundaryIs>
      </Polygon>
    </Placemark>
    <Placemark>
      <name>obstacle_67</name>
      <Polygon>
        <outerBoundaryIs><LinearRing><coordinates>
          6.253091,51.411377,0 6.248338,51.415908,0 6.248225,51.418737,0 6.238767,51.405716,0 6.241852,51.400982,0 6.251117,51.405397,0 6.253091,51.411377,0
        </coordinates></LinearRing></outerBoundaryIs>
      </Polygon>
    </Placemark>
    <Placemark>
      <name>obstacle_68</name>
      <Polygon>
        <outerBoundaryIs><LinearRing><coordinates>
          6.318530,51.084882,0 6.315574,51.091391,0 6.302008,51.087921,0 6.303479,51.077180,0 6.318530,51.084882,0
        </coordinates></LinearRing></outerBoundaryIs>
      </Polygon>
    </Placemark>
    <Placemark>
      <name>obstacle_69</name>
      <Polygon>
        <outerBoundaryIs><LinearRing><coordinates>
          6.316312,51.090320,0 6.314431,51.093391,0 6.308463,51.095573,0 6.307711,51.094939,0 6.303924,51.097496,0 6.304980,51.079768,0 6.313375,51.082923,0 6.315294,51.083165,0 6.316312,51.090320,0
        </coordinates></LinearRing></outerBoundaryIs>
      </Polygon>
    </Placemark>
    <Placemark>
      <name>obstacle_70</name>
      <Polygon>
        <outerBoundaryIs><LinearRing><coordinates>
          6.128450,51.425306,0 6.131792,51.413421,0 6.142464,51.415927,0 6.145218,51.419242,0 6.128450,51.425306,0
        </coordinates></LinearRing></outerBoundaryIs>
      </Polygon>
    </Placemark>
    <Placemark>
      <name>obstacle_71</name>
      <Polygon>
        <outerBoundaryIs><LinearRing><coordinates>
          6.136650,51.425318,0 6.135355,51.424329,0 6.123576,51.423855,0 6.125711,51.410730,0 6.126796,51.408080,0 6.130216,51.406588,0 6.136650,51.425318,0
        </coordinates></LinearRing></outerBoundaryIs>
      </Polygon>
    </Placemark>
    <Placemark>
      <name>obstacle_72</name>
      <Polygon>
        <outerBoundaryIs><LinearRing><coordinates>
          6.200886,51.140852,0 6.200344,51.142884,0 6.194106,51.146197,0 6.194090,51.147279,0 6.193544,51.146144,0 6.183101,51.135171,0 6.190980,51.130826,0 6.200886,51.140852,0
        </coordinates></LinearRing></outerBoundaryIs>
      </Polygon>
    </Placemark>
    <Placemark>
      <name>obstacle_73</name>
      <Polygon>
        <outerBoundaryIs><LinearRing><coordinates>
          6.193906,51.142012,0 6.187807,51.143851,0 6.184127,51.142839,0 6.185067,51.126832,0 6.193906,51.142012,0
        </coordinates></LinearRing></outerBoundaryIs>
      </Polygon>
    </Placemark>
    <Placemark>
      <name>obstacle_74</name>
      <Polygon>
        <outerBoundaryIs><LinearRing><coordinates>
          6.196262,51.371572,0 6.191625,51.376216,0 6.186550,51.372212,0 6.183363,51.370385,0 6.192103,51.355850,0 6.195675,51.355167,0 6.201836,51.361752,0 6.196262,51.371572,0
        </coordinates></LinearRing></outerBoundaryIs>
      </Polygon>
    </Placemark>
    <Placemark>
      <name>obstacle_75</name>
      <Polygon>
        <outerBoundaryIs><LinearRing><coordinates>
          6.184184,51.375947,0 6.183181,51.375712,0 6.180394,51.364598,0 6.183427,51.362045,0 6.184403,51.363036,0 6.184184,51.375947,0
        </coordinates></LinearRing></outerBoundaryIs>
      </Polygon>
    </Placemark>
    <Placemark>
      <name>obstacle_76</name>
      <Polygon>
        <outerBoundaryIs><LinearRing><coordinates>
          6.314067,51.196469,0 6.310765,51.197261,0 6.303016,51.197373,0 6.298088,51.196898,0 6.296786,51.185508,0 6.299211,51.184296,0 6.315966,51.185246,0 6.315036,51.186981,0 6.314067,51.196469,0
        </coordinates></LinearRing></outerBoundaryIs>
      </Polygon>
    </Placemark>
    <Placemark>
      <name>obstacle_77</name>
      <Polygon>
        <outerBoundaryIs><LinearRing><coordinates>
          6.319890,51.192597,0 6.318226,51.196001,0 6.306910,51.197073,0 6.302201,51.189109,0 6.313380,51.182070,0 6.319890,51.192597,0
        </coordinates></LinearRing></outerBoundaryIs>
      </Polygon>
    </Placemark>
    <Placemark>
      <name>obstacle_78</name>
      <Polygon>
        <outerBoundaryIs><LinearRing><coordinates>
          6.310138,51.257254,0 6.308385,51.260507,0 6.306825,51.241023,0 6.309003,51.238941,0 6.309831,51.239272,0 6.317160,51.245284,0 6.319195,51.247401,0 6.310138,51.257254,0
        </coordinates></LinearRing></outerBoundaryIs>
      </Polygon>
    </Placemark>
    <Placemark>
      <name>obstacle_79</name>
      <Polygon>
        <outerBoundaryIs><LinearRing><coordinates>
          6.319831,51.245887,0 6.316214,51.251722,0 6.308451,51.252423,0 6.311187,51.235455,0 6.318144,51.239079,0 6.320619,51.241472,0 6.319831,51.245887,0
        </coordinates></LinearRing></outerBoundaryIs>
      </Polygon>
    </Placemark>
    <Placemark>
      <name>obstacle_80</name>
      <Polygon>
        <outerBoundaryIs><LinearRing><coordinates>
          6.314116,51.256879,0 6.312214,51.257134,0 6.307846,51.255452,0 6.305740,51.248774,0 6.311952,51.239219,0 6.314116,51.256879,0
        </coordinates></LinearRing></outerBoundaryIs>
      </Polygon>
    </Placemark>
    <Placemark>
      <name>obstacle_81</name>
      <Polygon>
        <outerBoundaryIs><LinearRing><coordinates>
          6.303841,51.482657,0 6.303705,51.482443,0 6.292244,51.468075,0 6.299953,51.465696,0 6.303841,51.482657,0
        </coordinates></LinearRing></outerBoundaryIs>
      </Polygon>
    </Placemark>
    <Placemark>
      <name>obstacle_82</name>
      <Polygon>
        <outerBoundaryIs><LinearRing><coordinates>
          6.291992,51.478861,0 6.291530,51.477567,0 6.291010,51.477990,0 6.288198,51.475687,0 6.289527,51.472173,0 6.287688,51.467876,0 6.292689,51.465081,0 6.307081,51.468143,0 6.291992,51.478861,0
        </coordinates></LinearRing></outerBoundaryIs>
      </Polygon>
    </Placemark>
    <Placemark>
      <name>obstacle_83</name>
      <Polygon>
        <outerBoundaryIs><LinearRing><coordinates>
          6.313876,51.477874,0 6.296705,51.479404,0 6.299182,51.469991,0 6.302284,51.467235,0 6.306471,51.466208,0 6.314663,51.472475,0 6.313876,51.477874,0
        </coordinates></LinearRing></outerBoundaryIs>
      </Polygon>
    </Placemark>
    <Placemark>
      <name>obstacle_84</name>
      <Polygon>
        <outerBoundaryIs><LinearRing><coordinates>
          6.014673,51.194661,0 6.015318,51.189122,0 6.020872,51.184869,0 6.026076,51.184632,0 6.027585,51.186889,0 6.031592,51.187179,0 6.014673,51.194661,0
        </coordinates></LinearRing></outerBoundaryIs>
      </Polygon>
    </Placemark>
    <Placemark>
      <name>obstacle_85</name>
      <Polygon>
        <outerBoundaryIs><LinearRing><coordinates>
          6.031065,51.194885,0 6.017437,51.189798,0 6.017901,51.188687,0 6.021327,51.181566,0 6.024423,51.182252,0 6.028165,51.179470,0 6.031065,51.194885,0
        </coordinates></LinearRing></outerBoundaryIs>
      </Polygon>
    </Placemark>
    <Placemark>
      <name>obstacle_86</name>
      <Polygon>
        <outerBoundaryIs><LinearRing><coordinates>
          6.023460,51.199220,0 6.021087,51.199441,0 6.022030,51.188059,0 6.029566,51.182369,0 6.023460,51.199220,0
        </coordinates></LinearRing></outerBoundaryIs>
      </Polygon>
    </Placemark>
    <Placemark>
      <name>obstacle_87</name>
      <Polygon>
        <outerBoundaryIs><LinearRing><coordinates>
          6.256167,51.371824,0 6.252539,51.373189,0 6.243625,51.360344,0 6.247234,51.358715,0 6.248325,51.354540,0 6.257423,51.355839,0 6.256167,51.371824,0
        </coordinates></LinearRing></outerBoundaryIs>
      </Polygon>
    </Placemark>
    <Placemark>
      <name>obstacle_88</name>
      <Polygon>
        <outerBoundaryIs><LinearRing><coordinates>
          6.255713,51.366167,0 6.242595,51.355100,0 6.243396,51.354171,0 6.248433,51.351860,0 6.255713,51.366167,0
        </coordinates></LinearRing></outerBoundaryIs>
      </Polygon>
    </Placemark>
    <Placemark>
      <name>obstacle_89</name>
      <Polygon>
        <outerBoundaryIs><LinearRing><coordinates>
          6.240384,51.370567,0 6.240386,51.368083,0 6.244682,51.358121,0 6.248283,51.358740,0 6.240384,51.370567,0
        </coordinates></LinearRing></outerBoundaryIs>
      </Polygon>
    </Placemark>
    <Placemark>
      <name>obstacle_90</name>
      <Polygon>
        <outerBoundaryIs><LinearRing><coordinates>
          6.427337,51.081922,0 6.421910,51.089350,0 6.410858,51.083529,0 6.411255,51.080221,0 6.418770,51.071869,0 6.427337,51.081922,0
        </coordinates></LinearRing></outerBoundaryIs>
      </Polygon>
    </Placemark>
    <Placemark>
      <name>obstacle_91</name>
      <Polygon>
        <outerBoundaryIs><LinearRing><coordinates>
          6.410612,51.081345,0 6.414335,51.068854,0 6.420717,51.069749,0 6.424490,51.070030,0 6.410612,51.081345,0
        </coordinates></LinearRing></outerBoundaryIs>
      </Polygon>
    </Placemark>
    <Placemark>
      <name>obstacle_92</name>
      <Polygon>
        <outerBoundaryIs><LinearRing><coordinates>
          6.032164,51.418136,0 6.028142,51.417869,0 6.018454,51.405567,0 6.027368,51.408613,0 6.032164,51.418136,0
        </coordinates></LinearRing></outerBoundaryIs>
      </Polygon>
    </Placemark>
    <Placemark>
      <name>obstacle_93</name>
      <Polygon>
        <outerBoundaryIs><LinearRing><coordinates>
          6.031743,51.411689,0 6.030495,51.419404,0 6.027839,51.418529,0 6.015455,51.415238,0 6.016033,51.414526,0 6.024218,51.404492,0 6.028926,51.405961,0 6.031743,51.411689,0
        </coordinates></LinearRing></outerBoundaryIs>
      </Polygon>
    </Placemark>
    <Placemark>
      <name>obstacle_94</name>
      <Polygon>
        <outerBoundaryIs><LinearRing><coordinates>
          6.361044,51.427634,0 6.359008,51.424123,0 6.353403,51.410870,0 6.352869,51.409706,0 6.357723,51.408911,0 6.361044,51.427634,0
        </coordinates></LinearRing></outerBoundaryIs>
      </Polygon>
    </Placemark>
    <Placemark>
      <name>obstacle_95</name>
      <Polygon>
        <outerBoundaryIs><LinearRing><coordinates>
          6.350029,51.425111,0 6.347724,51.416487,0 6.359700,51.409298,0 6.363738,51.410840,0 6.350029,51.425111,0
        </coordinates></LinearRing></outerBoundaryIs>
      </Polygon>
    </Placemark>
    <Placemark>
      <name>obstacle_96</name>
      <Polygon>
        <outerBoundaryIs><LinearRing><coordinates>
          6.189075,51.478998,0 6.180451,51.474287,0 6.185419,51.468696,0 6.196634,51.468199,0 6.197613,51.469038,0 6.189075,51.478998,0
        </coordinates></LinearRing></outerBoundaryIs>
      </Polygon>
    </Placemark>
    <Placemark>
      <name>obstacle_97</name>
      <Polygon>
        <outerBoundaryIs><LinearRing><coordinates>
          6.190686,51.483841,0 6.186932,51.480685,0 6.187716,51.477913,0 6.188510,51.467660,0 6.193504,51.468950,0 6.194107,51.467140,0 6.205058,51.474783,0 6.201748,51.476054,0 6.190686,51.483841,0
        </coordinates></LinearRing></outerBoundaryIs>
      </Polygon>
    </Placemark>
    <Placemark>
      <name>obstacle_98</name>
      <Polygon>
        <outerBoundaryIs><LinearRing><coordinates>
          6.202894,51.472915,0 6.202873,51.477753,0 6.193912,51.479718,0 6.188827,51.475177,0 6.186376,51.464946,0 6.194019,51.460289,0 6.203544,51.463942,0 6.202894,51.472915,0
        </coordinates></LinearRing></outerBoundaryIs>
      </Polygon>
    </Placemark>
    <Placemark>
      <name>obstacle_99</name>
      <Polygon>
        <outerBoundaryIs><LinearRing><coordinates>
          6.484319,51.422344,0 6.483854,51.423554,0 6.482572,51.430708,0 6.469605,51.428599,0 6.471446,51.425721,0 6.470323,51.425765,0 6.474241,51.412244,0 6.481299,51.415258,0 6.484319,51.422344,0
        </coordinates></LinearRing></outerBoundaryIs>
      </Polygon>
    </Placemark>
    <Placemark>
      <name>obstacle_100</name>
      <Polygon>
        <outerBoundaryIs><LinearRing><coordinates>
          6.484027,51.432312,0 6.466864,51.430073,0 6.470262,51.423353,0 6.482095,51.420534,0 6.484027,51.432312,0
        </coordinates></LinearRing></outerBoundaryIs>
      </Polygon>
    </Placemark>
    <Placemark>
      <name>obstacle_101</name>
      <Polygon>
        <outerBoundaryIs><LinearRing><coordinates>
          6.366400,51.300848,0 6.362497,51.308273,0 6.358855,51.308102,0 6.357116,51.291124,0 6.360651,51.290608,0 6.363497,51.292269,0 6.365391,51.298075,0 6.368512,51.297658,0 6.366400,51.300848,0
        </coordinates></LinearRing></outerBoundaryIs>
      </Polygon>
    </Placemark>
    <Placemark>
      <name>obstacle_102</name>
      <Polygon>
        <outerBoundaryIs><LinearRing><coordinates>
          6.365706,51.302632,0 6.361991,51.306571,0 6.358505,51.309307,0 6.348004,51.300912,0 6.349620,51.299921,0 6.354462,51.291708,0 6.361105,51.298151,0 6.365706,51.302632,0
        </coordinates></LinearRing></outerBoundaryIs>
      </Polygon>
    </Placemark>
    <Placemark>
      <name>obstacle_103</name>
      <Polygon>
        <outerBoundaryIs><LinearRing><coordinates>
          6.032882,51.251126,0 6.031406,51.252161,0 6.030604,51.253916,0 6.016130,51.252177,0 6.022987,51.237835,0 6.032011,51.243889,0 6.035893,51.247290,0 6.032882,51.251126,0
        </coordinates></LinearRing></outerBoundaryIs>
      </Polygon>
    </Placemark>
    <Placemark>
      <name>obstacle_104</name>
      <Polygon>
        <outerBoundaryIs><LinearRing><coordinates>
          6.029360,51.255679,0 6.023908,51.257531,0 6.024480,51.254339,0 6.020616,51.247112,0 6.023666,51.240437,0 6.026012,51.238331,0 6.033665,51.241829,0 6.037561,51.245826,0 6.029360,51.255679,0
        </coordinates></LinearRing></outerBoundaryIs>
      </Polygon>
    </Placemark>
    <Placemark>
      <name>obstacle_105</name>
      <Polygon>
        <outerBoundaryIs><LinearRing><coordinates>
          6.256407,51.026405,0 6.255874,51.032990,0 6.252551,51.030419,0 6.247837,51.031504,0 6.245172,51.014912,0 6.256317,51.015839,0 6.256802,51.016535,0 6.259084,51.021109,0 6.256407,51.026405,0
        </coordinates></LinearRing></outerBoundaryIs>
      </Polygon>
    </Placemark>
    <Placemark>
      <name>obstacle_106</name>
      <Polygon>
        <outerBoundaryIs><LinearRing><coordinates>
          6.259420,51.032871,0 6.244830,51.026119,0 6.246359,51.021189,0 6.255287,51.017100,0 6.259420,51.032871,0
        </coordinates></LinearRing></outerBoundaryIs>
      </Polygon>
    </Placemark>
    <Placemark>
      <name>obstacle_107</name>
      <Polygon>
        <outerBoundaryIs><LinearRing><coordinates>
          6.416863,51.423851,0 6.409777,51.424894,0 6.405108,51.414717,0 6.406747,51.414439,0 6.412174,51.410672,0 6.414328,51.407655,0 6.414915,51.410157,0 6.420538,51.413896,0 6.416863,51.423851,0
        </coordinates></LinearRing></outerBoundaryIs>
      </Polygon>
    </Placemark>
    <Placemark>
      <name>obstacle_108</name>
      <Polygon>
        <outerBoundaryIs><LinearRing><coordinates>
          6.425765,51.417399,0 6.426475,51.418032,0 6.419948,51.421447,0 6.418320,51.424957,0 6.417298,51.421885,0 6.415388,51.422200,0 6.412606,51.408572,0 6.425765,51.417399,0
        </coordinates></LinearRing></outerBoundaryIs>
      </Polygon>
    </Placemark>
    <Placemark>
      <name>obstacle_109</name>
      <Polygon>
        <outerBoundaryIs><LinearRing><coordinates>
          6.029828,51.311966,0 6.027292,51.314865,0 6.018826,51.309345,0 6.018697,51.305152,0 6.030602,51.298778,0 6.036386,51.302885,0 6.029828,51.311966,0
        </coordinates></LinearRing></outerBoundaryIs>
      </Polygon>
    </Placemark>
    <Placemark>
      <name>obstacle_110</name>
      <Polygon>
        <outerBoundaryIs><LinearRing><coordinates>
          6.033123,51.309501,0 6.032686,51.309499,0 6.020841,51.307528,0 6.026856,51.296101,0 6.032595,51.294712,0 6.036173,51.293533,0 6.034756,51.295699,0 6.037891,51.301004,0 6.033123,51.309501,0
        </coordinates></LinearRing></outerBoundaryIs>
      </Polygon>
    </Placemark>
    <Placemark>
      <name>obstacle_111</name>
      <Polygon>
        <outerBoundaryIs><LinearRing><coordinates>
          6.026786,51.310643,0 6.021482,51.308041,0 6.019034,51.310167,0 6.019755,51.304232,0 6.019742,51.303575,0 6.026786,51.310643,0
        </coordinates></LinearRing></outerBoundaryIs>
      </Polygon>
    </Placemark>
    <Placemark>
      <name>obstacle_112</name>
      <Polygon>
        <outerBoundaryIs><LinearRing><coordinates>
          6.250384,51.256044,0 6.249915,51.256093,0 6.248599,51.259561,0 6.247201,51.242924,0 6.248285,51.245300,0 6.250384,51.256044,0
        </coordinates></LinearRing></outerBoundaryIs>
      </Polygon>
    </Placemark>
    <Placemark>
      <name>obstacle_113</name>
      <Polygon>
        <outerBoundaryIs><LinearRing><coordinates>
          6.246262,51.266158,0 6.235582,51.261316,0 6.236907,51.255297,0 6.241732,51.249720,0 6.246262,51.266158,0
        </coordinates></LinearRing></outerBoundaryIs>
      </Polygon>
    </Placemark>
    <Placemark>
      <name>obstacle_114</name>
      <Polygon>
        <outerBoundaryIs><LinearRing><coordinates>
          6.244247,51.262446,0 6.241182,51.262403,0 6.241284,51.261677,0 6.238366,51.258987,0 6.236130,51.255246,0 6.244116,51.246434,0 6.245935,51.243797,0 6.244247,51.262446,0
        </coordinates></LinearRing></outerBoundaryIs>
      </Polygon>
    </Placemark>
    <Placemark>
      <name>obstacle_115</name>
      <Polygon>
        <outerBoundaryIs><LinearRing><coordinates>
          6.472035,51.252808,0 6.457331,51.247091,0 6.460716,51.240448,0 6.458846,51.238631,0 6.470386,51.236971,0 6.472848,51.237678,0 6.476051,51.243894,0 6.474737,51.244742,0 6.472035,51.252808,0
        </coordinates></LinearRing></outerBoundaryIs>
      </Polygon>
    </Placemark>
    <Placemark>
      <name>obstacle_116</name>
      <Polygon>
        <outerBoundaryIs><LinearRing><coordinates>
          6.473421,51.244285,0 6.472467,51.246814,0 6.463939,51.253570,0 6.456729,51.250892,0 6.457299,51.237041,0 6.465926,51.237124,0 6.471225,51.237721,0 6.473421,51.244285,0
        </coordinates></LinearRing></outerBoundaryIs>
      </Polygon>
    </Placemark>
    <Placemark>
      <name>obstacle_117</name>
      <Polygon>
        <outerBoundaryIs><LinearRing><coordinates>
          6.363539,51.202450,0 6.362632,51.206665,0 6.355008,51.188063,0 6.360722,51.189481,0 6.360687,51.190967,0 6.364878,51.195490,0 6.363539,51.202450,0
        </coordinates></LinearRing></outerBoundaryIs>
      </Polygon>
    </Placemark>
    <Placemark>
      <name>obstacle_118</name>
      <Polygon>
        <outerBoundaryIs><LinearRing><coordinates>
          6.361264,51.199470,0 6.360180,51.202841,0 6.354707,51.202698,0 6.351018,51.190155,0 6.352682,51.185755,0 6.359300,51.188385,0 6.361264,51.199470,0
        </coordinates></LinearRing></outerBoundaryIs>
      </Polygon>
    </Placemark>
    <Placemark>
      <name>obstacle_119</name>
      <Polygon>
        <outerBoundaryIs><LinearRing><coordinates>
          6.357220,51.206499,0 6.344927,51.196639,0 6.348987,51.188440,0 6.359861,51.190940,0 6.357220,51.206499,0
        </coordinates></LinearRing></outerBoundaryIs>
      </Polygon>
    </Placemark>
    <Placemark>
      <name>obstacle_120</name>
      <Polygon>
        <outerBoundaryIs><LinearRing><coordinates>
          6.143061,51.084868,0 6.126688,51.079576,0 6.138096,51.078622,0 6.140953,51.083430,0 6.143061,51.084868,0
        </coordinates></LinearRing></outerBoundaryIs>
      </Polygon>
    </Placemark>
    <Placemark>
      <name>obstacle_121</name>
      <Polygon>
        <outerBoundaryIs><LinearRing><coordinates>
          6.139222,51.091792,0 6.132742,51.092736,0 6.129211,51.089119,0 6.129875,51.088658,0 6.131372,51.078822,0 6.134163,51.079025,0 6.141080,51.081015,0 6.142775,51.082491,0 6.139222,51.091792,0
        </coordinates></LinearRing></outerBoundaryIs>
      </Polygon>
    </Placemark>
    <Placemark>
      <name>obstacle_122</name>
      <Polygon>
        <outerBoundaryIs><LinearRing><coordinates>
          6.140933,51.086631,0 6.138380,51.092543,0 6.132467,51.095074,0 6.123620,51.089101,0 6.124729,51.087244,0 6.125434,51.078072,0 6.138129,51.080875,0 6.140933,51.086631,0
        </coordinates></LinearRing></outerBoundaryIs>
      </Polygon>
    </Placemark>
    <Placemark>
      <name>obstacle_123</name>
      <Polygon>
        <outerBoundaryIs><LinearRing><coordinates>
          6.205514,51.418406,0 6.202793,51.421435,0 6.189756,51.416497,0 6.194235,51.407630,0 6.205260,51.405561,0 6.206374,51.409044,0 6.207143,51.412847,0 6.205514,51.418406,0
        </coordinates></LinearRing></outerBoundaryIs>
      </Polygon>
    </Placemark>
    <Placemark>
      <name>obstacle_124</name>
      <Polygon>
        <outerBoundaryIs><LinearRing><coordinates>
          6.205186,51.421412,0 6.203166,51.424272,0 6.198503,51.429362,0 6.189256,51.414250,0 6.191165,51.409699,0 6.201654,51.408924,0 6.203975,51.412634,0 6.205242,51.418604,0 6.205186,51.421412,0
        </coordinates></LinearRing></outerBoundaryIs>
      </Polygon>
    </Placemark>
    <Placemark>
      <name>obstacle_125</name>
      <Polygon>
        <outerBoundaryIs><LinearRing><coordinates>
          6.035432,51.084643,0 6.035875,51.085598,0 6.035142,51.091984,0 6.031621,51.090450,0 6.029911,51.092310,0 6.022347,51.076048,0 6.026911,51.073519,0 6.035432,51.084643,0
        </coordinates></LinearRing></outerBoundaryIs>
      </Polygon>
    </Placemark>
    <Placemark>
      <name>obstacle_126</name>
      <Polygon>
        <outerBoundaryIs><LinearRing><coordinates>
          6.040305,51.087211,0 6.040011,51.090527,0 6.030733,51.094758,0 6.026618,51.093438,0 6.022861,51.079306,0 6.026176,51.079648,0 6.036442,51.084976,0 6.040305,51.087211,0
        </coordinates></LinearRing></outerBoundaryIs>
      </Polygon>
    </Placemark>
    <Placemark>
      <name>obstacle_127</name>
      <Polygon>
        <outerBoundaryIs><LinearRing><coordinates>
          6.038271,51.088311,0 6.023172,51.085887,0 6.025005,51.081230,0 6.024356,51.077814,0 6.027286,51.075923,0 6.030895,51.075244,0 6.038271,51.088311,0
        </coordinates></LinearRing></outerBoundaryIs>
      </Polygon>
    </Placemark>
    <Placemark>
      <name>obstacle_128</name>
      <Polygon>
        <outerBoundaryIs><LinearRing><coordinates>
          6.317861,51.419155,0 6.316308,51.423539,0 6.313084,51.424170,0 6.308774,51.422798,0 6.317861,51.419155,0
        </coordinates></LinearRing></outerBoundaryIs>
      </Polygon>
    </Placemark>
    <Placemark>
      <name>obstacle_129</name>
      <Polygon>
        <outerBoundaryIs><LinearRing><coordinates>
          6.315308,51.420192,0 6.299444,51.419374,0 6.300023,51.417961,0 6.301841,51.408785,0 6.308574,51.405128,0 6.316295,51.406840,0 6.315564,51.408351,0 6.315055,51.412189,0 6.315308,51.420192,0
        </coordinates></LinearRing></outerBoundaryIs>
      </Polygon>
    </Placemark>
  </Document>
</kml>
