<?xml version="1.0" encoding="UTF-8"?>
<kml xmlns="http://www.opengis.net/kml/2.2">
  <Document>
    <name>pyvisgraph benchmark map 29 - 34 obstacles</name>
    <Placemark>
      <name>obstacle_0</name>
      <Polygon>
        <outerBoundaryIs><LinearRing><coordinates>
          6.398645,51.019683,0 6.405956,51.029862,0 6.405163,51.047401,0 6.389043,51.056624,0 6.371176,51.047749,0 6.368339,51.030384,0 6.381939,51.018927,0 6.398645,51.019683,0
        </coordinates></LinearRing></outerBoundaryIs>
        <innerBoundaryIs><LinearRing><coordinates>
          6.389299,51.036469,0 6.387521,51.039170,0 6.388994,51.042879,0 6.393330,51.042590,0 6.393255,51.037645,0 6.389299,51.036469,0
        </coordinates></LinearRing></innerBoundaryIs>
        <innerBoundaryIs><LinearRing><coordinates>
          6.381899,51.027071,0 6.380626,51.031628,0 6.385102,51.033378,0 6.386509,51.029271,0 6.381899,51.027071,0
        </coordinates></LinearRing></innerBoundaryIs>
        <innerBoundaryIs><LinearRing><coordinates>
          6.384649,51.039950,0 6.381868,51.038663,0 6.380873,51.040808,0 6.383190,51.042340,0 6.384649,51.039950,0
        </coordinates></LinearRing></innerBoundaryIs>
      </Polygon>
    </Placemark>
    <Placemark>
      <name>obstacle_1</name>
      <Polygon>
        <outerBoundaryIs><LinearRing><coordinates>
          6.032333,51.300807,0 6.048800,51.295821,0 6.062259,51.312181,0 6.059226,51.327510,0 6.038755,51.332783,0 6.026713,51.319935,0 6.032333,51.300807,0
        </coordinates></LinearRing></outerBoundaryIs>
        <innerBoundaryIs><LinearRing><coordinates>
          6.054909,51.316569,0 6.052423,51.314320,0 6.049404,51.316218,0 6.051319,51.319503,0 6.054909,51.316569,0
        </coordinates></LinearRing></innerBoundaryIs>
        <innerBoundaryIs><LinearRing><coordinates>
          6.041089,51.312508,0 6.038519,51.315844,0 6.042982,51.318343,0 6.044765,51.315098,0 6.041089,51.312508,0
        </coordinates></LinearRing></innerBoundaryIs>
        <innerBoundaryIs><LinearRing><coordinates>
          6.046552,51.322322,0 6.044260,51.323424,0 6.044564,51.325721,0 6.047347,51.325767,0 6.048047,51.323526,0 6.046552,51.322322,0
        </coordinates></LinearRing></innerBoundaryIs>
        <innerBoundaryIs><LinearRing><coordinates>
          6.043965,51.307310,0 6.044314,51.309365,0 6.046620,51.309893,0 6.048177,51.308227,0 6.047374,51.306434,0 6.045247,51.305729,0 6.043965,51.307310,0
        </coordinates></LinearRing></innerBoundaryIs>
      </Polygon>
    </Placemark>
    <Placemark>
      <name>obstacle_2</name>
      <Polygon>
        <outerBoundaryIs><LinearRing><coordinates>
          6.230425,51.118591,0 6.235817,51.099918,0 6.247835,51.092930,0 6.264215,51.098511,0 6.267643,51.116995,0 6.258357,51.130289,0 6.244350,51.130147,0 6.230425,51.118591,0
        </coordinates></LinearRing></outerBoundaryIs>
        <innerBoundaryIs><LinearRing><coordinates>
          6.246932,51.108543,0 6.245401,51.111545,0 6.247791,51.112950,0 6.250057,51.109706,0 6.246932,51.108543,0
        </coordinates></LinearRing></innerBoundaryIs>
      </Polygon>
    </Placemark>
    <Placemark>
      <name>obstacle_3</name>
      <Polygon>
        <outerBoundaryIs><LinearRing><coordinates>
          6.373358,51.250098,0 6.376433,51.239315,0 6.387099,51.234040,0 6.396860,51.232018,0 6.406433,51.237311,0 6.408916,51.251800,0 6.407800,51.263532,0 6.397272,51.267087,0 6.384911,51.267518,0 6.375388,51.260461,0 6.373358,51.250098,0
        </coordinates></LinearRing></outerBoundaryIs>
        <innerBoundaryIs><LinearRing><coordinates>
          6.389200,51.259422,0 6.388292,51.255437,0 6.384958,51.256424,0 6.386200,51.260191,0 6.389200,51.259422,0
        </coordinates></LinearRing></innerBoundaryIs>
      </Polygon>
    </Placemark>
    <Placemark>
      <name>obstacle_4</name>
      <Polygon>
        <outerBoundaryIs><LinearRing><coordinates>
          6.461129,51.228816,0 6.474046,51.231487,0 6.485354,51.237661,0 6.488301,51.248896,0 6.480396,51.261157,0 6.469003,51.266964,0 6.457419,51.266347,0 6.450823,51.252602,0 6.449463,51.239335,0 6.461129,51.228816,0
        </coordinates></LinearRing></outerBoundaryIs>
        <innerBoundaryIs><LinearRing><coordinates>
          6.477497,51.250982,0 6.477277,51.248932,0 6.475305,51.248389,0 6.473789,51.249441,0 6.474283,51.250996,0 6.475764,51.252141,0 6.477497,51.250982,0
        </coordinates></LinearRing></innerBoundaryIs>
      </Polygon>
    </Placemark>
    <Placemark>
      <name>obstacle_5</name>
      <Polygon>
        <outerBoundaryIs><LinearRing><coordinates>
          6.195824,51.321456,0 6.189063,51.333740,0 6.173759,51.336845,0 6.159899,51.330928,0 6.158461,51.318410,0 6.159503,51.308551,0 6.169121,51.298255,0 6.182214,51.301897,0 6.192179,51.309573,0 6.195824,51.321456,0
        </coordinates></LinearRing></outerBoundaryIs>
        <innerBoundaryIs><LinearRing><coordinates>
          6.174450,51.318992,0 6.175744,51.322714,0 6.178493,51.322939,0 6.180251,51.320206,0 6.179076,51.317310,0 6.176061,51.317161,0 6.174450,51.318992,0
        </coordinates></LinearRing></innerBoundaryIs>
        <innerBoundaryIs><LinearRing><coordinates>
          6.169407,51.309319,0 6.170046,51.311886,0 6.171826,51.312619,0 6.173387,51.310683,0 6.171563,51.308707,0 6.169407,51.309319,0
        </coordinates></LinearRing></innerBoundaryIs>
        <innerBoundaryIs><LinearRing><coordinates>
          6.178019,51.307156,0 6.175656,51.307787,0 6.175232,51.310069,0 6.177392,51.311426,0 6.179329,51.309966,0 6.178019,51.307156,0
        </coordinates></LinearRing></innerBoundaryIs>
        <innerBoundaryIs><LinearRing><coordinates>
          6.168725,51.317754,0 6.169588,51.314829,0 6.167614,51.313258,0 6.165281,51.314935,0 6.166188,51.317472,0 6.168725,51.317754,0
        </coordinates></LinearRing></innerBoundaryIs>
      </Polygon>
    </Placemark>
    <Placemark>
      <name>obstacle_6</name>
      <Polygon>
        <outerBoundaryIs><LinearRing><coordinates>
          6.060982,51.383327,0 6.055585,51.398002,0 6.047890,51.406438,0 6.033453,51.406654,0 6.023711,51.395685,0 6.025032,51.380902,0 6.035096,51.370456,0 6.051778,51.373095,0 6.060982,51.383327,0
        </coordinates></LinearRing></outerBoundaryIs>
        <innerBoundaryIs><LinearRing><coordinates>
          6.045128,51.389933,0 6.045107,51.386786,0 6.041442,51.386453,0 6.041752,51.390543,0 6.045128,51.389933,0
        </coordinates></LinearRing></innerBoundaryIs>
      </Polygon>
    </Placemark>
    <Placemark>
      <name>obstacle_7</name>
      <Polygon>
        <outerBoundaryIs><LinearRing><coordinates>
          6.337777,51.328662,0 6.326100,51.329122,0 6.312412,51.326481,0 6.305462,51.317655,0 6.311341,51.302213,0 6.320302,51.294283,0 6.331034,51.291403,0 6.341346,51.302970,0 6.345035,51.313974,0 6.337777,51.328662,0
        </coordinates></LinearRing></outerBoundaryIs>
        <innerBoundaryIs><LinearRing><coordinates>
          6.325789,51.315297,0 6.328178,51.314211,0 6.327766,51.312092,0 6.325271,51.311691,0 6.324534,51.313650,0 6.325789,51.315297,0
        </coordinates></LinearRing></innerBoundaryIs>
        <innerBoundaryIs><LinearRing><coordinates>
          6.323354,51.305735,0 6.325453,51.306512,0 6.326914,51.304497,0 6.325492,51.302571,0 6.323130,51.303429,0 6.323354,51.305735,0
        </coordinates></LinearRing></innerBoundaryIs>
      </Polygon>
    </Placemark>
    <Placemark>
      <name>obstacle_8</name>
      <Polygon>
        <outerBoundaryIs><LinearRing><coordinates>
          6.478510,51.338129,0 6.467068,51.340947,0 6.458262,51.331226,0 6.451510,51.316625,0 6.458043,51.307840,0 6.468378,51.301451,0 6.480348,51.305096,0 6.489493,51.313882,0 6.488951,51.329186,0 6.478510,51.338129,0
        </coordinates></LinearRing></outerBoundaryIs>
        <innerBoundaryIs><LinearRing><coordinates>
          6.468883,51.320247,0 6.471482,51.322743,0 6.474064,51.321183,0 6.473647,51.318264,0 6.470397,51.317764,0 6.468883,51.320247,0
        </coordinates></LinearRing></innerBoundaryIs>
        <innerBoundaryIs><LinearRing><coordinates>
          6.481698,51.315587,0 6.479082,51.315318,0 6.478215,51.317827,0 6.479907,51.319166,0 6.481964,51.318052,0 6.481698,51.315587,0
        </coordinates></LinearRing></innerBoundaryIs>
        <innerBoundaryIs><LinearRing><coordinates>
          6.474718,51.328503,0 6.478888,51.329046,0 6.478818,51.325624,0 6.474818,51.324915,0 6.474718,51.328503,0
        </coordinates></LinearRing></innerBoundaryIs>
      </Polygon>
    </Placemark>
    <Placemark>
      <name>obstacle_9</name>
      <Polygon>
        <outerBoundaryIs><LinearRing><coordinates>
          6.239946,51.317165,0 6.243537,51.303267,0 6.257306,51.289825,0 6.271509,51.298332,0 6.279612,51.310628,0 6.269348,51.327789,0 6.251461,51.329123,0 6.239946,51.317165,0
        </coordinates></LinearRing></outerBoundaryIs>
        <innerBoundaryIs><LinearRing><coordinates>
          6.257548,51.307612,0 6.253464,51.307338,0 6.251660,51.311807,0 6.254205,51.314624,0 6.258255,51.312684,0 6.257548,51.307612,0
        </coordinates></LinearRing></innerBoundaryIs>
        <innerBoundaryIs><LinearRing><coordinates>
          6.253287,51.316780,0 6.253118,51.320788,0 6.257734,51.320463,0 6.257268,51.316721,0 6.253287,51.316780,0
        </coordinates></LinearRing></innerBoundaryIs>
        <innerBoundaryIs><LinearRing><coordinates>
          6.267057,51.310482,0 6.265219,51.307887,0 6.261725,51.308438,0 6.261948,51.311842,0 6.264299,51.312988,0 6.267057,51.310482,0
        </coordinates></LinearRing></innerBoundaryIs>
        <innerBoundaryIs><LinearRing><coordinates>
          6.261426,51.315277,0 6.260449,51.318048,0 6.262507,51.319379,0 6.265136,51.318071,0 6.264025,51.315332,0 6.261426,51.315277,0
        </coordinates></LinearRing></innerBoundaryIs>
      </Polygon>
    </Placemark>
    <Placemark>
      <name>obstacle_10</name>
      <Polygon>
        <outerBoundaryIs><LinearRing><coordinates>
          6.267911,51.413312,0 6.256032,51.418432,0 6.245945,51.417938,0 6.238667,51.405762,0 6.235470,51.395306,0 6.240952,51.384704,0 6.252091,51.379678,0 6.264297,51.380639,0 6.271444,51.389452,0 6.273794,51.401993,0 6.267911,51.413312,0
        </coordinates></LinearRing></outerBoundaryIs>
        <innerBoundaryIs><LinearRing><coordinates>
          6.254620,51.393346,0 6.251670,51.396980,0 6.254541,51.400307,0 6.258306,51.396115,0 6.254620,51.393346,0
        </coordinates></LinearRing></innerBoundaryIs>
      </Polygon>
    </Placemark>
    <Placemark>
      <name>obstacle_11</name>
      <Polygon>
        <outerBoundaryIs><LinearRing><coordinates>
          6.054372,51.110763,0 6.036886,51.116943,0 6.026149,51.110053,0 6.019993,51.094969,0 6.033211,51.080985,0 6.050314,51.082854,0 6.061273,51.095537,0 6.054372,51.110763,0
        </coordinates></LinearRing></outerBoundaryIs>
        <innerBoundaryIs><LinearRing><coordinates>
          6.046579,51.106473,0 6.048163,51.104510,0 6.046666,51.102432,0 6.044584,51.103277,0 6.044631,51.105874,0 6.046579,51.106473,0
        </coordinates></LinearRing></innerBoundaryIs>
        <innerBoundaryIs><LinearRing><coordinates>
          6.038385,51.099690,0 6.039734,51.102753,0 6.043409,51.102239,0 6.044586,51.099393,0 6.040646,51.097045,0 6.038385,51.099690,0
        </coordinates></LinearRing></innerBoundaryIs>
      </Polygon>
    </Placemark>
    <Placemark>
      <name>obstacle_12</name>
      <Polygon>
        <outerBoundaryIs><LinearRing><coordinates>
          6.015712,51.186631,0 6.008170,51.174441,0 6.013046,51.162332,0 6.025908,51.156007,0 6.037520,51.156698,0 6.045442,51.167238,0 6.048678,51.181277,0 6.039005,51.192010,0 6.027442,51.194038,0 6.015712,51.186631,0
        </coordinates></LinearRing></outerBoundaryIs>
        <innerBoundaryIs><LinearRing><coordinates>
          6.028630,51.175763,0 6.024744,51.175784,0 6.023368,51.179187,0 6.026316,51.182137,0 6.029481,51.180195,0 6.028630,51.175763,0
        </coordinates></LinearRing></innerBoundaryIs>
        <innerBoundaryIs><LinearRing><coordinates>
          6.035544,51.174705,0 6.032689,51.174508,0 6.031982,51.178269,0 6.034479,51.179444,0 6.036754,51.178010,0 6.035544,51.174705,0
        </coordinates></LinearRing></innerBoundaryIs>
        <innerBoundaryIs><LinearRing><coordinates>
          6.027449,51.169970,0 6.028425,51.167254,0 6.026480,51.164243,0 6.023115,51.164936,0 6.022352,51.167892,0 6.024315,51.169865,0 6.027449,51.169970,0
        </coordinates></LinearRing></innerBoundaryIs>
      </Polygon>
    </Placemark>
    <Placemark>
      <name>obstacle_13</name>
      <Polygon>
        <outerBoundaryIs><LinearRing><coordinates>
          6.045828,51.490936,0 6.031317,51.489749,0 6.021934,51.475979,0 6.024757,51.462759,0 6.035739,51.453758,0 6.050490,51.456681,0 6.057577,51.468834,0 6.055024,51.484919,0 6.045828,51.490936,0
        </coordinates></LinearRing></outerBoundaryIs>
        <innerBoundaryIs><LinearRing><coordinates>
          6.042503,51.481419,0 6.041656,51.477888,0 6.038477,51.476236,0 6.035433,51.478199,0 6.036085,51.482230,0 6.039954,51.482911,0 6.042503,51.481419,0
        </coordinates></LinearRing></innerBoundaryIs>
        <innerBoundaryIs><LinearRing><coordinates>
          6.037447,51.471010,0 6.037180,51.473166,0 6.038761,51.474024,0 6.040489,51.473297,0 6.040627,51.471197,0 6.038869,51.470174,0 6.037447,51.471010,0
        </coordinates></LinearRing></innerBoundaryIs>
      </Polygon>
    </Placemark>
    <Placemark>
      <name>obstacle_14</name>
      <Polygon>
        <outerBoundaryIs><LinearRing><coordinates>
          6.341512,51.038174,0 6.341774,51.051816,0 6.329485,51.062143,0 6.316579,51.062967,0 6.306974,51.055787,0 6.302763,51.044259,0 6.309678,51.031573,0 6.320282,51.024434,0 6.333496,51.031078,0 6.341512,51.038174,0
        </coordinates></LinearRing></outerBoundaryIs>
        <innerBoundaryIs><LinearRing><coordinates>
          6.319422,51.044863,0 6.320213,51.046507,0 6.322391,51.046540,0 6.323834,51.044806,0 6.322885,51.042896,0 6.320286,51.042926,0 6.319422,51.044863,0
        </coordinates></LinearRing></innerBoundaryIs>
        <innerBoundaryIs><LinearRing><coordinates>
          6.322076,51.039494,0 6.321584,51.036528,0 6.319103,51.035766,0 6.316884,51.037039,0 6.317225,51.039989,0 6.320138,51.040865,0 6.322076,51.039494,0
        </coordinates></LinearRing></innerBoundaryIs>
      </Polygon>
    </Placemark>
    <Placemark>
      <name>obstacle_15</name>
      <Polygon>
        <outerBoundaryIs><LinearRing><coordinates>
          6.202775,51.049091,0 6.197576,51.057225,0 6.181829,51.058439,0 6.171057,51.053662,0 6.168757,51.041669,0 6.170810,51.030300,0 6.184137,51.023828,0 6.195682,51.023919,0 6.203594,51.036449,0 6.202775,51.049091,0
        </coordinates></LinearRing></outerBoundaryIs>
        <innerBoundaryIs><LinearRing><coordinates>
          6.184572,51.041722,0 6.182801,51.042240,0 6.182148,51.044026,0 6.183588,51.045334,0 6.186040,51.044801,0 6.186329,51.042776,0 6.184572,51.041722,0
        </coordinates></LinearRing></innerBoundaryIs>
        <innerBoundaryIs><LinearRing><coordinates>
          6.187470,51.050503,0 6.186708,51.047208,0 6.183445,51.048445,0 6.183880,51.051548,0 6.187470,51.050503,0
        </coordinates></LinearRing></innerBoundaryIs>
      </Polygon>
    </Placemark>
    <Placemark>
      <name>obstacle_16</name>
      <Polygon>
        <outerBoundaryIs><LinearRing><coordinates>
          6.390329,51.420316,0 6.375236,51.410308,0 6.372911,51.396840,0 6.383420,51.383833,0 6.398273,51.381134,0 6.410197,51.398601,0 6.404164,51.410790,0 6.390329,51.420316,0
        </coordinates></LinearRing></outerBoundaryIs>
        <innerBoundaryIs><LinearRing><coordinates>
          6.394518,51.403926,0 6.395173,51.399928,0 6.392729,51.397605,0 6.388444,51.399700,0 6.389779,51.403930,0 6.394518,51.403926,0
        </coordinates></LinearRing></innerBoundaryIs>
        <innerBoundaryIs><LinearRing><coordinates>
          6.385799,51.392218,0 6.382872,51.393799,0 6.383721,51.397010,0 6.386496,51.397804,0 6.387995,51.394819,0 6.385799,51.392218,0
        </coordinates></LinearRing></innerBoundaryIs>
      </Polygon>
    </Placemark>
    <Placemark>
      <name>obstacle_17</name>
      <Polygon>
        <outerBoundaryIs><LinearRing><coordinates>
          6.450690,51.034230,0 6.460802,51.020161,0 6.477947,51.018728,0 6.488415,51.027531,0 6.489410,51.047718,0 6.473786,51.056573,0 6.458949,51.049523,0 6.450690,51.034230,0
        </coordinates></LinearRing></outerBoundaryIs>
        <innerBoundaryIs><LinearRing><coordinates>
          6.474152,51.036625,0 6.472591,51.032829,0 6.469349,51.031709,0 6.467169,51.034080,0 6.468029,51.037833,0 6.471553,51.039180,0 6.474152,51.036625,0
        </coordinates></LinearRing></innerBoundaryIs>
        <innerBoundaryIs><LinearRing><coordinates>
          6.468578,51.041374,0 6.467264,51.040224,0 6.464862,51.041371,0 6.465057,51.043009,0 6.466461,51.044437,0 6.468265,51.043581,0 6.468578,51.041374,0
        </coordinates></LinearRing></innerBoundaryIs>
        <innerBoundaryIs><LinearRing><coordinates>
          6.476856,51.037683,0 6.479760,51.036259,0 6.478385,51.033604,0 6.475728,51.034995,0 6.476856,51.037683,0
        </coordinates></LinearRing></innerBoundaryIs>
      </Polygon>
    </Placemark>
    <Placemark>
      <name>obstacle_18</name>
      <Polygon>
        <outerBoundaryIs><LinearRing><coordinates>
          6.163053,51.082082,0 6.174176,51.079217,0 6.185562,51.084072,0 6.193057,51.096065,0 6.191415,51.105416,0 6.181564,51.113166,0 6.171023,51.116214,0 6.160758,51.111397,0 6.153636,51.103126,0 6.153432,51.089402,0 6.163053,51.082082,0
        </coordinates></LinearRing></outerBoundaryIs>
        <innerBoundaryIs><LinearRing><coordinates>
          6.178288,51.100254,0 6.177445,51.103071,0 6.179862,51.103823,0 6.180764,51.101279,0 6.178288,51.100254,0
        </coordinates></LinearRing></innerBoundaryIs>
        <innerBoundaryIs><LinearRing><coordinates>
          6.165671,51.096867,0 6.166482,51.100328,0 6.170630,51.100110,0 6.169341,51.095239,0 6.165671,51.096867,0
        </coordinates></LinearRing></innerBoundaryIs>
        <innerBoundaryIs><LinearRing><coordinates>
          6.178184,51.096938,0 6.178399,51.091587,0 6.172330,51.092406,0 6.173737,51.097569,0 6.178184,51.096938,0
        </coordinates></LinearRing></innerBoundaryIs>
        <innerBoundaryIs><LinearRing><coordinates>
          6.171444,51.103588,0 6.170078,51.105674,0 6.171868,51.108464,0 6.174676,51.107798,0 6.174325,51.104232,0 6.171444,51.103588,0
        </coordinates></LinearRing></innerBoundaryIs>
      </Polygon>
    </Placemark>
    <Placemark>
      <name>obstacle_19</name>
      <Polygon>
        <outerBoundaryIs><LinearRing><coordinates>
          6.116520,51.223693,0 6.126399,51.229130,0 6.132557,51.239099,0 6.133344,51.251854,0 6.123175,51.259632,0 6.114883,51.261781,0 6.102485,51.260342,0 6.094424,51.249485,0 6.096754,51.236017,0 6.103290,51.228331,0 6.116520,51.223693,0
        </coordinates></LinearRing></outerBoundaryIs>
        <innerBoundaryIs><LinearRing><coordinates>
          6.115785,51.245347,0 6.118260,51.244630,0 6.119762,51.242525,0 6.118087,51.240197,0 6.115609,51.240155,0 6.113756,51.242755,0 6.115785,51.245347,0
        </coordinates></LinearRing></innerBoundaryIs>
        <innerBoundaryIs><LinearRing><coordinates>
          6.108807,51.236328,0 6.105132,51.239701,0 6.108005,51.243197,0 6.111594,51.242867,0 6.112122,51.238510,0 6.108807,51.236328,0
        </coordinates></LinearRing></innerBoundaryIs>
        <innerBoundaryIs><LinearRing><coordinates>
          6.114455,51.246566,0 6.112958,51.249158,0 6.114645,51.251624,0 6.117412,51.251440,0 6.118779,51.248959,0 6.117046,51.246997,0 6.114455,51.246566,0
        </coordinates></LinearRing></innerBoundaryIs>
        <innerBoundaryIs><LinearRing><coordinates>
          6.124646,51.247667,0 6.123915,51.245275,0 6.121599,51.244605,0 6.119891,51.245970,0 6.120071,51.248061,0 6.122755,51.249476,0 6.124646,51.247667,0
        </coordinates></LinearRing></innerBoundaryIs>
        <innerBoundaryIs><LinearRing><coordinates>
          6.117492,51.234682,0 6.114599,51.233894,0 6.113907,51.237130,0 6.116708,51.237509,0 6.117492,51.234682,0
        </coordinates></LinearRing></innerBoundaryIs>
      </Polygon>
    </Placemark>
    <Placemark>
      <name>obstacle_20</name>
      <Polygon>
        <outerBoundaryIs><LinearRing><coordinates>
          6.168714,51.398102,0 6.165808,51.389419,0 6.168726,51.375766,0 6.179750,51.368952,0 6.188950,51.365465,0 6.199065,51.372553,0 6.206248,51.383683,0 6.202432,51.398566,0 6.193274,51.403816,0 6.181173,51.406961,0 6.168714,51.398102,0
        </coordinates></LinearRing></outerBoundaryIs>
        <innerBoundaryIs><LinearRing><coordinates>
          6.176192,51.388203,0 6.178036,51.392445,0 6.182642,51.390860,0 6.181751,51.386918,0 6.176192,51.388203,0
        </coordinates></LinearRing></innerBoundaryIs>
        <innerBoundaryIs><LinearRing><coordinates>
          6.185110,51.383770,0 6.185779,51.386613,0 6.188189,51.387479,0 6.190192,51.385774,0 6.189486,51.383083,0 6.186700,51.381979,0 6.185110,51.383770,0
        </coordinates></LinearRing></innerBoundaryIs>
      </Polygon>
    </Placemark>
    <Placemark>
      <name>obstacle_21</name>
      <Polygon>
        <outerBoundaryIs><LinearRing><coordinates>
          6.188751,51.279980,0 6.176446,51.274567,0 6.168118,51.262548,0 6.171032,51.250401,0 6.180692,51.241205,0 6.196182,51.240882,0 6.203960,51.257047,0 6.203588,51.267880,0 6.188751,51.279980,0
        </coordinates></LinearRing></outerBoundaryIs>
        <innerBoundaryIs><LinearRing><coordinates>
          6.183337,51.259171,0 6.180334,51.256268,0 6.177608,51.258905,0 6.181229,51.261558,0 6.183337,51.259171,0
        </coordinates></LinearRing></innerBoundaryIs>
        <innerBoundaryIs><LinearRing><coordinates>
          6.190392,51.268189,0 6.193287,51.265022,0 6.190958,51.261694,0 6.186289,51.263064,0 6.186051,51.266475,0 6.190392,51.268189,0
        </coordinates></LinearRing></innerBoundaryIs>
      </Polygon>
    </Placemark>
    <Placemark>
      <name>obstacle_22</name>
      <Polygon>
        <outerBoundaryIs><LinearRing><coordinates>
          6.132635,51.485063,0 6.117014,51.493535,0 6.099089,51.485602,0 6.097483,51.465682,0 6.115459,51.455979,0 6.135262,51.463743,0 6.132635,51.485063,0
        </coordinates></LinearRing></outerBoundaryIs>
        <innerBoundaryIs><LinearRing><coordinates>
          6.112583,51.476307,0 6.109636,51.478890,0 6.110569,51.481913,0 6.114470,51.482325,0 6.115881,51.478967,0 6.112583,51.476307,0
        </coordinates></LinearRing></innerBoundaryIs>
        <innerBoundaryIs><LinearRing><coordinates>
          6.114479,51.474566,0 6.116620,51.473937,0 6.117064,51.472305,0 6.116169,51.470557,0 6.113570,51.470752,0 6.113065,51.472476,0 6.114479,51.474566,0
        </coordinates></LinearRing></innerBoundaryIs>
      </Polygon>
    </Placemark>
    <Placemark>
      <name>obstacle_23</name>
      <Polygon>
        <outerBoundaryIs><LinearRing><coordinates>
          6.259409,51.187070,0 6.246060,51.195563,0 6.228623,51.188600,0 6.224262,51.170278,0 6.234703,51.159781,0 6.251163,51.156600,0 6.264241,51.171182,0 6.259409,51.187070,0
        </coordinates></LinearRing></outerBoundaryIs>
        <innerBoundaryIs><LinearRing><coordinates>
          6.242498,51.172314,0 6.242679,51.176185,0 6.245247,51.177019,0 6.247161,51.173874,0 6.245750,51.171177,0 6.242498,51.172314,0
        </coordinates></LinearRing></innerBoundaryIs>
        <innerBoundaryIs><LinearRing><coordinates>
          6.245964,51.165571,0 6.242470,51.166512,0 6.244013,51.169815,0 6.247341,51.168378,0 6.245964,51.165571,0
        </coordinates></LinearRing></innerBoundaryIs>
        <innerBoundaryIs><LinearRing><coordinates>
          6.247027,51.182523,0 6.246566,51.184589,0 6.248561,51.186242,0 6.250000,51.184764,0 6.249623,51.182479,0 6.247027,51.182523,0
        </coordinates></LinearRing></innerBoundaryIs>
      </Polygon>
    </Placemark>
    <Placemark>
      <name>obstacle_24</name>
      <Polygon>
        <outerBoundaryIs><LinearRing><coordinates>
          6.477106,51.472593,0 6.458070,51.471146,0 6.448607,51.456353,0 6.460234,51.439063,0 6.477057,51.439075,0 6.483934,51.455692,0 6.477106,51.472593,0
        </coordinates></LinearRing></outerBoundaryIs>
        <innerBoundaryIs><LinearRing><coordinates>
          6.471471,51.457371,0 6.469091,51.454260,0 6.464826,51.457680,0 6.467143,51.460835,0 6.471471,51.457371,0
        </coordinates></LinearRing></innerBoundaryIs>
        <innerBoundaryIs><LinearRing><coordinates>
          6.462390,51.448813,0 6.459588,51.448066,0 6.457856,51.450110,0 6.458934,51.452148,0 6.461950,51.451558,0 6.462390,51.448813,0
        </coordinates></LinearRing></innerBoundaryIs>
      </Polygon>
    </Placemark>
    <Placemark>
      <name>obstacle_25</name>
      <Polygon>
        <outerBoundaryIs><LinearRing><coordinates>
          6.293345,51.391946,0 6.295578,51.379641,0 6.308493,51.368873,0 6.320589,51.369501,0 6.328875,51.385827,0 6.326115,51.399638,0 6.315527,51.408687,0 6.298685,51.404768,0 6.293345,51.391946,0
        </coordinates></LinearRing></outerBoundaryIs>
        <innerBoundaryIs><LinearRing><coordinates>
          6.308743,51.386835,0 6.310061,51.389843,0 6.312901,51.389115,0 6.311924,51.385544,0 6.308743,51.386835,0
        </coordinates></LinearRing></innerBoundaryIs>
      </Polygon>
    </Placemark>
    <Placemark>
      <name>obstacle_26</name>
      <Polygon>
        <outerBoundaryIs><LinearRing><coordinates>
          6.337902,51.254946,0 6.327524,51.263086,0 6.315495,51.265051,0 6.305766,51.256119,0 6.304779,51.242560,0 6.310069,51.228945,0 6.320460,51.227783,0 6.333182,51.228622,0 6.342301,51.240089,0 6.337902,51.254946,0
        </coordinates></LinearRing></outerBoundaryIs>
        <innerBoundaryIs><LinearRing><coordinates>
          6.328020,51.245493,0 6.328571,51.250128,0 6.332470,51.249394,0 6.332031,51.245249,0 6.328020,51.245493,0
        </coordinates></LinearRing></innerBoundaryIs>
        <innerBoundaryIs><LinearRing><coordinates>
          6.320349,51.243189,0 6.322860,51.246703,0 6.325710,51.245138,0 6.323229,51.241595,0 6.320349,51.243189,0
        </coordinates></LinearRing></innerBoundaryIs>
        <innerBoundaryIs><LinearRing><coordinates>
          6.323115,51.256094,0 6.325733,51.254470,0 6.325152,51.252133,0 6.322325,51.251628,0 6.321128,51.253867,0 6.323115,51.256094,0
        </coordinates></LinearRing></innerBoundaryIs>
        <innerBoundaryIs><LinearRing><coordinates>
          6.313227,51.246362,0 6.315203,51.249830,0 6.318418,51.247059,0 6.315544,51.244503,0 6.313227,51.246362,0
        </coordinates></LinearRing></innerBoundaryIs>
        <innerBoundaryIs><LinearRing><coordinates>
          6.326990,51.240378,0 6.328511,51.242972,0 6.330812,51.242178,0 6.330012,51.238967,0 6.326990,51.240378,0
        </coordinates></LinearRing></innerBoundaryIs>
      </Polygon>
    </Placemark>
    <Placemark>
      <name>obstacle_27</name>
      <Polygon>
        <outerBoundaryIs><LinearRing><coordinates>
          6.098645,51.011791,0 6.114628,51.016575,0 6.123220,51.027897,0 6.114925,51.045184,0 6.101100,51.048922,0 6.086427,51.042805,0 6.085550,51.027270,0 6.098645,51.011791,0
        </coordinates></LinearRing></outerBoundaryIs>
        <innerBoundaryIs><LinearRing><coordinates>
          6.100854,51.032779,0 6.098664,51.031576,0 6.096834,51.034479,0 6.100201,51.035586,0 6.100854,51.032779,0
        </coordinates></LinearRing></innerBoundaryIs>
        <innerBoundaryIs><LinearRing><coordinates>
          6.106703,51.030051,0 6.107617,51.034294,0 6.111011,51.034734,0 6.112867,51.030472,0 6.110250,51.028118,0 6.106703,51.030051,0
        </coordinates></LinearRing></innerBoundaryIs>
        <innerBoundaryIs><LinearRing><coordinates>
          6.100300,51.021023,0 6.099899,51.025654,0 6.103088,51.027122,0 6.106418,51.024971,0 6.104743,51.020941,0 6.100300,51.021023,0
        </coordinates></LinearRing></innerBoundaryIs>
        <innerBoundaryIs><LinearRing><coordinates>
          6.101713,51.040778,0 6.104088,51.041449,0 6.105774,51.039911,0 6.104364,51.037268,0 6.101985,51.037907,0 6.101713,51.040778,0
        </coordinates></LinearRing></innerBoundaryIs>
        <innerBoundaryIs><LinearRing><coordinates>
          6.109005,51.040257,0 6.110893,51.038622,0 6.110301,51.037149,0 6.108082,51.036128,0 6.106707,51.037579,0 6.107457,51.039650,0 6.109005,51.040257,0
        </coordinates></LinearRing></innerBoundaryIs>
      </Polygon>
    </Placemark>
    <Placemark>
      <name>obstacle_28</name>
      <Polygon>
        <outerBoundaryIs><LinearRing><coordinates>
          6.465205,51.168872,0 6.479718,51.176091,0 6.481995,51.190672,0 6.475772,51.200549,0 6.461782,51.205613,0 6.448743,51.200197,0 6.445125,51.183455,0 6.451789,51.174775,0 6.465205,51.168872,0
        </coordinates></LinearRing></outerBoundaryIs>
        <innerBoundaryIs><LinearRing><coordinates>
          6.463992,51.191582,0 6.468635,51.192691,0 6.469205,51.189686,0 6.465705,51.187680,0 6.463992,51.191582,0
        </coordinates></LinearRing></innerBoundaryIs>
        <innerBoundaryIs><LinearRing><coordinates>
          6.456960,51.185077,0 6.456053,51.187554,0 6.457924,51.189695,0 6.460651,51.188274,0 6.460154,51.185544,0 6.456960,51.185077,0
        </coordinates></LinearRing></innerBoundaryIs>
        <innerBoundaryIs><LinearRing><coordinates>
          6.460113,51.192748,0 6.458064,51.191483,0 6.456141,51.192438,0 6.455959,51.194733,0 6.457438,51.195625,0 6.459808,51.194929,0 6.460113,51.192748,0
        </coordinates></LinearRing></innerBoundaryIs>
        <innerBoundaryIs><LinearRing><coordinates>
          6.464583,51.186876,0 6.466038,51.184495,0 6.464086,51.183070,0 6.462199,51.183830,0 6.462378,51.186757,0 6.464583,51.186876,0
        </coordinates></LinearRing></innerBoundaryIs>
        <innerBoundaryIs><LinearRing><coordinates>
          6.457118,51.180593,0 6.457799,51.183004,0 6.460632,51.182905,0 6.461791,51.180681,0 6.459508,51.178824,0 6.457118,51.180593,0
        </coordinates></LinearRing></innerBoundaryIs>
      </Polygon>
    </Placemark>
    <Placemark>
      <name>obstacle_29</name>
      <Polygon>
        <outerBoundaryIs><LinearRing><coordinates>
          6.202757,51.445616,0 6.207554,51.455398,0 6.201992,51.471726,0 6.186750,51.474827,0 6.174167,51.469509,0 6.167126,51.455393,0 6.176549,51.439581,0 6.188128,51.436095,0 6.202757,51.445616,0
        </coordinates></LinearRing></outerBoundaryIs>
        <innerBoundaryIs><LinearRing><coordinates>
          6.184532,51.455199,0 6.186918,51.460100,0 6.191271,51.457453,0 6.189019,51.452479,0 6.184532,51.455199,0
        </coordinates></LinearRing></innerBoundaryIs>
        <innerBoundaryIs><LinearRing><coordinates>
          6.189812,51.462338,0 6.188291,51.461143,0 6.186323,51.462152,0 6.186617,51.464471,0 6.188292,51.465589,0 6.190088,51.464571,0 6.189812,51.462338,0
        </coordinates></LinearRing></innerBoundaryIs>
        <innerBoundaryIs><LinearRing><coordinates>
          6.185557,51.449186,0 6.183524,51.446849,0 6.180671,51.447792,0 6.179847,51.451475,0 6.181928,51.452890,0 6.184808,51.451800,0 6.185557,51.449186,0
        </coordinates></LinearRing></innerBoundaryIs>
        <innerBoundaryIs><LinearRing><coordinates>
          6.178593,51.458419,0 6.178857,51.461034,0 6.182096,51.461011,0 6.183093,51.458788,0 6.180974,51.456533,0 6.178593,51.458419,0
        </coordinates></LinearRing></innerBoundaryIs>
        <innerBoundaryIs><LinearRing><coordinates>
          6.197111,51.453586,0 6.196257,51.451392,0 6.193813,51.451247,0 6.193549,51.454182,0 6.195398,51.454770,0 6.197111,51.453586,0
        </coordinates></LinearRing></innerBoundaryIs>
      </Polygon>
    </Placemark>
    <Placemark>
      <name>obstacle_30</name>
      <Polygon>
        <outerBoundaryIs><LinearRing><coordinates>
          6.438345,51.105816,0 6.446120,51.089107,0 6.456683,51.084070,0 6.470497,51.084528,0 6.476180,51.100274,0 6.473776,51.116360,0 6.459659,51.122917,0 6.447024,51.117384,0 6.438345,51.105816,0
        </coordinates></LinearRing></outerBoundaryIs>
        <innerBoundaryIs><LinearRing><coordinates>
          6.459271,51.104116,0 6.461382,51.104728,0 6.462973,51.103737,0 6.462371,51.101492,0 6.460612,51.100764,0 6.459102,51.102237,0 6.459271,51.104116,0
        </coordinates></LinearRing></innerBoundaryIs>
      </Polygon>
    </Placemark>
    <Placemark>
      <name>obstacle_31</name>
      <Polygon>
        <outerBoundaryIs><LinearRing><coordinates>
          6.195130,51.197692,0 6.181438,51.206838,0 6.164788,51.194101,0 6.166108,51.175411,0 6.179024,51.167870,0 6.199363,51.177961,0 6.195130,51.197692,0
        </coordinates></LinearRing></outerBoundaryIs>
        <innerBoundaryIs><LinearRing><coordinates>
          6.182718,51.192134,0 6.184578,51.191733,0 6.185230,51.189502,0 6.183601,51.187893,0 6.181696,51.188566,0 6.181188,51.190827,0 6.182718,51.192134,0
        </coordinates></LinearRing></innerBoundaryIs>
      </Polygon>
    </Placemark>
    <Placemark>
      <name>obstacle_32</name>
      <Polygon>
        <outerBoundaryIs><LinearRing><coordinates>
          6.264587,51.248404,0 6.257380,51.256763,0 6.242373,51.258683,0 6.232723,51.255282,0 6.228264,51.242313,0 6.231041,51.228455,0 6.242645,51.224091,0 6.257976,51.224264,0 6.263108,51.234801,0 6.264587,51.248404,0
        </coordinates></LinearRing></outerBoundaryIs>
        <innerBoundaryIs><LinearRing><coordinates>
          6.246234,51.240486,0 6.243646,51.240545,0 6.243057,51.242335,0 6.244114,51.244786,0 6.246367,51.244354,0 6.247942,51.242415,0 6.246234,51.240486,0
        </coordinates></LinearRing></innerBoundaryIs>
        <innerBoundaryIs><LinearRing><coordinates>
          6.248926,51.242836,0 6.250802,51.245124,0 6.253483,51.244557,0 6.254718,51.242098,0 6.253206,51.239993,0 6.249957,51.240100,0 6.248926,51.242836,0
        </coordinates></LinearRing></innerBoundaryIs>
        <innerBoundaryIs><LinearRing><coordinates>
          6.241457,51.250466,0 6.242976,51.252294,0 6.245597,51.251375,0 6.245411,51.248477,0 6.242962,51.247782,0 6.241457,51.250466,0
        </coordinates></LinearRing></innerBoundaryIs>
        <innerBoundaryIs><LinearRing><coordinates>
          6.250867,51.234381,0 6.251451,51.237686,0 6.253841,51.238383,0 6.255873,51.236546,0 6.255194,51.233900,0 6.252681,51.232657,0 6.250867,51.234381,0
        </coordinates></LinearRing></innerBoundaryIs>
        <innerBoundaryIs><LinearRing><coordinates>
          6.237115,51.240362,0 6.238072,51.243636,0 6.241125,51.243304,0 6.240589,51.239619,0 6.237115,51.240362,0
        </coordinates></LinearRing></innerBoundaryIs>
      </Polygon>
    </Placemark>
    <Placemark>
      <name>obstacle_33</name>
      <Polygon>
        <outerBoundaryIs><LinearRing><coordinates>
          6.349180,51.457912,0 6.348064,51.477545,0 6.330971,51.484431,0 6.312954,51.473714,0 6.314659,51.458675,0 6.331866,51.447257,0 6.349180,51.457912,0
        </coordinates></LinearRing></outerBoundaryIs>
        <innerBoundaryIs><LinearRing><coordinates>
          6.329239,51.468218,0 6.332782,51.465577,0 6.329482,51.461483,0 6.325770,51.464793,0 6.329239,51.468218,0
        </coordinates></LinearRing></innerBoundaryIs>
        <innerBoundaryIs><LinearRing><coordinates>
          6.336471,51.468778,0 6.338787,51.468227,0 6.339040,51.466362,0 6.337331,51.464742,0 6.335946,51.465483,0 6.335069,51.467696,0 6.336471,51.468778,0
        </coordinates></LinearRing></innerBoundaryIs>
        <innerBoundaryIs><LinearRing><coordinates>
          6.328294,51.472510,0 6.328358,51.476014,0 6.331919,51.477224,0 6.333735,51.474516,0 6.331621,51.470970,0 6.328294,51.472510,0
        </coordinates></LinearRing></innerBoundaryIs>
      </Polygon>
    </Placemark>
  </Document>
</kml>
