<?xml version="1.0" encoding="UTF-8"?>
<kml xmlns="http://www.opengis.net/kml/2.2">
  <Document>
    <name>pyvisgraph benchmark map 26 - 18 obstacles</name>
    <Placemark>
      <name>obstacle_0</name>
      <Polygon>
        <outerBoundaryIs><LinearRing><coordinates>
          6.473008,51.324610,0 6.488593,51.339133,0 6.490489,51.356803,0 6.468442,51.376765,0 6.447296,51.370502,0 6.435016,51.350921,0 6.446523,51.326871,0 6.473008,51.324610,0
        </coordinates></LinearRing></outerBoundaryIs>
        <innerBoundaryIs><LinearRing><coordinates>
          6.454171,51.351235,0 6.457783,51.352937,0 6.461348,51.350335,0 6.460294,51.345952,0 6.456366,51.344657,0 6.453191,51.346947,0 6.454171,51.351235,0
        </coordinates></LinearRing></innerBoundaryIs>
      </Polygon>
    </Placemark>
    <Placemark>
      <name>obstacle_1</name>
      <Polygon>
        <outerBoundaryIs><LinearRing><coordinates>
          6.164236,51.157010,0 6.139423,51.180747,0 6.116431,51.166862,0 6.113832,51.144963,0 6.130547,51.125457,0 6.153776,51.131132,0 6.164236,51.157010,0
        </coordinates></LinearRing></outerBoundaryIs>
        <innerBoundaryIs><LinearRing><coordinates>
          6.132949,51.146026,0 6.137714,51.142649,0 6.134009,51.137103,0 6.127975,51.139937,0 6.132949,51.146026,0
        </coordinates></LinearRing></innerBoundaryIs>
        <innerBoundaryIs><LinearRing><coordinates>
          6.146871,51.156990,0 6.141241,51.155934,0 6.139176,51.162647,0 6.144031,51.165324,0 6.147379,51.162304,0 6.146871,51.156990,0
        </coordinates></LinearRing></innerBoundaryIs>
      </Polygon>
    </Placemark>
    <Placemark>
      <name>obstacle_2</name>
      <Polygon>
        <outerBoundaryIs><LinearRing><coordinates>
          6.443709,51.121936,0 6.460773,51.113549,0 6.479711,51.127630,0 6.486686,51.145075,0 6.472374,51.166173,0 6.453007,51.170818,0 6.436673,51.159837,0 6.430204,51.137348,0 6.443709,51.121936,0
        </coordinates></LinearRing></outerBoundaryIs>
        <innerBoundaryIs><LinearRing><coordinates>
          6.459382,51.148098,0 6.457897,51.145398,0 6.454380,51.147597,0 6.456369,51.150631,0 6.459382,51.148098,0
        </coordinates></LinearRing></innerBoundaryIs>
      </Polygon>
    </Placemark>
    <Placemark>
      <name>obstacle_3</name>
      <Polygon>
        <outerBoundaryIs><LinearRing><coordinates>
          6.484791,51.446783,0 6.469577,51.465496,0 6.441328,51.464297,0 6.432287,51.448042,0 6.433964,51.423613,0 6.456078,51.414330,0 6.474878,51.422360,0 6.484791,51.446783,0
        </coordinates></LinearRing></outerBoundaryIs>
        <innerBoundaryIs><LinearRing><coordinates>
          6.446893,51.443689,0 6.451602,51.445614,0 6.454000,51.441755,0 6.448362,51.438976,0 6.446893,51.443689,0
        </coordinates></LinearRing></innerBoundaryIs>
        <innerBoundaryIs><LinearRing><coordinates>
          6.461956,51.441819,0 6.466666,51.441195,0 6.467049,51.436816,0 6.464574,51.434281,0 6.460783,51.434779,0 6.459410,51.439001,0 6.461956,51.441819,0
        </coordinates></LinearRing></innerBoundaryIs>
        <innerBoundaryIs><LinearRing><coordinates>
          6.461493,51.447481,0 6.457228,51.448649,0 6.457646,51.452412,0 6.461739,51.452155,0 6.461493,51.447481,0
        </coordinates></LinearRing></innerBoundaryIs>
      </Polygon>
    </Placemark>
    <Placemark>
      <name>obstacle_4</name>
      <Polygon>
        <outerBoundaryIs><LinearRing><coordinates>
          6.239612,51.314357,0 6.262987,51.318279,0 6.274699,51.334099,0 6.272571,51.357511,0 6.246895,51.365088,0 6.226373,51.358654,0 6.219983,51.330725,0 6.239612,51.314357,0
        </coordinates></LinearRing></outerBoundaryIs>
        <innerBoundaryIs><LinearRing><coordinates>
          6.239849,51.345570,0 6.242581,51.350004,0 6.247545,51.348011,0 6.247983,51.342561,0 6.241435,51.341617,0 6.239849,51.345570,0
        </coordinates></LinearRing></innerBoundaryIs>
        <innerBoundaryIs><LinearRing><coordinates>
          6.253423,51.338579,0 6.256344,51.334479,0 6.253869,51.331233,0 6.249578,51.334726,0 6.253423,51.338579,0
        </coordinates></LinearRing></innerBoundaryIs>
        <innerBoundaryIs><LinearRing><coordinates>
          6.237819,51.335770,0 6.238219,51.338107,0 6.241606,51.339032,0 6.243309,51.337269,0 6.242767,51.333885,0 6.239728,51.333134,0 6.237819,51.335770,0
        </coordinates></LinearRing></innerBoundaryIs>
      </Polygon>
    </Placemark>
    <Placemark>
      <name>obstacle_5</name>
      <Polygon>
        <outerBoundaryIs><LinearRing><coordinates>
          6.334804,51.461782,0 6.328212,51.443429,0 6.331556,51.427218,0 6.345562,51.410079,0 6.363725,51.412692,0 6.373806,51.424655,0 6.377876,51.442098,0 6.370993,51.460979,0 6.351891,51.464789,0 6.334804,51.461782,0
        </coordinates></LinearRing></outerBoundaryIs>
        <innerBoundaryIs><LinearRing><coordinates>
          6.356822,51.445139,0 6.362213,51.445021,0 6.363840,51.439855,0 6.360141,51.437248,0 6.354736,51.440110,0 6.356822,51.445139,0
        </coordinates></LinearRing></innerBoundaryIs>
        <innerBoundaryIs><LinearRing><coordinates>
          6.346611,51.441356,0 6.348151,51.436885,0 6.344666,51.433872,0 6.341022,51.435704,0 6.341699,51.440572,0 6.346611,51.441356,0
        </coordinates></LinearRing></innerBoundaryIs>
        <innerBoundaryIs><LinearRing><coordinates>
          6.357842,51.432234,0 6.358597,51.429408,0 6.355511,51.427056,0 6.352797,51.429523,0 6.353633,51.432740,0 6.357842,51.432234,0
        </coordinates></LinearRing></innerBoundaryIs>
        <innerBoundaryIs><LinearRing><coordinates>
          6.345195,51.450865,0 6.347960,51.452785,0 6.351741,51.451823,0 6.352696,51.447484,0 6.350181,51.445365,0 6.346078,51.446807,0 6.345195,51.450865,0
        </coordinates></LinearRing></innerBoundaryIs>
      </Polygon>
    </Placemark>
    <Placemark>
      <name>obstacle_6</name>
      <Polygon>
        <outerBoundaryIs><LinearRing><coordinates>
          6.380227,51.262026,0 6.364399,51.282139,0 6.337376,51.279756,0 6.326610,51.255856,0 6.336713,51.235407,0 6.369689,51.237692,0 6.380227,51.262026,0
        </coordinates></LinearRing></outerBoundaryIs>
        <innerBoundaryIs><LinearRing><coordinates>
          6.343762,51.267186,0 6.349769,51.270145,0 6.351820,51.265473,0 6.346352,51.262843,0 6.343762,51.267186,0
        </coordinates></LinearRing></innerBoundaryIs>
        <innerBoundaryIs><LinearRing><coordinates>
          6.353757,51.254758,0 6.350194,51.255472,0 6.348122,51.258857,0 6.350157,51.261613,0 6.354765,51.261240,0 6.356038,51.257625,0 6.353757,51.254758,0
        </coordinates></LinearRing></innerBoundaryIs>
      </Polygon>
    </Placemark>
    <Placemark>
      <name>obstacle_7</name>
      <Polygon>
        <outerBoundaryIs><LinearRing><coordinates>
          6.076245,51.148069,0 6.062670,51.159786,0 6.046482,51.161910,0 6.035893,51.153053,0 6.030353,51.135659,0 6.033691,51.120845,0 6.046565,51.110804,0 6.059473,51.111385,0 6.073074,51.119419,0 6.082355,51.137260,0 6.076245,51.148069,0
        </coordinates></LinearRing></outerBoundaryIs>
        <innerBoundaryIs><LinearRing><coordinates>
          6.056644,51.132701,0 6.050240,51.135066,0 6.052645,51.139626,0 6.058650,51.138213,0 6.056644,51.132701,0
        </coordinates></LinearRing></innerBoundaryIs>
        <innerBoundaryIs><LinearRing><coordinates>
          6.048152,51.144424,0 6.045953,51.141541,0 6.042855,51.142284,0 6.042318,51.145084,0 6.043805,51.147173,0 6.047118,51.147039,0 6.048152,51.144424,0
        </coordinates></LinearRing></innerBoundaryIs>
        <innerBoundaryIs><LinearRing><coordinates>
          6.060426,51.131823,0 6.065239,51.131365,0 6.066822,51.127585,0 6.064164,51.124400,0 6.059376,51.125541,0 6.058332,51.129466,0 6.060426,51.131823,0
        </coordinates></LinearRing></innerBoundaryIs>
      </Polygon>
    </Placemark>
    <Placemark>
      <name>obstacle_8</name>
      <Polygon>
        <outerBoundaryIs><LinearRing><coordinates>
          6.048385,51.427041,0 6.070667,51.422364,0 6.090039,51.438073,0 6.088206,51.462470,0 6.074131,51.476675,0 6.048029,51.468523,0 6.035161,51.450204,0 6.048385,51.427041,0
        </coordinates></LinearRing></outerBoundaryIs>
        <innerBoundaryIs><LinearRing><coordinates>
          6.075158,51.447301,0 6.070140,51.445393,0 6.066058,51.447201,0 6.065673,51.453673,0 6.069751,51.456006,0 6.074991,51.452465,0 6.075158,51.447301,0
        </coordinates></LinearRing></innerBoundaryIs>
        <innerBoundaryIs><LinearRing><coordinates>
          6.058583,51.453544,0 6.056886,51.448752,0 6.051249,51.451971,0 6.053439,51.456285,0 6.058583,51.453544,0
        </coordinates></LinearRing></innerBoundaryIs>
        <innerBoundaryIs><LinearRing><coordinates>
          6.055614,51.436977,0 6.053984,51.440866,0 6.057264,51.442925,0 6.060020,51.439967,0 6.059101,51.436716,0 6.055614,51.436977,0
        </coordinates></LinearRing></innerBoundaryIs>
        <innerBoundaryIs><LinearRing><coordinates>
          6.067668,51.441302,0 6.071957,51.439087,0 6.070955,51.435868,0 6.066223,51.438132,0 6.067668,51.441302,0
        </coordinates></LinearRing></innerBoundaryIs>
        <innerBoundaryIs><LinearRing><coordinates>
          6.067458,51.462456,0 6.068403,51.458648,0 6.065922,51.455921,0 6.061373,51.456842,0 6.060237,51.460567,0 6.063378,51.463746,0 6.067458,51.462456,0
        </coordinates></LinearRing></innerBoundaryIs>
      </Polygon>
    </Placemark>
    <Placemark>
      <name>obstacle_9</name>
      <Polygon>
        <outerBoundaryIs><LinearRing><coordinates>
          6.366510,51.040363,0 6.377729,51.049593,0 6.382491,51.065541,0 6.371108,51.081739,0 6.360648,51.088456,0 6.342242,51.083646,0 6.331622,51.071886,0 6.330555,51.056692,0 6.337750,51.040116,0 6.352449,51.035088,0 6.366510,51.040363,0
        </coordinates></LinearRing></outerBoundaryIs>
        <innerBoundaryIs><LinearRing><coordinates>
          6.349195,51.074048,0 6.349602,51.070657,0 6.347032,51.068953,0 6.343934,51.071721,0 6.345827,51.074047,0 6.349195,51.074048,0
        </coordinates></LinearRing></innerBoundaryIs>
      </Polygon>
    </Placemark>
    <Placemark>
      <name>obstacle_10</name>
      <Polygon>
        <outerBoundaryIs><LinearRing><coordinates>
          6.017963,51.051548,0 6.012760,51.038682,0 6.021180,51.023988,0 6.032332,51.011233,0 6.052147,51.015776,0 6.066111,51.023655,0 6.069176,51.042042,0 6.060094,51.059385,0 6.046018,51.066074,0 6.029751,51.066242,0 6.017963,51.051548,0
        </coordinates></LinearRing></outerBoundaryIs>
        <innerBoundaryIs><LinearRing><coordinates>
          6.029221,51.036727,0 6.030480,51.040975,0 6.035844,51.039453,0 6.034829,51.035147,0 6.029221,51.036727,0
        </coordinates></LinearRing></innerBoundaryIs>
        <innerBoundaryIs><LinearRing><coordinates>
          6.043542,51.029829,0 6.040717,51.033253,0 6.042130,51.037096,0 6.046831,51.038339,0 6.049878,51.034476,0 6.047372,51.030772,0 6.043542,51.029829,0
        </coordinates></LinearRing></innerBoundaryIs>
        <innerBoundaryIs><LinearRing><coordinates>
          6.043830,51.053097,0 6.046323,51.049059,0 6.043235,51.045518,0 6.039297,51.045571,0 6.036849,51.049959,0 6.039768,51.053342,0 6.043830,51.053097,0
        </coordinates></LinearRing></innerBoundaryIs>
        <innerBoundaryIs><LinearRing><coordinates>
          6.037929,51.031354,0 6.040989,51.029900,0 6.040625,51.026364,0 6.036768,51.026172,0 6.035397,51.028567,0 6.037929,51.031354,0
        </coordinates></LinearRing></innerBoundaryIs>
      </Polygon>
    </Placemark>
    <Placemark>
      <name>obstacle_11</name>
      <Polygon>
        <outerBoundaryIs><LinearRing><coordinates>
          6.266216,51.156315,0 6.259088,51.179128,0 6.229777,51.184284,0 6.213656,51.163052,0 6.221051,51.135973,0 6.246261,51.134848,0 6.266216,51.156315,0
        </coordinates></LinearRing></outerBoundaryIs>
        <innerBoundaryIs><LinearRing><coordinates>
          6.244495,51.160095,0 6.246045,51.167492,0 6.252858,51.164356,0 6.250081,51.158653,0 6.244495,51.160095,0
        </coordinates></LinearRing></innerBoundaryIs>
      </Polygon>
    </Placemark>
    <Placemark>
      <name>obstacle_12</name>
      <Polygon>
        <outerBoundaryIs><LinearRing><coordinates>
          6.224342,51.025703,0 6.245579,51.016755,0 6.264761,51.024292,0 6.272588,51.044309,0 6.266405,51.064156,0 6.248854,51.071507,0 6.226912,51.059067,0 6.219896,51.045413,0 6.224342,51.025703,0
        </coordinates></LinearRing></outerBoundaryIs>
        <innerBoundaryIs><LinearRing><coordinates>
          6.253342,51.054812,0 6.252663,51.049165,0 6.247885,51.049982,0 6.247868,51.054640,0 6.253342,51.054812,0
        </coordinates></LinearRing></innerBoundaryIs>
        <innerBoundaryIs><LinearRing><coordinates>
          6.240509,51.044553,0 6.244402,51.048021,0 6.248531,51.044533,0 6.244832,51.040697,0 6.240509,51.044553,0
        </coordinates></LinearRing></innerBoundaryIs>
      </Polygon>
    </Placemark>
    <Placemark>
      <name>obstacle_13</name>
      <Polygon>
        <outerBoundaryIs><LinearRing><coordinates>
          6.129574,51.452129,0 6.139600,51.432480,0 6.153543,51.423302,0 6.174268,51.426031,0 6.183006,51.444603,0 6.181411,51.459424,0 6.171891,51.475460,0 6.154256,51.478697,0 6.135689,51.470868,0 6.129574,51.452129,0
        </coordinates></LinearRing></outerBoundaryIs>
        <innerBoundaryIs><LinearRing><coordinates>
          6.157737,51.443997,0 6.158325,51.450378,0 6.164919,51.448843,0 6.163690,51.443657,0 6.157737,51.443997,0
        </coordinates></LinearRing></innerBoundaryIs>
      </Polygon>
    </Placemark>
    <Placemark>
      <name>obstacle_14</name>
      <Polygon>
        <outerBoundaryIs><LinearRing><coordinates>
          6.155056,51.367021,0 6.128038,51.378264,0 6.108510,51.362499,0 6.114427,51.329238,0 6.140992,51.322839,0 6.160620,51.338130,0 6.155056,51.367021,0
        </coordinates></LinearRing></outerBoundaryIs>
        <innerBoundaryIs><LinearRing><coordinates>
          6.130300,51.351346,0 6.127693,51.354940,0 6.131585,51.357153,0 6.133315,51.353830,0 6.130300,51.351346,0
        </coordinates></LinearRing></innerBoundaryIs>
        <innerBoundaryIs><LinearRing><coordinates>
          6.148336,51.347241,0 6.144127,51.341897,0 6.140273,51.346551,0 6.143625,51.350407,0 6.148336,51.347241,0
        </coordinates></LinearRing></innerBoundaryIs>
        <innerBoundaryIs><LinearRing><coordinates>
          6.132603,51.360426,0 6.134516,51.364020,0 6.138331,51.363410,0 6.137002,51.358180,0 6.132603,51.360426,0
        </coordinates></LinearRing></innerBoundaryIs>
        <innerBoundaryIs><LinearRing><coordinates>
          6.135343,51.347844,0 6.136608,51.341481,0 6.130928,51.339952,0 6.128788,51.345954,0 6.135343,51.347844,0
        </coordinates></LinearRing></innerBoundaryIs>
      </Polygon>
    </Placemark>
    <Placemark>
      <name>obstacle_15</name>
      <Polygon>
        <outerBoundaryIs><LinearRing><coordinates>
          6.020351,51.264431,0 6.012192,51.250112,0 6.016921,51.227742,0 6.028933,51.215262,0 6.055319,51.219434,0 6.066233,51.237917,0 6.061243,51.256105,0 6.041641,51.269596,0 6.020351,51.264431,0
        </coordinates></LinearRing></outerBoundaryIs>
        <innerBoundaryIs><LinearRing><coordinates>
          6.029849,51.243710,0 6.034198,51.245221,0 6.037691,51.240722,0 6.035175,51.235776,0 6.029749,51.238127,0 6.029849,51.243710,0
        </coordinates></LinearRing></innerBoundaryIs>
        <innerBoundaryIs><LinearRing><coordinates>
          6.043175,51.247804,0 6.038636,51.248621,0 6.039756,51.253018,0 6.043934,51.252214,0 6.043175,51.247804,0
        </coordinates></LinearRing></innerBoundaryIs>
      </Polygon>
    </Placemark>
    <Placemark>
      <name>obstacle_16</name>
      <Polygon>
        <outerBoundaryIs><LinearRing><coordinates>
          6.440199,51.269794,0 6.433685,51.253993,0 6.440194,51.236325,0 6.456866,51.226405,0 6.474463,51.233962,0 6.486994,51.254645,0 6.475082,51.274286,0 6.457079,51.282209,0 6.440199,51.269794,0
        </coordinates></LinearRing></outerBoundaryIs>
        <innerBoundaryIs><LinearRing><coordinates>
          6.467340,51.260437,0 6.465497,51.255694,0 6.460830,51.253921,0 6.457137,51.258061,0 6.457953,51.262888,0 6.463120,51.263524,0 6.467340,51.260437,0
        </coordinates></LinearRing></innerBoundaryIs>
        <innerBoundaryIs><LinearRing><coordinates>
          6.456256,51.249556,0 6.460966,51.243972,0 6.457526,51.239773,0 6.451855,51.241301,0 6.452015,51.247928,0 6.456256,51.249556,0
        </coordinates></LinearRing></innerBoundaryIs>
      </Polygon>
    </Placemark>
    <Placemark>
      <name>obstacle_17</name>
      <Polygon>
        <outerBoundaryIs><LinearRing><coordinates>
          6.063481,51.377145,0 6.046431,51.380770,0 6.035884,51.375221,0 6.021779,51.360837,0 6.022427,51.343042,0 6.034432,51.332779,0 6.052599,51.326369,0 6.064277,51.332094,0 6.077782,51.349246,0 6.077519,51.363174,0 6.063481,51.377145,0
        </coordinates></LinearRing></outerBoundaryIs>
        <innerBoundaryIs><LinearRing><coordinates>
          6.046734,51.351543,0 6.046036,51.348731,0 6.041683,51.348523,0 6.040387,51.351876,0 6.042995,51.353682,0 6.046734,51.351543,0
        </coordinates></LinearRing></innerBoundaryIs>
        <innerBoundaryIs><LinearRing><coordinates>
          6.063213,51.355781,0 6.062100,51.351471,0 6.056661,51.351827,0 6.054828,51.355555,0 6.057180,51.358468,0 6.061496,51.359218,0 6.063213,51.355781,0
        </coordinates></LinearRing></innerBoundaryIs>
        <innerBoundaryIs><LinearRing><coordinates>
          6.039054,51.366369,0 6.045024,51.367287,0 6.046366,51.362150,0 6.040920,51.360722,0 6.039054,51.366369,0
        </coordinates></LinearRing></innerBoundaryIs>
        <innerBoundaryIs><LinearRing><coordinates>
          6.052729,51.356307,0 6.050057,51.356552,0 6.049012,51.358675,0 6.050625,51.361459,0 6.053071,51.361504,0 6.054509,51.358276,0 6.052729,51.356307,0
        </coordinates></LinearRing></innerBoundaryIs>
        <innerBoundaryIs><LinearRing><coordinates>
          6.056117,51.345036,0 6.056538,51.341840,0 6.054798,51.340392,0 6.052030,51.341378,0 6.051420,51.343631,0 6.053199,51.345751,0 6.056117,51.345036,0
        </coordinates></LinearRing></innerBoundaryIs>
      </Polygon>
    </Placemark>
  </Document>
</kml>
