<?xml version="1.0" encoding="UTF-8"?>
<kml xmlns="http://www.opengis.net/kml/2.2">
  <Document>
    <name>pyvisgraph benchmark map 16 - 45 obstacles</name>
    <Placemark>
      <name>obstacle_0</name>
      <Polygon>
        <outerBoundaryIs><LinearRing><coordinates>
          6.461121,51.352346,0 6.456093,51.361353,0 6.448430,51.360874,0 6.442537,51.365361,0 6.429604,51.345798,0 6.450270,51.336688,0 6.456527,51.332132,0 6.462954,51.345803,0 6.461121,51.352346,0
        </coordinates></LinearRing></outerBoundaryIs>
      </Polygon>
    </Placemark>
    <Placemark>
      <name>obstacle_1</name>
      <Polygon>
        <outerBoundaryIs><LinearRing><coordinates>
          6.470279,51.361114,0 6.466943,51.365368,0 6.446275,51.341872,0 6.449322,51.340271,0 6.448628,51.335407,0 6.461591,51.337392,0 6.468713,51.348836,0 6.470279,51.361114,0
        </coordinates></LinearRing></outerBoundaryIs>
      </Polygon>
    </Placemark>
    <Placemark>
      <name>obstacle_2</name>
      <Polygon>
        <outerBoundaryIs><LinearRing><coordinates>
          6.452294,51.354545,0 6.455930,51.357950,0 6.456209,51.361257,0 6.444024,51.360661,0 6.452294,51.354545,0
        </coordinates></LinearRing></outerBoundaryIs>
      </Polygon>
    </Placemark>
    <Placemark>
      <name>obstacle_3</name>
      <Polygon>
        <outerBoundaryIs><LinearRing><coordinates>
          6.364279,51.468236,0 6.354797,51.474031,0 6.354268,51.474042,0 6.337149,51.449404,0 6.343777,51.446634,0 6.364279,51.468236,0
        </coordinates></LinearRing></outerBoundaryIs>
      </Polygon>
    </Placemark>
    <Placemark>
      <name>obstacle_4</name>
      <Polygon>
        <outerBoundaryIs><LinearRing><coordinates>
          6.366805,51.456345,0 6.367527,51.457249,0 6.359112,51.468438,0 6.341347,51.453685,0 6.347782,51.442700,0 6.367993,51.446886,0 6.366805,51.456345,0
        </coordinates></LinearRing></outerBoundaryIs>
      </Polygon>
    </Placemark>
    <Placemark>
      <name>obstacle_5</name>
      <Polygon>
        <outerBoundaryIs><LinearRing><coordinates>
          6.357597,51.471642,0 6.353134,51.473234,0 6.351234,51.468213,0 6.336104,51.460897,0 6.344128,51.444012,0 6.360444,51.444447,0 6.360813,51.444951,0 6.357597,51.471642,0
        </coordinates></LinearRing></outerBoundaryIs>
      </Polygon>
    </Placemark>
    <Placemark>
      <name>obstacle_6</name>
      <Polygon>
        <outerBoundaryIs><LinearRing><coordinates>
          6.155974,51.452315,0 6.150804,51.450798,0 6.145685,51.453754,0 6.127552,51.447217,0 6.125440,51.435584,0 6.143819,51.425473,0 6.158703,51.440626,0 6.155974,51.452315,0
        </coordinates></LinearRing></outerBoundaryIs>
      </Polygon>
    </Placemark>
    <Placemark>
      <name>obstacle_7</name>
      <Polygon>
        <outerBoundaryIs><LinearRing><coordinates>
          6.150942,51.456685,0 6.134542,51.452488,0 6.134358,51.451089,0 6.144954,51.427916,0 6.150942,51.456685,0
        </coordinates></LinearRing></outerBoundaryIs>
      </Polygon>
    </Placemark>
    <Placemark>
      <name>obstacle_8</name>
      <Polygon>
        <outerBoundaryIs><LinearRing><coordinates>
          6.150496,51.447341,0 6.140934,51.460350,0 6.133618,51.455125,0 6.121440,51.453572,0 6.121938,51.430982,0 6.124888,51.428987,0 6.125908,51.425482,0 6.150496,51.447341,0
        </coordinates></LinearRing></outerBoundaryIs>
      </Polygon>
    </Placemark>
    <Placemark>
      <name>obstacle_9</name>
      <Polygon>
        <outerBoundaryIs><LinearRing><coordinates>
          6.063237,51.069007,0 6.041388,51.062176,0 6.041963,51.061140,0 6.039610,51.060644,0 6.051699,51.044856,0 6.063237,51.069007,0
        </coordinates></LinearRing></outerBoundaryIs>
      </Polygon>
    </Placemark>
    <Placemark>
      <name>obstacle_10</name>
      <Polygon>
        <outerBoundaryIs><LinearRing><coordinates>
          6.061282,51.073736,0 6.061715,51.081033,0 6.043532,51.054003,0 6.054713,51.049406,0 6.061282,51.073736,0
        </coordinates></LinearRing></outerBoundaryIs>
      </Polygon>
    </Placemark>
    <Placemark>
      <name>obstacle_11</name>
      <Polygon>
        <outerBoundaryIs><LinearRing><coordinates>
          6.058953,51.060298,0 6.055629,51.064302,0 6.035805,51.056089,0 6.034534,51.046477,0 6.045136,51.035884,0 6.059109,51.042959,0 6.060688,51.047515,0 6.058953,51.060298,0
        </coordinates></LinearRing></outerBoundaryIs>
      </Polygon>
    </Placemark>
    <Placemark>
      <name>obstacle_12</name>
      <Polygon>
        <outerBoundaryIs><LinearRing><coordinates>
          6.165110,51.256522,0 6.156453,51.269590,0 6.139307,51.263485,0 6.163314,51.242212,0 6.165110,51.256522,0
        </coordinates></LinearRing></outerBoundaryIs>
      </Polygon>
    </Placemark>
    <Placemark>
      <name>obstacle_13</name>
      <Polygon>
        <outerBoundaryIs><LinearRing><coordinates>
          6.162850,51.261207,0 6.165810,51.263705,0 6.155953,51.270698,0 6.136870,51.273008,0 6.136794,51.263743,0 6.136766,51.241105,0 6.161159,51.254064,0 6.167249,51.256480,0 6.162850,51.261207,0
        </coordinates></LinearRing></outerBoundaryIs>
      </Polygon>
    </Placemark>
    <Placemark>
      <name>obstacle_14</name>
      <Polygon>
        <outerBoundaryIs><LinearRing><coordinates>
          6.143327,51.266119,0 6.135757,51.247452,0 6.137321,51.238329,0 6.137568,51.238253,0 6.158298,51.251327,0 6.143327,51.266119,0
        </coordinates></LinearRing></outerBoundaryIs>
      </Polygon>
    </Placemark>
    <Placemark>
      <name>obstacle_15</name>
      <Polygon>
        <outerBoundaryIs><LinearRing><coordinates>
          6.459358,51.461715,0 6.452748,51.465612,0 6.439552,51.466202,0 6.430399,51.459969,0 6.424755,51.460582,0 6.430518,51.442215,0 6.435909,51.435595,0 6.459358,51.461715,0
        </coordinates></LinearRing></outerBoundaryIs>
      </Polygon>
    </Placemark>
    <Placemark>
      <name>obstacle_16</name>
      <Polygon>
        <outerBoundaryIs><LinearRing><coordinates>
          6.435232,51.468789,0 6.435033,51.441196,0 6.455721,51.440588,0 6.461777,51.446519,0 6.435232,51.468789,0
        </coordinates></LinearRing></outerBoundaryIs>
      </Polygon>
    </Placemark>
    <Placemark>
      <name>obstacle_17</name>
      <Polygon>
        <outerBoundaryIs><LinearRing><coordinates>
          6.160801,51.348330,0 6.140650,51.359810,0 6.137301,51.330772,0 6.139852,51.333155,0 6.152730,51.336169,0 6.160801,51.348330,0
        </coordinates></LinearRing></outerBoundaryIs>
      </Polygon>
    </Placemark>
    <Placemark>
      <name>obstacle_18</name>
      <Polygon>
        <outerBoundaryIs><LinearRing><coordinates>
          6.155532,51.360057,0 6.142239,51.359684,0 6.147338,51.328618,0 6.149326,51.333418,0 6.149769,51.333101,0 6.156884,51.331074,0 6.154247,51.335938,0 6.160551,51.344168,0 6.155532,51.360057,0
        </coordinates></LinearRing></outerBoundaryIs>
      </Polygon>
    </Placemark>
    <Placemark>
      <name>obstacle_19</name>
      <Polygon>
        <outerBoundaryIs><LinearRing><coordinates>
          6.133416,51.338140,0 6.142829,51.329916,0 6.154981,51.329023,0 6.153085,51.332292,0 6.133416,51.338140,0
        </coordinates></LinearRing></outerBoundaryIs>
      </Polygon>
    </Placemark>
    <Placemark>
      <name>obstacle_20</name>
      <Polygon>
        <outerBoundaryIs><LinearRing><coordinates>
          6.459984,51.167405,0 6.452597,51.168357,0 6.440513,51.163659,0 6.438039,51.156144,0 6.447471,51.145805,0 6.473131,51.146668,0 6.459984,51.167405,0
        </coordinates></LinearRing></outerBoundaryIs>
      </Polygon>
    </Placemark>
    <Placemark>
      <name>obstacle_21</name>
      <Polygon>
        <outerBoundaryIs><LinearRing><coordinates>
          6.470578,51.156166,0 6.452455,51.164831,0 6.441382,51.131445,0 6.454941,51.130948,0 6.470448,51.137389,0 6.470578,51.156166,0
        </coordinates></LinearRing></outerBoundaryIs>
      </Polygon>
    </Placemark>
    <Placemark>
      <name>obstacle_22</name>
      <Polygon>
        <outerBoundaryIs><LinearRing><coordinates>
          6.043979,51.452691,0 6.042655,51.447083,0 6.042266,51.444521,0 6.067837,51.440900,0 6.043979,51.452691,0
        </coordinates></LinearRing></outerBoundaryIs>
      </Polygon>
    </Placemark>
    <Placemark>
      <name>obstacle_23</name>
      <Polygon>
        <outerBoundaryIs><LinearRing><coordinates>
          6.064884,51.457234,0 6.050782,51.472357,0 6.042988,51.464859,0 6.036951,51.454015,0 6.069307,51.452210,0 6.064884,51.457234,0
        </coordinates></LinearRing></outerBoundaryIs>
      </Polygon>
    </Placemark>
    <Placemark>
      <name>obstacle_24</name>
      <Polygon>
        <outerBoundaryIs><LinearRing><coordinates>
          6.065376,51.447789,0 6.052424,51.463948,0 6.038512,51.454895,0 6.057323,51.434958,0 6.061516,51.437315,0 6.069172,51.439391,0 6.065376,51.447789,0
        </coordinates></LinearRing></outerBoundaryIs>
      </Polygon>
    </Placemark>
    <Placemark>
      <name>obstacle_25</name>
      <Polygon>
        <outerBoundaryIs><LinearRing><coordinates>
          6.366564,51.253343,0 6.368543,51.258224,0 6.344255,51.268385,0 6.340981,51.260207,0 6.370835,51.245499,0 6.366564,51.253343,0
        </coordinates></LinearRing></outerBoundaryIs>
      </Polygon>
    </Placemark>
    <Placemark>
      <name>obstacle_26</name>
      <Polygon>
        <outerBoundaryIs><LinearRing><coordinates>
          6.373253,51.263060,0 6.369300,51.264387,0 6.367375,51.267338,0 6.366874,51.270489,0 6.356288,51.275458,0 6.366376,51.240179,0 6.373253,51.263060,0
        </coordinates></LinearRing></outerBoundaryIs>
      </Polygon>
    </Placemark>
    <Placemark>
      <name>obstacle_27</name>
      <Polygon>
        <outerBoundaryIs><LinearRing><coordinates>
          6.369044,51.255674,0 6.359173,51.263353,0 6.344329,51.259532,0 6.362534,51.236238,0 6.369044,51.255674,0
        </coordinates></LinearRing></outerBoundaryIs>
      </Polygon>
    </Placemark>
    <Placemark>
      <name>obstacle_28</name>
      <Polygon>
        <outerBoundaryIs><LinearRing><coordinates>
          6.463425,51.049709,0 6.461016,51.052046,0 6.439059,51.037779,0 6.435417,51.035745,0 6.441685,51.029061,0 6.450793,51.026055,0 6.462813,51.033874,0 6.466717,51.037556,0 6.463425,51.049709,0
        </coordinates></LinearRing></outerBoundaryIs>
      </Polygon>
    </Placemark>
    <Placemark>
      <name>obstacle_29</name>
      <Polygon>
        <outerBoundaryIs><LinearRing><coordinates>
          6.471158,51.053480,0 6.457149,51.064221,0 6.444887,51.036296,0 6.448530,51.031732,0 6.458794,51.032996,0 6.463465,51.035715,0 6.471158,51.053480,0
        </coordinates></LinearRing></outerBoundaryIs>
      </Polygon>
    </Placemark>
    <Placemark>
      <name>obstacle_30</name>
      <Polygon>
        <outerBoundaryIs><LinearRing><coordinates>
          6.248120,51.465727,0 6.241950,51.467932,0 6.229329,51.466188,0 6.226439,51.464941,0 6.248120,51.465727,0
        </coordinates></LinearRing></outerBoundaryIs>
      </Polygon>
    </Placemark>
    <Placemark>
      <name>obstacle_31</name>
      <Polygon>
        <outerBoundaryIs><LinearRing><coordinates>
          6.256376,51.470981,0 6.236814,51.468913,0 6.234921,51.467096,0 6.233421,51.466944,0 6.229855,51.454392,0 6.244069,51.442666,0 6.260803,51.445775,0 6.260621,51.454435,0 6.256376,51.470981,0
        </coordinates></LinearRing></outerBoundaryIs>
      </Polygon>
    </Placemark>
    <Placemark>
      <name>obstacle_32</name>
      <Polygon>
        <outerBoundaryIs><LinearRing><coordinates>
          6.464015,51.265879,0 6.461799,51.268940,0 6.449462,51.278377,0 6.434509,51.257594,0 6.441843,51.248290,0 6.453882,51.245024,0 6.463382,51.257992,0 6.464015,51.265879,0
        </coordinates></LinearRing></outerBoundaryIs>
      </Polygon>
    </Placemark>
    <Placemark>
      <name>obstacle_33</name>
      <Polygon>
        <outerBoundaryIs><LinearRing><coordinates>
          6.446625,51.271265,0 6.442361,51.266851,0 6.436517,51.258382,0 6.434510,51.259125,0 6.433839,51.241902,0 6.443001,51.239341,0 6.450279,51.238336,0 6.461402,51.242215,0 6.446625,51.271265,0
        </coordinates></LinearRing></outerBoundaryIs>
      </Polygon>
    </Placemark>
    <Placemark>
      <name>obstacle_34</name>
      <Polygon>
        <outerBoundaryIs><LinearRing><coordinates>
          6.251269,51.065966,0 6.248489,51.066716,0 6.246327,51.044478,0 6.250269,51.042588,0 6.260931,51.042815,0 6.268898,51.047813,0 6.251269,51.065966,0
        </coordinates></LinearRing></outerBoundaryIs>
      </Polygon>
    </Placemark>
    <Placemark>
      <name>obstacle_35</name>
      <Polygon>
        <outerBoundaryIs><LinearRing><coordinates>
          6.272309,51.054072,0 6.257636,51.068565,0 6.250830,51.063089,0 6.246198,51.058895,0 6.241420,51.042418,0 6.246619,51.040067,0 6.262169,51.036044,0 6.268616,51.034891,0 6.272309,51.054072,0
        </coordinates></LinearRing></outerBoundaryIs>
      </Polygon>
    </Placemark>
    <Placemark>
      <name>obstacle_36</name>
      <Polygon>
        <outerBoundaryIs><LinearRing><coordinates>
          6.248633,51.070203,0 6.247725,51.064145,0 6.239514,51.065128,0 6.238381,51.050763,0 6.248871,51.034466,0 6.259183,51.039957,0 6.248633,51.070203,0
        </coordinates></LinearRing></outerBoundaryIs>
      </Polygon>
    </Placemark>
    <Placemark>
      <name>obstacle_37</name>
      <Polygon>
        <outerBoundaryIs><LinearRing><coordinates>
          6.358058,51.164152,0 6.345795,51.151606,0 6.340636,51.150773,0 6.340524,51.150680,0 6.353459,51.135346,0 6.368533,51.137893,0 6.358058,51.164152,0
        </coordinates></LinearRing></outerBoundaryIs>
      </Polygon>
    </Placemark>
    <Placemark>
      <name>obstacle_38</name>
      <Polygon>
        <outerBoundaryIs><LinearRing><coordinates>
          6.367622,51.158508,0 6.355261,51.160379,0 6.354412,51.164205,0 6.347562,51.167214,0 6.340603,51.162569,0 6.345807,51.135152,0 6.367622,51.158508,0
        </coordinates></LinearRing></outerBoundaryIs>
      </Polygon>
    </Placemark>
    <Placemark>
      <name>obstacle_39</name>
      <Polygon>
        <outerBoundaryIs><LinearRing><coordinates>
          6.349279,51.168182,0 6.342810,51.162522,0 6.351293,51.135513,0 6.353084,51.137205,0 6.362078,51.135434,0 6.349279,51.168182,0
        </coordinates></LinearRing></outerBoundaryIs>
      </Polygon>
    </Placemark>
    <Placemark>
      <name>obstacle_40</name>
      <Polygon>
        <outerBoundaryIs><LinearRing><coordinates>
          6.059052,51.366246,0 6.048645,51.371017,0 6.027805,51.365465,0 6.027458,51.365571,0 6.035597,51.350668,0 6.047271,51.342706,0 6.059052,51.366246,0
        </coordinates></LinearRing></outerBoundaryIs>
      </Polygon>
    </Placemark>
    <Placemark>
      <name>obstacle_41</name>
      <Polygon>
        <outerBoundaryIs><LinearRing><coordinates>
          6.047250,51.365309,0 6.035845,51.369411,0 6.035006,51.343987,0 6.039309,51.342135,0 6.048299,51.341243,0 6.048610,51.344467,0 6.047250,51.365309,0
        </coordinates></LinearRing></outerBoundaryIs>
      </Polygon>
    </Placemark>
    <Placemark>
      <name>obstacle_42</name>
      <Polygon>
        <outerBoundaryIs><LinearRing><coordinates>
          6.068100,51.361168,0 6.055438,51.376023,0 6.040902,51.370644,0 6.039415,51.368954,0 6.029963,51.356165,0 6.068100,51.361168,0
        </coordinates></LinearRing></outerBoundaryIs>
      </Polygon>
    </Placemark>
    <Placemark>
      <name>obstacle_43</name>
      <Polygon>
        <outerBoundaryIs><LinearRing><coordinates>
          6.242802,51.150230,0 6.234368,51.147685,0 6.233418,51.146825,0 6.255335,51.129273,0 6.242802,51.150230,0
        </coordinates></LinearRing></outerBoundaryIs>
      </Polygon>
    </Placemark>
    <Placemark>
      <name>obstacle_44</name>
      <Polygon>
        <outerBoundaryIs><LinearRing><coordinates>
          6.262458,51.142931,0 6.256893,51.147159,0 6.251591,51.152928,0 6.243516,51.159108,0 6.240553,51.159400,0 6.248012,51.130207,0 6.249604,51.125957,0 6.262458,51.142931,0
        </coordinates></LinearRing></outerBoundaryIs>
      </Polygon>
    </Placemark>
  </Document>
</kml>
