<?xml version="1.0" encoding="UTF-8"?>
<kml xmlns="http://www.opengis.net/kml/2.2">
  <Document>
    <name>pyvisgraph benchmark map 06 - 45 obstacles</name>
    <Placemark>
      <name>obstacle_0</name>
      <Polygon>
        <outerBoundaryIs><LinearRing><coordinates>
          6.100614,51.164739,0 6.077352,51.152154,0 6.081194,51.143298,0 6.101911,51.139283,0 6.106700,51.141586,0 6.109095,51.148034,0 6.100614,51.164739,0
        </coordinates></LinearRing></outerBoundaryIs>
      </Polygon>
    </Placemark>
    <Placemark>
      <name>obstacle_1</name>
      <Polygon>
        <outerBoundaryIs><LinearRing><coordinates>
          6.217217,51.485670,0 6.214202,51.483697,0 6.210197,51.481339,0 6.202502,51.477334,0 6.198428,51.459503,0 6.199616,51.459050,0 6.208466,51.452776,0 6.219620,51.455026,0 6.217217,51.485670,0
        </coordinates></LinearRing></outerBoundaryIs>
      </Polygon>
    </Placemark>
    <Placemark>
      <name>obstacle_2</name>
      <Polygon>
        <outerBoundaryIs><LinearRing><coordinates>
          6.421453,51.037937,0 6.413048,51.041125,0 6.389011,51.042903,0 6.388022,51.040120,0 6.403522,51.015491,0 6.421821,51.031750,0 6.421453,51.037937,0
        </coordinates></LinearRing></outerBoundaryIs>
      </Polygon>
    </Placemark>
    <Placemark>
      <name>obstacle_3</name>
      <Polygon>
        <outerBoundaryIs><LinearRing><coordinates>
          6.145255,51.043893,0 6.138691,51.040522,0 6.142089,51.036075,0 6.151161,51.023128,0 6.145255,51.043893,0
        </coordinates></LinearRing></outerBoundaryIs>
      </Polygon>
    </Placemark>
    <Placemark>
      <name>obstacle_4</name>
      <Polygon>
        <outerBoundaryIs><LinearRing><coordinates>
          6.042319,51.163982,0 6.036477,51.163823,0 6.021877,51.146530,0 6.042524,51.132467,0 6.042319,51.163982,0
        </coordinates></LinearRing></outerBoundaryIs>
      </Polygon>
    </Placemark>
    <Placemark>
      <name>obstacle_5</name>
      <Polygon>
        <outerBoundaryIs><LinearRing><coordinates>
          6.047827,51.040438,0 6.037434,51.045874,0 6.032904,51.047191,0 6.026206,51.042431,0 6.025362,51.032009,0 6.023625,51.031903,0 6.043858,51.016931,0 6.047827,51.040438,0
        </coordinates></LinearRing></outerBoundaryIs>
      </Polygon>
    </Placemark>
    <Placemark>
      <name>obstacle_6</name>
      <Polygon>
        <outerBoundaryIs><LinearRing><coordinates>
          6.103310,51.093971,0 6.107809,51.099513,0 6.088778,51.105221,0 6.076039,51.098731,0 6.104715,51.088109,0 6.103310,51.093971,0
        </coordinates></LinearRing></outerBoundaryIs>
      </Polygon>
    </Placemark>
    <Placemark>
      <name>obstacle_7</name>
      <Polygon>
        <outerBoundaryIs><LinearRing><coordinates>
          6.369192,51.164487,0 6.361722,51.177109,0 6.350138,51.177953,0 6.362301,51.157137,0 6.369192,51.164487,0
        </coordinates></LinearRing></outerBoundaryIs>
      </Polygon>
    </Placemark>
    <Placemark>
      <name>obstacle_8</name>
      <Polygon>
        <outerBoundaryIs><LinearRing><coordinates>
          6.292368,51.345224,0 6.276710,51.352909,0 6.270052,51.354818,0 6.268022,51.326806,0 6.271277,51.330654,0 6.292368,51.345224,0
        </coordinates></LinearRing></outerBoundaryIs>
      </Polygon>
    </Placemark>
    <Placemark>
      <name>obstacle_9</name>
      <Polygon>
        <outerBoundaryIs><LinearRing><coordinates>
          6.224825,51.415826,0 6.198230,51.410863,0 6.196448,51.394828,0 6.203706,51.390263,0 6.217179,51.394577,0 6.223343,51.396596,0 6.222170,51.399214,0 6.221265,51.400175,0 6.224825,51.415826,0
        </coordinates></LinearRing></outerBoundaryIs>
      </Polygon>
    </Placemark>
    <Placemark>
      <name>obstacle_10</name>
      <Polygon>
        <outerBoundaryIs><LinearRing><coordinates>
          6.488732,51.344852,0 6.470038,51.349796,0 6.468652,51.353270,0 6.479950,51.326628,0 6.483782,51.331168,0 6.489942,51.333183,0 6.488732,51.344852,0
        </coordinates></LinearRing></outerBoundaryIs>
      </Polygon>
    </Placemark>
    <Placemark>
      <name>obstacle_11</name>
      <Polygon>
        <outerBoundaryIs><LinearRing><coordinates>
          6.362809,51.472767,0 6.337628,51.483873,0 6.345467,51.456627,0 6.360189,51.465100,0 6.362809,51.472767,0
        </coordinates></LinearRing></outerBoundaryIs>
      </Polygon>
    </Placemark>
    <Placemark>
      <name>obstacle_12</name>
      <Polygon>
        <outerBoundaryIs><LinearRing><coordinates>
          6.171506,51.471525,0 6.152262,51.470512,0 6.151569,51.448052,0 6.162917,51.449700,0 6.171506,51.471525,0
        </coordinates></LinearRing></outerBoundaryIs>
      </Polygon>
    </Placemark>
    <Placemark>
      <name>obstacle_13</name>
      <Polygon>
        <outerBoundaryIs><LinearRing><coordinates>
          6.143555,51.274556,0 6.156062,51.263832,0 6.164902,51.259590,0 6.170109,51.261627,0 6.177750,51.268994,0 6.143555,51.274556,0
        </coordinates></LinearRing></outerBoundaryIs>
      </Polygon>
    </Placemark>
    <Placemark>
      <name>obstacle_14</name>
      <Polygon>
        <outerBoundaryIs><LinearRing><coordinates>
          6.419643,51.085210,0 6.397550,51.092959,0 6.392273,51.081943,0 6.390886,51.081230,0 6.408248,51.071203,0 6.414489,51.074005,0 6.414667,51.074458,0 6.417457,51.071481,0 6.419643,51.085210,0
        </coordinates></LinearRing></outerBoundaryIs>
      </Polygon>
    </Placemark>
    <Placemark>
      <name>obstacle_15</name>
      <Polygon>
        <outerBoundaryIs><LinearRing><coordinates>
          6.036020,51.088743,0 6.034924,51.095004,0 6.021609,51.074619,0 6.025256,51.070471,0 6.036020,51.088743,0
        </coordinates></LinearRing></outerBoundaryIs>
      </Polygon>
    </Placemark>
    <Placemark>
      <name>obstacle_16</name>
      <Polygon>
        <outerBoundaryIs><LinearRing><coordinates>
          6.178811,51.095263,0 6.176225,51.096314,0 6.172128,51.095527,0 6.146470,51.094831,0 6.151342,51.083496,0 6.154920,51.072378,0 6.176304,51.077028,0 6.175383,51.084236,0 6.178811,51.095263,0
        </coordinates></LinearRing></outerBoundaryIs>
      </Polygon>
    </Placemark>
    <Placemark>
      <name>obstacle_17</name>
      <Polygon>
        <outerBoundaryIs><LinearRing><coordinates>
          6.477304,51.416657,0 6.475611,51.414495,0 6.475749,51.384771,0 6.476591,51.385300,0 6.484518,51.387196,0 6.477304,51.416657,0
        </coordinates></LinearRing></outerBoundaryIs>
      </Polygon>
    </Placemark>
    <Placemark>
      <name>obstacle_18</name>
      <Polygon>
        <outerBoundaryIs><LinearRing><coordinates>
          6.115729,51.287913,0 6.111865,51.287663,0 6.112203,51.294410,0 6.106280,51.292510,0 6.089399,51.293811,0 6.088303,51.278312,0 6.108006,51.279118,0 6.108338,51.281113,0 6.115729,51.287913,0
        </coordinates></LinearRing></outerBoundaryIs>
      </Polygon>
    </Placemark>
    <Placemark>
      <name>obstacle_19</name>
      <Polygon>
        <outerBoundaryIs><LinearRing><coordinates>
          6.235543,51.159278,0 6.227073,51.165860,0 6.225711,51.166712,0 6.213041,51.154182,0 6.211967,51.144689,0 6.216341,51.140848,0 6.216096,51.134052,0 6.236865,51.147156,0 6.235543,51.159278,0
        </coordinates></LinearRing></outerBoundaryIs>
      </Polygon>
    </Placemark>
    <Placemark>
      <name>obstacle_20</name>
      <Polygon>
        <outerBoundaryIs><LinearRing><coordinates>
          6.288096,51.161027,0 6.260153,51.151414,0 6.258779,51.147507,0 6.260698,51.139372,0 6.288096,51.161027,0
        </coordinates></LinearRing></outerBoundaryIs>
      </Polygon>
    </Placemark>
    <Placemark>
      <name>obstacle_21</name>
      <Polygon>
        <outerBoundaryIs><LinearRing><coordinates>
          6.352618,51.235559,0 6.353183,51.239728,0 6.343036,51.239131,0 6.337281,51.234777,0 6.351493,51.214464,0 6.351307,51.216495,0 6.357104,51.217417,0 6.352618,51.235559,0
        </coordinates></LinearRing></outerBoundaryIs>
      </Polygon>
    </Placemark>
    <Placemark>
      <name>obstacle_22</name>
      <Polygon>
        <outerBoundaryIs><LinearRing><coordinates>
          6.040521,51.425855,0 6.020788,51.423831,0 6.036506,51.402624,0 6.049258,51.406364,0 6.040521,51.425855,0
        </coordinates></LinearRing></outerBoundaryIs>
      </Polygon>
    </Placemark>
    <Placemark>
      <name>obstacle_23</name>
      <Polygon>
        <outerBoundaryIs><LinearRing><coordinates>
          6.363714,51.356627,0 6.342415,51.345071,0 6.343222,51.338917,0 6.357460,51.335743,0 6.359301,51.341237,0 6.362639,51.340505,0 6.363714,51.356627,0
        </coordinates></LinearRing></outerBoundaryIs>
      </Polygon>
    </Placemark>
    <Placemark>
      <name>obstacle_24</name>
      <Polygon>
        <outerBoundaryIs><LinearRing><coordinates>
          6.285806,51.291897,0 6.277924,51.302900,0 6.274548,51.267386,0 6.280507,51.273415,0 6.285806,51.291897,0
        </coordinates></LinearRing></outerBoundaryIs>
      </Polygon>
    </Placemark>
    <Placemark>
      <name>obstacle_25</name>
      <Polygon>
        <outerBoundaryIs><LinearRing><coordinates>
          6.301242,51.222990,0 6.273297,51.218136,0 6.278258,51.203393,0 6.288809,51.196890,0 6.301740,51.199288,0 6.301242,51.222990,0
        </coordinates></LinearRing></outerBoundaryIs>
      </Polygon>
    </Placemark>
    <Placemark>
      <name>obstacle_26</name>
      <Polygon>
        <outerBoundaryIs><LinearRing><coordinates>
          6.481622,51.293215,0 6.463667,51.305295,0 6.459200,51.290500,0 6.458688,51.275598,0 6.463324,51.277613,0 6.471399,51.272190,0 6.481622,51.293215,0
        </coordinates></LinearRing></outerBoundaryIs>
      </Polygon>
    </Placemark>
    <Placemark>
      <name>obstacle_27</name>
      <Polygon>
        <outerBoundaryIs><LinearRing><coordinates>
          6.025684,51.350068,0 6.037506,51.324664,0 6.039377,51.318446,0 6.041263,51.323374,0 6.054895,51.331041,0 6.025684,51.350068,0
        </coordinates></LinearRing></outerBoundaryIs>
      </Polygon>
    </Placemark>
    <Placemark>
      <name>obstacle_28</name>
      <Polygon>
        <outerBoundaryIs><LinearRing><coordinates>
          6.238945,51.217399,0 6.238140,51.222324,0 6.214243,51.217030,0 6.211831,51.213678,0 6.222059,51.194595,0 6.231089,51.197688,0 6.239064,51.197557,0 6.243645,51.210625,0 6.238945,51.217399,0
        </coordinates></LinearRing></outerBoundaryIs>
      </Polygon>
    </Placemark>
    <Placemark>
      <name>obstacle_29</name>
      <Polygon>
        <outerBoundaryIs><LinearRing><coordinates>
          6.147266,51.363901,0 6.142278,51.359825,0 6.134588,51.346131,0 6.135279,51.343724,0 6.153295,51.336057,0 6.158124,51.332930,0 6.156628,51.337495,0 6.164017,51.345393,0 6.147266,51.363901,0
        </coordinates></LinearRing></outerBoundaryIs>
      </Polygon>
    </Placemark>
    <Placemark>
      <name>obstacle_30</name>
      <Polygon>
        <outerBoundaryIs><LinearRing><coordinates>
          6.265752,51.472315,0 6.263062,51.461279,0 6.258508,51.461786,0 6.258688,51.450800,0 6.267619,51.450478,0 6.288900,51.447987,0 6.265752,51.472315,0
        </coordinates></LinearRing></outerBoundaryIs>
      </Polygon>
    </Placemark>
    <Placemark>
      <name>obstacle_31</name>
      <Polygon>
        <outerBoundaryIs><LinearRing><coordinates>
          6.387633,51.219054,0 6.392138,51.207503,0 6.389249,51.203041,0 6.407714,51.206069,0 6.414922,51.215098,0 6.387633,51.219054,0
        </coordinates></LinearRing></outerBoundaryIs>
      </Polygon>
    </Placemark>
    <Placemark>
      <name>obstacle_32</name>
      <Polygon>
        <outerBoundaryIs><LinearRing><coordinates>
          6.356522,51.296229,0 6.352186,51.294876,0 6.328905,51.297930,0 6.329405,51.290190,0 6.331091,51.277691,0 6.347038,51.277837,0 6.352162,51.286010,0 6.357832,51.288589,0 6.356522,51.296229,0
        </coordinates></LinearRing></outerBoundaryIs>
      </Polygon>
    </Placemark>
    <Placemark>
      <name>obstacle_33</name>
      <Polygon>
        <outerBoundaryIs><LinearRing><coordinates>
          6.212170,51.109511,0 6.202811,51.092304,0 6.214210,51.080698,0 6.215184,51.080329,0 6.212170,51.109511,0
        </coordinates></LinearRing></outerBoundaryIs>
      </Polygon>
    </Placemark>
    <Placemark>
      <name>obstacle_34</name>
      <Polygon>
        <outerBoundaryIs><LinearRing><coordinates>
          6.107225,51.039247,0 6.097537,51.056352,0 6.089764,51.053066,0 6.087380,51.028875,0 6.093609,51.025057,0 6.107225,51.039247,0
        </coordinates></LinearRing></outerBoundaryIs>
      </Polygon>
    </Placemark>
    <Placemark>
      <name>obstacle_35</name>
      <Polygon>
        <outerBoundaryIs><LinearRing><coordinates>
          6.098562,51.425293,0 6.073478,51.400425,0 6.092332,51.396257,0 6.097853,51.398215,0 6.099652,51.401218,0 6.098562,51.425293,0
        </coordinates></LinearRing></outerBoundaryIs>
      </Polygon>
    </Placemark>
    <Placemark>
      <name>obstacle_36</name>
      <Polygon>
        <outerBoundaryIs><LinearRing><coordinates>
          6.167621,51.419888,0 6.151758,51.416146,0 6.151910,51.402736,0 6.150002,51.396224,0 6.172682,51.389511,0 6.167621,51.419888,0
        </coordinates></LinearRing></outerBoundaryIs>
      </Polygon>
    </Placemark>
    <Placemark>
      <name>obstacle_37</name>
      <Polygon>
        <outerBoundaryIs><LinearRing><coordinates>
          6.044311,51.224580,0 6.018206,51.224515,0 6.020899,51.221330,0 6.019282,51.206634,0 6.044311,51.224580,0
        </coordinates></LinearRing></outerBoundaryIs>
      </Polygon>
    </Placemark>
    <Placemark>
      <name>obstacle_38</name>
      <Polygon>
        <outerBoundaryIs><LinearRing><coordinates>
          6.226688,51.043647,0 6.221054,51.053609,0 6.209828,51.051258,0 6.199588,51.036674,0 6.200651,51.031119,0 6.202190,51.031607,0 6.204846,51.027830,0 6.226688,51.043647,0
        </coordinates></LinearRing></outerBoundaryIs>
      </Polygon>
    </Placemark>
    <Placemark>
      <name>obstacle_39</name>
      <Polygon>
        <outerBoundaryIs><LinearRing><coordinates>
          6.368183,51.100567,0 6.338191,51.103653,0 6.364454,51.088788,0 6.368471,51.099341,0 6.368183,51.100567,0
        </coordinates></LinearRing></outerBoundaryIs>
      </Polygon>
    </Placemark>
    <Placemark>
      <name>obstacle_40</name>
      <Polygon>
        <outerBoundaryIs><LinearRing><coordinates>
          6.304514,51.418412,0 6.294367,51.426184,0 6.294612,51.430339,0 6.276524,51.422494,0 6.269536,51.412095,0 6.272574,51.412206,0 6.273005,51.404752,0 6.305615,51.414975,0 6.304514,51.418412,0
        </coordinates></LinearRing></outerBoundaryIs>
      </Polygon>
    </Placemark>
    <Placemark>
      <name>obstacle_41</name>
      <Polygon>
        <outerBoundaryIs><LinearRing><coordinates>
          6.418781,51.166497,0 6.402577,51.159710,0 6.399821,51.142356,0 6.418994,51.144889,0 6.418781,51.166497,0
        </coordinates></LinearRing></outerBoundaryIs>
      </Polygon>
    </Placemark>
    <Placemark>
      <name>obstacle_42</name>
      <Polygon>
        <outerBoundaryIs><LinearRing><coordinates>
          6.447640,51.087305,0 6.441590,51.086883,0 6.449044,51.080351,0 6.470879,51.080329,0 6.447640,51.087305,0
        </coordinates></LinearRing></outerBoundaryIs>
      </Polygon>
    </Placemark>
    <Placemark>
      <name>obstacle_43</name>
      <Polygon>
        <outerBoundaryIs><LinearRing><coordinates>
          6.348432,51.428799,0 6.341884,51.432896,0 6.327029,51.417002,0 6.334146,51.403226,0 6.336304,51.401105,0 6.348317,51.399929,0 6.352505,51.403440,0 6.348432,51.428799,0
        </coordinates></LinearRing></outerBoundaryIs>
      </Polygon>
    </Placemark>
    <Placemark>
      <name>obstacle_44</name>
      <Polygon>
        <outerBoundaryIs><LinearRing><coordinates>
          6.389966,51.333025,0 6.395977,51.326640,0 6.412850,51.334145,0 6.411853,51.337108,0 6.389966,51.333025,0
        </coordinates></LinearRing></outerBoundaryIs>
      </Polygon>
    </Placemark>
  </Document>
</kml>
