<?xml version="1.0" encoding="UTF-8"?>
<kml xmlns="http://www.opengis.net/kml/2.2">
  <Document>
    <name>pyvisgraph benchmark map 18 - 80 obstacles</name>
    <Placemark>
      <name>obstacle_0</name>
      <Polygon>
        <outerBoundaryIs><LinearRing><coordinates>
          6.454181,51.329496,0 6.455441,51.328724,0 6.456251,51.327795,0 6.459513,51.318481,0 6.468855,51.313871,0 6.471838,51.316003,0 6.454181,51.329496,0
        </coordinates></LinearRing></outerBoundaryIs>
      </Polygon>
    </Placemark>
    <Placemark>
      <name>obstacle_1</name>
      <Polygon>
        <outerBoundaryIs><LinearRing><coordinates>
          6.475680,51.341203,0 6.455391,51.329210,0 6.461014,51.319068,0 6.462959,51.322186,0 6.469403,51.320535,0 6.470732,51.321894,0 6.477326,51.330065,0 6.475680,51.341203,0
        </coordinates></LinearRing></outerBoundaryIs>
      </Polygon>
    </Placemark>
    <Placemark>
      <name>obstacle_2</name>
      <Polygon>
        <outerBoundaryIs><LinearRing><coordinates>
          6.241386,51.322322,0 6.241823,51.321213,0 6.248711,51.303829,0 6.261827,51.306007,0 6.259801,51.311219,0 6.262903,51.310198,0 6.241386,51.322322,0
        </coordinates></LinearRing></outerBoundaryIs>
      </Polygon>
    </Placemark>
    <Placemark>
      <name>obstacle_3</name>
      <Polygon>
        <outerBoundaryIs><LinearRing><coordinates>
          6.262979,51.322587,0 6.248846,51.335179,0 6.236204,51.323549,0 6.236969,51.317912,0 6.240261,51.318308,0 6.238941,51.313463,0 6.249029,51.312277,0 6.262979,51.322587,0
        </coordinates></LinearRing></outerBoundaryIs>
      </Polygon>
    </Placemark>
    <Placemark>
      <name>obstacle_4</name>
      <Polygon>
        <outerBoundaryIs><LinearRing><coordinates>
          6.331190,51.472178,0 6.318833,51.475407,0 6.309378,51.464593,0 6.315768,51.454807,0 6.318763,51.457213,0 6.325119,51.457277,0 6.330427,51.461009,0 6.333271,51.463745,0 6.331190,51.472178,0
        </coordinates></LinearRing></outerBoundaryIs>
      </Polygon>
    </Placemark>
    <Placemark>
      <name>obstacle_5</name>
      <Polygon>
        <outerBoundaryIs><LinearRing><coordinates>
          6.306478,51.471509,0 6.301749,51.473864,0 6.300238,51.465222,0 6.312878,51.457465,0 6.323385,51.466005,0 6.306478,51.471509,0
        </coordinates></LinearRing></outerBoundaryIs>
      </Polygon>
    </Placemark>
    <Placemark>
      <name>obstacle_6</name>
      <Polygon>
        <outerBoundaryIs><LinearRing><coordinates>
          6.334097,51.475409,0 6.332010,51.474116,0 6.320530,51.480740,0 6.314028,51.477800,0 6.316139,51.459126,0 6.319331,51.457988,0 6.334097,51.475409,0
        </coordinates></LinearRing></outerBoundaryIs>
      </Polygon>
    </Placemark>
    <Placemark>
      <name>obstacle_7</name>
      <Polygon>
        <outerBoundaryIs><LinearRing><coordinates>
          6.253441,51.115880,0 6.239588,51.103770,0 6.257984,51.094929,0 6.260734,51.098201,0 6.253441,51.115880,0
        </coordinates></LinearRing></outerBoundaryIs>
      </Polygon>
    </Placemark>
    <Placemark>
      <name>obstacle_8</name>
      <Polygon>
        <outerBoundaryIs><LinearRing><coordinates>
          6.263957,51.106477,0 6.259324,51.115446,0 6.242996,51.108908,0 6.247730,51.095267,0 6.266268,51.100678,0 6.265530,51.105123,0 6.263957,51.106477,0
        </coordinates></LinearRing></outerBoundaryIs>
      </Polygon>
    </Placemark>
    <Placemark>
      <name>obstacle_9</name>
      <Polygon>
        <outerBoundaryIs><LinearRing><coordinates>
          6.253365,51.111513,0 6.247808,51.108321,0 6.240541,51.096190,0 6.248910,51.086897,0 6.263843,51.094623,0 6.253365,51.111513,0
        </coordinates></LinearRing></outerBoundaryIs>
      </Polygon>
    </Placemark>
    <Placemark>
      <name>obstacle_10</name>
      <Polygon>
        <outerBoundaryIs><LinearRing><coordinates>
          6.397564,51.181174,0 6.385942,51.191000,0 6.385820,51.185701,0 6.375758,51.176849,0 6.377457,51.168969,0 6.379081,51.169701,0 6.390743,51.167912,0 6.397613,51.176894,0 6.397564,51.181174,0
        </coordinates></LinearRing></outerBoundaryIs>
      </Polygon>
    </Placemark>
    <Placemark>
      <name>obstacle_11</name>
      <Polygon>
        <outerBoundaryIs><LinearRing><coordinates>
          6.403838,51.176030,0 6.393224,51.183851,0 6.384650,51.178649,0 6.398266,51.162850,0 6.399978,51.165487,0 6.402104,51.173485,0 6.403838,51.176030,0
        </coordinates></LinearRing></outerBoundaryIs>
      </Polygon>
    </Placemark>
    <Placemark>
      <name>obstacle_12</name>
      <Polygon>
        <outerBoundaryIs><LinearRing><coordinates>
          6.389307,51.111585,0 6.383149,51.099970,0 6.389833,51.097496,0 6.392653,51.092896,0 6.395390,51.091817,0 6.389307,51.111585,0
        </coordinates></LinearRing></outerBoundaryIs>
      </Polygon>
    </Placemark>
    <Placemark>
      <name>obstacle_13</name>
      <Polygon>
        <outerBoundaryIs><LinearRing><coordinates>
          6.407738,51.116026,0 6.395501,51.122280,0 6.388900,51.114691,0 6.385850,51.110236,0 6.406136,51.103886,0 6.405590,51.106170,0 6.409802,51.105851,0 6.405857,51.107112,0 6.407738,51.116026,0
        </coordinates></LinearRing></outerBoundaryIs>
      </Polygon>
    </Placemark>
    <Placemark>
      <name>obstacle_14</name>
      <Polygon>
        <outerBoundaryIs><LinearRing><coordinates>
          6.325345,51.398924,0 6.318181,51.397801,0 6.313052,51.397542,0 6.306770,51.383963,0 6.330036,51.384298,0 6.325345,51.398924,0
        </coordinates></LinearRing></outerBoundaryIs>
      </Polygon>
    </Placemark>
    <Placemark>
      <name>obstacle_15</name>
      <Polygon>
        <outerBoundaryIs><LinearRing><coordinates>
          6.322499,51.404692,0 6.320728,51.404425,0 6.316087,51.402752,0 6.326679,51.383154,0 6.326876,51.386084,0 6.332079,51.390183,0 6.322499,51.404692,0
        </coordinates></LinearRing></outerBoundaryIs>
      </Polygon>
    </Placemark>
    <Placemark>
      <name>obstacle_16</name>
      <Polygon>
        <outerBoundaryIs><LinearRing><coordinates>
          6.325483,51.401692,0 6.323142,51.403500,0 6.320939,51.407336,0 6.316610,51.406088,0 6.305427,51.394306,0 6.325483,51.401692,0
        </coordinates></LinearRing></outerBoundaryIs>
      </Polygon>
    </Placemark>
    <Placemark>
      <name>obstacle_17</name>
      <Polygon>
        <outerBoundaryIs><LinearRing><coordinates>
          6.190842,51.249215,0 6.169972,51.256337,0 6.169841,51.252376,0 6.167742,51.251235,0 6.168296,51.238474,0 6.180006,51.231946,0 6.184912,51.237179,0 6.190842,51.249215,0
        </coordinates></LinearRing></outerBoundaryIs>
      </Polygon>
    </Placemark>
    <Placemark>
      <name>obstacle_18</name>
      <Polygon>
        <outerBoundaryIs><LinearRing><coordinates>
          6.176868,51.254356,0 6.163640,51.240252,0 6.167210,51.231378,0 6.177578,51.232392,0 6.179330,51.235397,0 6.185829,51.240652,0 6.176868,51.254356,0
        </coordinates></LinearRing></outerBoundaryIs>
      </Polygon>
    </Placemark>
    <Placemark>
      <name>obstacle_19</name>
      <Polygon>
        <outerBoundaryIs><LinearRing><coordinates>
          6.181447,51.257764,0 6.178382,51.254869,0 6.177571,51.252868,0 6.176899,51.252280,0 6.168937,51.244242,0 6.172593,51.240813,0 6.179912,51.235804,0 6.190951,51.237475,0 6.181447,51.257764,0
        </coordinates></LinearRing></outerBoundaryIs>
      </Polygon>
    </Placemark>
    <Placemark>
      <name>obstacle_20</name>
      <Polygon>
        <outerBoundaryIs><LinearRing><coordinates>
          6.394515,51.474592,0 6.390025,51.472441,0 6.385154,51.455882,0 6.389609,51.453924,0 6.405238,51.460350,0 6.394515,51.474592,0
        </coordinates></LinearRing></outerBoundaryIs>
      </Polygon>
    </Placemark>
    <Placemark>
      <name>obstacle_21</name>
      <Polygon>
        <outerBoundaryIs><LinearRing><coordinates>
          6.386108,51.457388,0 6.389398,51.456192,0 6.393455,51.458624,0 6.401663,51.458450,0 6.398054,51.462464,0 6.386108,51.457388,0
        </coordinates></LinearRing></outerBoundaryIs>
      </Polygon>
    </Placemark>
    <Placemark>
      <name>obstacle_22</name>
      <Polygon>
        <outerBoundaryIs><LinearRing><coordinates>
          6.387734,51.266256,0 6.386233,51.261830,0 6.387841,51.247809,0 6.401505,51.251248,0 6.406810,51.253394,0 6.387734,51.266256,0
        </coordinates></LinearRing></outerBoundaryIs>
      </Polygon>
    </Placemark>
    <Placemark>
      <name>obstacle_23</name>
      <Polygon>
        <outerBoundaryIs><LinearRing><coordinates>
          6.404552,51.256517,0 6.384744,51.260451,0 6.381880,51.257202,0 6.387024,51.248390,0 6.390142,51.241506,0 6.405658,51.247225,0 6.404552,51.256517,0
        </coordinates></LinearRing></outerBoundaryIs>
      </Polygon>
    </Placemark>
    <Placemark>
      <name>obstacle_24</name>
      <Polygon>
        <outerBoundaryIs><LinearRing><coordinates>
          6.410279,51.265150,0 6.405493,51.267841,0 6.405820,51.268193,0 6.390100,51.272495,0 6.392349,51.250867,0 6.407128,51.260349,0 6.410279,51.265150,0
        </coordinates></LinearRing></outerBoundaryIs>
      </Polygon>
    </Placemark>
    <Placemark>
      <name>obstacle_25</name>
      <Polygon>
        <outerBoundaryIs><LinearRing><coordinates>
          6.185905,51.390407,0 6.167733,51.399430,0 6.163543,51.397465,0 6.163152,51.385403,0 6.166341,51.381730,0 6.173185,51.376385,0 6.174557,51.378858,0 6.180575,51.385273,0 6.185905,51.390407,0
        </coordinates></LinearRing></outerBoundaryIs>
      </Polygon>
    </Placemark>
    <Placemark>
      <name>obstacle_26</name>
      <Polygon>
        <outerBoundaryIs><LinearRing><coordinates>
          6.172046,51.393599,0 6.171015,51.398550,0 6.158260,51.386320,0 6.159798,51.377579,0 6.171042,51.374668,0 6.180585,51.379354,0 6.172046,51.393599,0
        </coordinates></LinearRing></outerBoundaryIs>
      </Polygon>
    </Placemark>
    <Placemark>
      <name>obstacle_27</name>
      <Polygon>
        <outerBoundaryIs><LinearRing><coordinates>
          6.181547,51.399015,0 6.178604,51.398546,0 6.177397,51.400412,0 6.170204,51.400050,0 6.168428,51.396544,0 6.168357,51.395514,0 6.163976,51.392944,0 6.164588,51.390799,0 6.181547,51.399015,0
        </coordinates></LinearRing></outerBoundaryIs>
      </Polygon>
    </Placemark>
    <Placemark>
      <name>obstacle_28</name>
      <Polygon>
        <outerBoundaryIs><LinearRing><coordinates>
          6.401518,51.035530,0 6.382193,51.034466,0 6.384789,51.025990,0 6.388745,51.021955,0 6.401518,51.035530,0
        </coordinates></LinearRing></outerBoundaryIs>
      </Polygon>
    </Placemark>
    <Placemark>
      <name>obstacle_29</name>
      <Polygon>
        <outerBoundaryIs><LinearRing><coordinates>
          6.406359,51.038981,0 6.404372,51.040724,0 6.397130,51.043983,0 6.389352,51.044057,0 6.388374,51.043313,0 6.401759,51.023952,0 6.406359,51.038981,0
        </coordinates></LinearRing></outerBoundaryIs>
      </Polygon>
    </Placemark>
    <Placemark>
      <name>obstacle_30</name>
      <Polygon>
        <outerBoundaryIs><LinearRing><coordinates>
          6.403390,51.038000,0 6.394584,51.041556,0 6.387101,51.031788,0 6.388310,51.027217,0 6.404266,51.020515,0 6.406101,51.022217,0 6.403390,51.038000,0
        </coordinates></LinearRing></outerBoundaryIs>
      </Polygon>
    </Placemark>
    <Placemark>
      <name>obstacle_31</name>
      <Polygon>
        <outerBoundaryIs><LinearRing><coordinates>
          6.107852,51.050454,0 6.097672,51.039162,0 6.097384,51.035954,0 6.117683,51.031406,0 6.107852,51.050454,0
        </coordinates></LinearRing></outerBoundaryIs>
      </Polygon>
    </Placemark>
    <Placemark>
      <name>obstacle_32</name>
      <Polygon>
        <outerBoundaryIs><LinearRing><coordinates>
          6.099074,51.032840,0 6.097212,51.031668,0 6.104111,51.021402,0 6.110255,51.020478,0 6.120474,51.024542,0 6.099074,51.032840,0
        </coordinates></LinearRing></outerBoundaryIs>
      </Polygon>
    </Placemark>
    <Placemark>
      <name>obstacle_33</name>
      <Polygon>
        <outerBoundaryIs><LinearRing><coordinates>
          6.119032,51.038967,0 6.114404,51.044992,0 6.109848,51.043591,0 6.093609,51.037221,0 6.103560,51.026094,0 6.115023,51.033830,0 6.119032,51.038967,0
        </coordinates></LinearRing></outerBoundaryIs>
      </Polygon>
    </Placemark>
    <Placemark>
      <name>obstacle_34</name>
      <Polygon>
        <outerBoundaryIs><LinearRing><coordinates>
          6.188380,51.324753,0 6.180377,51.334335,0 6.176161,51.309980,0 6.175885,51.315205,0 6.179969,51.314256,0 6.188380,51.324753,0
        </coordinates></LinearRing></outerBoundaryIs>
      </Polygon>
    </Placemark>
    <Placemark>
      <name>obstacle_35</name>
      <Polygon>
        <outerBoundaryIs><LinearRing><coordinates>
          6.181260,51.332379,0 6.169147,51.329856,0 6.165749,51.312325,0 6.183163,51.310121,0 6.181260,51.332379,0
        </coordinates></LinearRing></outerBoundaryIs>
      </Polygon>
    </Placemark>
    <Placemark>
      <name>obstacle_36</name>
      <Polygon>
        <outerBoundaryIs><LinearRing><coordinates>
          6.325731,51.186858,0 6.310745,51.189533,0 6.308931,51.187111,0 6.312633,51.170950,0 6.313117,51.170516,0 6.325466,51.174603,0 6.325731,51.186858,0
        </coordinates></LinearRing></outerBoundaryIs>
      </Polygon>
    </Placemark>
    <Placemark>
      <name>obstacle_37</name>
      <Polygon>
        <outerBoundaryIs><LinearRing><coordinates>
          6.326125,51.185272,0 6.324079,51.185829,0 6.307626,51.178920,0 6.323476,51.183913,0 6.326125,51.185272,0
        </coordinates></LinearRing></outerBoundaryIs>
      </Polygon>
    </Placemark>
    <Placemark>
      <name>obstacle_38</name>
      <Polygon>
        <outerBoundaryIs><LinearRing><coordinates>
          6.324066,51.185665,0 6.309401,51.183622,0 6.312814,51.180349,0 6.308342,51.181479,0 6.309353,51.173082,0 6.310972,51.171812,0 6.313877,51.167390,0 6.323101,51.165779,0 6.324066,51.185665,0
        </coordinates></LinearRing></outerBoundaryIs>
      </Polygon>
    </Placemark>
    <Placemark>
      <name>obstacle_39</name>
      <Polygon>
        <outerBoundaryIs><LinearRing><coordinates>
          6.337444,51.327685,0 6.322001,51.335286,0 6.318678,51.334604,0 6.315894,51.324644,0 6.315371,51.323815,0 6.337444,51.327685,0
        </coordinates></LinearRing></outerBoundaryIs>
      </Polygon>
    </Placemark>
    <Placemark>
      <name>obstacle_40</name>
      <Polygon>
        <outerBoundaryIs><LinearRing><coordinates>
          6.341503,51.322791,0 6.337344,51.326313,0 6.339037,51.330164,0 6.319322,51.324936,0 6.330324,51.309967,0 6.338622,51.317845,0 6.341503,51.322791,0
        </coordinates></LinearRing></outerBoundaryIs>
      </Polygon>
    </Placemark>
    <Placemark>
      <name>obstacle_41</name>
      <Polygon>
        <outerBoundaryIs><LinearRing><coordinates>
          6.120812,51.179661,0 6.104534,51.178075,0 6.103048,51.166901,0 6.104511,51.163892,0 6.107212,51.164876,0 6.120812,51.179661,0
        </coordinates></LinearRing></outerBoundaryIs>
      </Polygon>
    </Placemark>
    <Placemark>
      <name>obstacle_42</name>
      <Polygon>
        <outerBoundaryIs><LinearRing><coordinates>
          6.128279,51.177321,0 6.126697,51.177780,0 6.124939,51.187550,0 6.116962,51.188771,0 6.109605,51.174495,0 6.128279,51.177321,0
        </coordinates></LinearRing></outerBoundaryIs>
      </Polygon>
    </Placemark>
    <Placemark>
      <name>obstacle_43</name>
      <Polygon>
        <outerBoundaryIs><LinearRing><coordinates>
          6.103804,51.158936,0 6.120465,51.157320,0 6.119441,51.161466,0 6.121448,51.163035,0 6.124056,51.164289,0 6.103804,51.158936,0
        </coordinates></LinearRing></outerBoundaryIs>
      </Polygon>
    </Placemark>
    <Placemark>
      <name>obstacle_44</name>
      <Polygon>
        <outerBoundaryIs><LinearRing><coordinates>
          6.327422,51.252682,0 6.311432,51.259890,0 6.311355,51.254801,0 6.307158,51.251150,0 6.304137,51.245728,0 6.307933,51.240723,0 6.327422,51.252682,0
        </coordinates></LinearRing></outerBoundaryIs>
      </Polygon>
    </Placemark>
    <Placemark>
      <name>obstacle_45</name>
      <Polygon>
        <outerBoundaryIs><LinearRing><coordinates>
          6.320185,51.246673,0 6.317131,51.252995,0 6.306710,51.235999,0 6.313085,51.233678,0 6.320185,51.246673,0
        </coordinates></LinearRing></outerBoundaryIs>
      </Polygon>
    </Placemark>
    <Placemark>
      <name>obstacle_46</name>
      <Polygon>
        <outerBoundaryIs><LinearRing><coordinates>
          6.257430,51.041614,0 6.240380,51.030723,0 6.251899,51.032488,0 6.256749,51.036994,0 6.255794,51.037441,0 6.257430,51.041614,0
        </coordinates></LinearRing></outerBoundaryIs>
      </Polygon>
    </Placemark>
    <Placemark>
      <name>obstacle_47</name>
      <Polygon>
        <outerBoundaryIs><LinearRing><coordinates>
          6.256494,51.044699,0 6.237550,51.050006,0 6.241369,51.033604,0 6.247655,51.031660,0 6.256494,51.044699,0
        </coordinates></LinearRing></outerBoundaryIs>
      </Polygon>
    </Placemark>
    <Placemark>
      <name>obstacle_48</name>
      <Polygon>
        <outerBoundaryIs><LinearRing><coordinates>
          6.477308,51.405703,0 6.473325,51.407483,0 6.463786,51.410742,0 6.456911,51.400569,0 6.457485,51.392124,0 6.461792,51.387551,0 6.463273,51.389266,0 6.477348,51.399298,0 6.477308,51.405703,0
        </coordinates></LinearRing></outerBoundaryIs>
      </Polygon>
    </Placemark>
    <Placemark>
      <name>obstacle_49</name>
      <Polygon>
        <outerBoundaryIs><LinearRing><coordinates>
          6.471064,51.410734,0 6.466329,51.412325,0 6.456577,51.408660,0 6.467713,51.387821,0 6.473472,51.398977,0 6.471064,51.410734,0
        </coordinates></LinearRing></outerBoundaryIs>
      </Polygon>
    </Placemark>
    <Placemark>
      <name>obstacle_50</name>
      <Polygon>
        <outerBoundaryIs><LinearRing><coordinates>
          6.183832,51.474915,0 6.166332,51.477518,0 6.164001,51.474669,0 6.164554,51.463829,0 6.168242,51.459950,0 6.175629,51.459386,0 6.180109,51.463561,0 6.183832,51.474915,0
        </coordinates></LinearRing></outerBoundaryIs>
      </Polygon>
    </Placemark>
    <Placemark>
      <name>obstacle_51</name>
      <Polygon>
        <outerBoundaryIs><LinearRing><coordinates>
          6.185377,51.466465,0 6.177476,51.472377,0 6.171166,51.474333,0 6.164709,51.466338,0 6.163166,51.461142,0 6.178753,51.452186,0 6.185377,51.466465,0
        </coordinates></LinearRing></outerBoundaryIs>
      </Polygon>
    </Placemark>
    <Placemark>
      <name>obstacle_52</name>
      <Polygon>
        <outerBoundaryIs><LinearRing><coordinates>
          6.326940,51.113276,0 6.313085,51.096310,0 6.322206,51.097766,0 6.325734,51.097780,0 6.329388,51.105610,0 6.326940,51.113276,0
        </coordinates></LinearRing></outerBoundaryIs>
      </Polygon>
    </Placemark>
    <Placemark>
      <name>obstacle_53</name>
      <Polygon>
        <outerBoundaryIs><LinearRing><coordinates>
          6.330450,51.112133,0 6.311221,51.114909,0 6.311600,51.112650,0 6.308628,51.105981,0 6.313929,51.105798,0 6.317109,51.103617,0 6.320070,51.097895,0 6.322486,51.099858,0 6.330450,51.112133,0
        </coordinates></LinearRing></outerBoundaryIs>
      </Polygon>
    </Placemark>
    <Placemark>
      <name>obstacle_54</name>
      <Polygon>
        <outerBoundaryIs><LinearRing><coordinates>
          6.047829,51.409112,0 6.028908,51.397447,0 6.042873,51.387707,0 6.050906,51.399767,0 6.047829,51.409112,0
        </coordinates></LinearRing></outerBoundaryIs>
      </Polygon>
    </Placemark>
    <Placemark>
      <name>obstacle_55</name>
      <Polygon>
        <outerBoundaryIs><LinearRing><coordinates>
          6.035591,51.406971,0 6.031902,51.407576,0 6.035536,51.396787,0 6.042846,51.390693,0 6.050976,51.389973,0 6.052606,51.393846,0 6.035591,51.406971,0
        </coordinates></LinearRing></outerBoundaryIs>
      </Polygon>
    </Placemark>
    <Placemark>
      <name>obstacle_56</name>
      <Polygon>
        <outerBoundaryIs><LinearRing><coordinates>
          6.045577,51.405263,0 6.047145,51.412091,0 6.037750,51.417480,0 6.029221,51.412093,0 6.022354,51.409158,0 6.030060,51.394293,0 6.042836,51.398400,0 6.045577,51.405263,0
        </coordinates></LinearRing></outerBoundaryIs>
      </Polygon>
    </Placemark>
    <Placemark>
      <name>obstacle_57</name>
      <Polygon>
        <outerBoundaryIs><LinearRing><coordinates>
          6.036613,51.473290,0 6.035911,51.476482,0 6.032028,51.474807,0 6.023474,51.479389,0 6.017279,51.472654,0 6.018211,51.471023,0 6.019900,51.461058,0 6.030221,51.456750,0 6.036613,51.473290,0
        </coordinates></LinearRing></outerBoundaryIs>
      </Polygon>
    </Placemark>
    <Placemark>
      <name>obstacle_58</name>
      <Polygon>
        <outerBoundaryIs><LinearRing><coordinates>
          6.026122,51.480384,0 6.014973,51.476294,0 6.016067,51.475864,0 6.016180,51.472917,0 6.019189,51.465686,0 6.019527,51.461957,0 6.039596,51.465327,0 6.026122,51.480384,0
        </coordinates></LinearRing></outerBoundaryIs>
      </Polygon>
    </Placemark>
    <Placemark>
      <name>obstacle_59</name>
      <Polygon>
        <outerBoundaryIs><LinearRing><coordinates>
          6.242601,51.479960,0 6.240819,51.477862,0 6.248554,51.462438,0 6.249962,51.461885,0 6.242601,51.479960,0
        </coordinates></LinearRing></outerBoundaryIs>
      </Polygon>
    </Placemark>
    <Placemark>
      <name>obstacle_60</name>
      <Polygon>
        <outerBoundaryIs><LinearRing><coordinates>
          6.255999,51.477600,0 6.250372,51.483803,0 6.243028,51.482540,0 6.237334,51.480193,0 6.235075,51.477503,0 6.232608,51.477691,0 6.240128,51.463691,0 6.239987,51.463203,0 6.255999,51.477600,0
        </coordinates></LinearRing></outerBoundaryIs>
      </Polygon>
    </Placemark>
    <Placemark>
      <name>obstacle_61</name>
      <Polygon>
        <outerBoundaryIs><LinearRing><coordinates>
          6.252324,51.471080,0 6.238940,51.478332,0 6.234192,51.479345,0 6.230362,51.478919,0 6.228469,51.469236,0 6.231148,51.468957,0 6.228577,51.468379,0 6.237750,51.459911,0 6.252324,51.471080,0
        </coordinates></LinearRing></outerBoundaryIs>
      </Polygon>
    </Placemark>
    <Placemark>
      <name>obstacle_62</name>
      <Polygon>
        <outerBoundaryIs><LinearRing><coordinates>
          6.310745,51.048776,0 6.309096,51.047940,0 6.307400,51.046995,0 6.307824,51.043844,0 6.306341,51.033984,0 6.315705,51.026972,0 6.323770,51.036812,0 6.310745,51.048776,0
        </coordinates></LinearRing></outerBoundaryIs>
      </Polygon>
    </Placemark>
    <Placemark>
      <name>obstacle_63</name>
      <Polygon>
        <outerBoundaryIs><LinearRing><coordinates>
          6.304929,51.031724,0 6.302993,51.029328,0 6.313954,51.020904,0 6.320798,51.026296,0 6.327023,51.032544,0 6.304929,51.031724,0
        </coordinates></LinearRing></outerBoundaryIs>
      </Polygon>
    </Placemark>
    <Placemark>
      <name>obstacle_64</name>
      <Polygon>
        <outerBoundaryIs><LinearRing><coordinates>
          6.475206,51.463557,0 6.459459,51.466624,0 6.460893,51.453233,0 6.463099,51.448074,0 6.475206,51.463557,0
        </coordinates></LinearRing></outerBoundaryIs>
      </Polygon>
    </Placemark>
    <Placemark>
      <name>obstacle_65</name>
      <Polygon>
        <outerBoundaryIs><LinearRing><coordinates>
          6.472973,51.468921,0 6.471211,51.475009,0 6.462737,51.475988,0 6.458582,51.471431,0 6.451173,51.468430,0 6.452007,51.467213,0 6.455128,51.457365,0 6.463030,51.453066,0 6.472973,51.468921,0
        </coordinates></LinearRing></outerBoundaryIs>
      </Polygon>
    </Placemark>
    <Placemark>
      <name>obstacle_66</name>
      <Polygon>
        <outerBoundaryIs><LinearRing><coordinates>
          6.478480,51.459679,0 6.470174,51.466182,0 6.469473,51.468383,0 6.467116,51.466929,0 6.465678,51.465841,0 6.457171,51.465854,0 6.456435,51.462903,0 6.474723,51.449038,0 6.478480,51.459679,0
        </coordinates></LinearRing></outerBoundaryIs>
      </Polygon>
    </Placemark>
    <Placemark>
      <name>obstacle_67</name>
      <Polygon>
        <outerBoundaryIs><LinearRing><coordinates>
          6.106958,51.480263,0 6.092341,51.468725,0 6.098989,51.461447,0 6.101469,51.459385,0 6.109556,51.455246,0 6.112700,51.458645,0 6.117884,51.466184,0 6.106958,51.480263,0
        </coordinates></LinearRing></outerBoundaryIs>
      </Polygon>
    </Placemark>
    <Placemark>
      <name>obstacle_68</name>
      <Polygon>
        <outerBoundaryIs><LinearRing><coordinates>
          6.110521,51.474084,0 6.110197,51.476453,0 6.091736,51.468586,0 6.094807,51.455472,0 6.100782,51.456077,0 6.104006,51.455340,0 6.115773,51.464057,0 6.110521,51.474084,0
        </coordinates></LinearRing></outerBoundaryIs>
      </Polygon>
    </Placemark>
    <Placemark>
      <name>obstacle_69</name>
      <Polygon>
        <outerBoundaryIs><LinearRing><coordinates>
          6.098993,51.486202,0 6.099106,51.484514,0 6.092240,51.474622,0 6.116215,51.470529,0 6.117761,51.471116,0 6.116723,51.471652,0 6.098993,51.486202,0
        </coordinates></LinearRing></outerBoundaryIs>
      </Polygon>
    </Placemark>
    <Placemark>
      <name>obstacle_70</name>
      <Polygon>
        <outerBoundaryIs><LinearRing><coordinates>
          6.037707,51.334600,0 6.033044,51.335908,0 6.032866,51.335898,0 6.020782,51.331257,0 6.033760,51.316577,0 6.037707,51.334600,0
        </coordinates></LinearRing></outerBoundaryIs>
      </Polygon>
    </Placemark>
    <Placemark>
      <name>obstacle_71</name>
      <Polygon>
        <outerBoundaryIs><LinearRing><coordinates>
          6.036783,51.330883,0 6.034935,51.334525,0 6.032809,51.336431,0 6.024649,51.337439,0 6.023120,51.331615,0 6.016159,51.326034,0 6.020582,51.318493,0 6.026963,51.312118,0 6.036783,51.330883,0
        </coordinates></LinearRing></outerBoundaryIs>
      </Polygon>
    </Placemark>
    <Placemark>
      <name>obstacle_72</name>
      <Polygon>
        <outerBoundaryIs><LinearRing><coordinates>
          6.465879,51.269324,0 6.450335,51.251779,0 6.453461,51.251483,0 6.456215,51.247091,0 6.466976,51.246571,0 6.471163,51.253986,0 6.465879,51.269324,0
        </coordinates></LinearRing></outerBoundaryIs>
      </Polygon>
    </Placemark>
    <Placemark>
      <name>obstacle_73</name>
      <Polygon>
        <outerBoundaryIs><LinearRing><coordinates>
          6.477447,51.259642,0 6.472687,51.269198,0 6.457419,51.265865,0 6.452027,51.261343,0 6.459503,51.251791,0 6.468473,51.247168,0 6.470051,51.250810,0 6.475964,51.252127,0 6.477447,51.259642,0
        </coordinates></LinearRing></outerBoundaryIs>
      </Polygon>
    </Placemark>
    <Placemark>
      <name>obstacle_74</name>
      <Polygon>
        <outerBoundaryIs><LinearRing><coordinates>
          6.471651,51.262194,0 6.468366,51.264537,0 6.450033,51.264320,0 6.450953,51.259503,0 6.450377,51.258956,0 6.461389,51.249020,0 6.464204,51.248047,0 6.472089,51.256870,0 6.471651,51.262194,0
        </coordinates></LinearRing></outerBoundaryIs>
      </Polygon>
    </Placemark>
    <Placemark>
      <name>obstacle_75</name>
      <Polygon>
        <outerBoundaryIs><LinearRing><coordinates>
          6.187784,51.182677,0 6.182778,51.183806,0 6.169961,51.186465,0 6.170917,51.183560,0 6.168213,51.183757,0 6.167313,51.170661,0 6.187784,51.182677,0
        </coordinates></LinearRing></outerBoundaryIs>
      </Polygon>
    </Placemark>
    <Placemark>
      <name>obstacle_76</name>
      <Polygon>
        <outerBoundaryIs><LinearRing><coordinates>
          6.192666,51.178795,0 6.187841,51.182210,0 6.187336,51.182951,0 6.181589,51.191734,0 6.178459,51.186526,0 6.189038,51.173671,0 6.192666,51.178795,0
        </coordinates></LinearRing></outerBoundaryIs>
      </Polygon>
    </Placemark>
    <Placemark>
      <name>obstacle_77</name>
      <Polygon>
        <outerBoundaryIs><LinearRing><coordinates>
          6.180314,51.193598,0 6.165140,51.184938,0 6.164845,51.181718,0 6.176257,51.170555,0 6.186424,51.174356,0 6.180314,51.193598,0
        </coordinates></LinearRing></outerBoundaryIs>
      </Polygon>
    </Placemark>
    <Placemark>
      <name>obstacle_78</name>
      <Polygon>
        <outerBoundaryIs><LinearRing><coordinates>
          6.179353,51.115738,0 6.174133,51.118985,0 6.173708,51.117140,0 6.170116,51.101957,0 6.172906,51.096664,0 6.177240,51.097837,0 6.181407,51.094288,0 6.191054,51.104814,0 6.179353,51.115738,0
        </coordinates></LinearRing></outerBoundaryIs>
      </Polygon>
    </Placemark>
    <Placemark>
      <name>obstacle_79</name>
      <Polygon>
        <outerBoundaryIs><LinearRing><coordinates>
          6.186347,51.112873,0 6.166172,51.111054,0 6.166817,51.109364,0 6.167608,51.105059,0 6.167364,51.101944,0 6.171440,51.099215,0 6.188607,51.104882,0 6.186432,51.108195,0 6.186347,51.112873,0
        </coordinates></LinearRing></outerBoundaryIs>
      </Polygon>
    </Placemark>
  </Document>
</kml>
